<?xml version="1.0" encoding="UTF-8"?>
<kml xmlns="http://www.opengis.net/kml/2.2" xmlns:gx="http://www.google.com/kml/ext/2.2" xmlns:kml="http://www.opengis.net/kml/2.2" xmlns:atom="http://www.w3.org/2005/Atom">
<Document id="1SmAPofriiwA0WJ7_vj9ef7A2aLjdihzu">
	<name>Untitled project</name>
	<gx:CascadingStyle kml:id="__managed_style_204098D3AA3BDD3D5DAB">
		<Style>
			<IconStyle>
				<scale>1.2</scale>
				<Icon>
					<href>https://earth.google.com/earth/document/icon?color=1976d2&amp;id=2000&amp;scale=4</href>
				</Icon>
				<hotSpot x="64" y="128" xunits="pixels" yunits="insetPixels"/>
			</IconStyle>
			<LabelStyle>
			</LabelStyle>
			<LineStyle>
				<color>ff2dc0fb</color>
				<width>6</width>
			</LineStyle>
			<PolyStyle>
				<color>40ffffff</color>
			</PolyStyle>
			<BalloonStyle>
			</BalloonStyle>
		</Style>
	</gx:CascadingStyle>
	<gx:CascadingStyle kml:id="__managed_style_192C0CE6403BDD3D5DAB">
		<Style>
			<IconStyle>
				<Icon>
					<href>https://earth.google.com/earth/document/icon?color=1976d2&amp;id=2000&amp;scale=4</href>
				</Icon>
				<hotSpot x="64" y="128" xunits="pixels" yunits="insetPixels"/>
			</IconStyle>
			<LabelStyle>
			</LabelStyle>
			<LineStyle>
				<color>ff2dc0fb</color>
				<width>4</width>
			</LineStyle>
			<PolyStyle>
				<color>40ffffff</color>
			</PolyStyle>
			<BalloonStyle>
			</BalloonStyle>
		</Style>
	</gx:CascadingStyle>
	<StyleMap id="__managed_style_02B053245D3BDD3D5DAB">
		<Pair>
			<key>normal</key>
			<styleUrl>#__managed_style_192C0CE6403BDD3D5DAB</styleUrl>
		</Pair>
		<Pair>
			<key>highlight</key>
			<styleUrl>#__managed_style_204098D3AA3BDD3D5DAB</styleUrl>
		</Pair>
	</StyleMap>
	<Placemark id="0B161A603C3BDD3E1454">
		<name>AOI</name>
		<LookAt>
			<longitude>-105.2081041529022</longitude>
			<latitude>44.55114519515188</latitude>
			<altitude>1208.791766364661</altitude>
			<heading>-0.09647363572664186</heading>
			<tilt>11.81298334422629</tilt>
			<gx:fovy>35</gx:fovy>
			<range>7287.116598811701</range>
			<altitudeMode>absolute</altitudeMode>
		</LookAt>
		<styleUrl>#__managed_style_02B053245D3BDD3D5DAB</styleUrl>
		<Polygon>
			<outerBoundaryIs>
				<LinearRing>
					<coordinates>
						-105.249100970109,44.55286902040253,0 -105.249100963933,44.49356945511143,0 -105.1898011176438,44.4935691077677,0 -105.1898013932574,44.55286875010027,0 -105.249100970109,44.55286902040253,0 
					</coordinates>
				</LinearRing>
			</outerBoundaryIs>
		</Polygon>
	</Placemark>
</Document>
</kml>
