<?xml version="1.0" encoding="UTF-8"?>
<kml xmlns="http://www.opengis.net/kml/2.2" xmlns:gx="http://www.google.com/kml/ext/2.2" xmlns:kml="http://www.opengis.net/kml/2.2" xmlns:atom="http://www.w3.org/2005/Atom">
<Document id="1SmAPofriiwA0WJ7_vj9ef7A2aLjdihzu">
	<name>Untitled project</name>
	<gx:CascadingStyle kml:id="__managed_style_08F9984D4A3BD8F3F316">
		<Style>
			<IconStyle>
				<scale>1.2</scale>
				<Icon>
					<href>https://earth.google.com/earth/document/icon?color=1976d2&amp;id=2000&amp;scale=4</href>
				</Icon>
				<hotSpot x="64" y="128" xunits="pixels" yunits="insetPixels"/>
			</IconStyle>
			<LabelStyle>
			</LabelStyle>
			<LineStyle>
				<color>ff2dc0fb</color>
				<width>6</width>
			</LineStyle>
			<PolyStyle>
				<color>40ffffff</color>
			</PolyStyle>
			<BalloonStyle>
			</BalloonStyle>
		</Style>
	</gx:CascadingStyle>
	<gx:CascadingStyle kml:id="__managed_style_1149114D873BD8F3F314">
		<Style>
			<IconStyle>
				<Icon>
					<href>https://earth.google.com/earth/document/icon?color=1976d2&amp;id=2000&amp;scale=4</href>
				</Icon>
				<hotSpot x="64" y="128" xunits="pixels" yunits="insetPixels"/>
			</IconStyle>
			<LabelStyle>
			</LabelStyle>
			<LineStyle>
				<color>ff2dc0fb</color>
				<width>4</width>
			</LineStyle>
			<PolyStyle>
				<color>40ffffff</color>
			</PolyStyle>
			<BalloonStyle>
			</BalloonStyle>
		</Style>
	</gx:CascadingStyle>
	<StyleMap id="__managed_style_0862179C2D3BD8F3F314">
		<Pair>
			<key>normal</key>
			<styleUrl>#__managed_style_1149114D873BD8F3F314</styleUrl>
		</Pair>
		<Pair>
			<key>highlight</key>
			<styleUrl>#__managed_style_08F9984D4A3BD8F3F316</styleUrl>
		</Pair>
	</StyleMap>
	<Placemark id="03B83D84F13BD8F41FEC">
		<name>SP</name>
		<LookAt>
			<longitude>-105.1910828055897</longitude>
			<latitude>44.55189207920349</latitude>
			<altitude>1208.519662648239</altitude>
			<heading>-0.02378595713724592</heading>
			<tilt>8.773204011068772</tilt>
			<gx:fovy>35</gx:fovy>
			<range>175.908117072122</range>
			<altitudeMode>absolute</altitudeMode>
		</LookAt>
		<styleUrl>#__managed_style_0862179C2D3BD8F3F314</styleUrl>
		<Point>
			<coordinates>-105.1908884301829,44.55183140917692,1207.186867377823</coordinates>
		</Point>
	</Placemark>
</Document>
</kml>
