{"type": "FeatureCollection", "name": "railways", "crs": {"type": "name", "properties": {"name": "urn:ogc:def:crs:OGC:1.3:CRS84"}}, "features": [{"type": "Feature", "properties": {"osm_id": "15615907", "name": null, "highway": null, "waterway": null, "aerialway": null, "barrier": null, "man_made": null, "railway": "rail", "z_order": 5, "other_tags": "\"electrified\"=>\"no\",\"gauge\"=>\"1435\",\"tiger:cfcc\"=>\"B11\",\"tiger:county\"=>\"Nicholas, WV\",\"tiger:reviewed\"=>\"no\",\"usage\"=>\"branch\""}, "geometry": {"type": "LineString", "coordinates": [[-80.9701094, 38.3014241, 0.0], [-80.9716192, 38.2992868, 0.0], [-80.9699367, 38.3013854, 0.0], [-80.9690392, 38.3021006, 0.0], [-80.9679025, 38.3026862, 0.0], [-80.9664133, 38.3031682, 0.0], [-80.965452, 38.3035058, 0.0], [-80.9649354, 38.3040291, 0.0], [-80.9646538, 38.3046188, 0.0], [-80.9646517, 38.3047811, 0.0], [-80.9647042, 38.3052368, 0.0], [-80.9651361, 38.3059112, 0.0], [-80.9657964, 38.3062976, 0.0], [-80.9664954, 38.3064635, 0.0], [-80.9675227, 38.3064058, 0.0], [-80.9682431, 38.3059823, 0.0], [-80.9688005, 38.3052444, 0.0], [-80.9688327, 38.30394909999998, 0.0], [-80.9689791, 38.302999, 0.0], [-80.9701094, 38.3014241, 0.0]]}}, {"type": "Feature", "properties": {"osm_id": "15623191", "name": "Kanawha River Railroad", "highway": null, "waterway": null, "aerialway": null, "barrier": null, "man_made": null, "railway": "rail", "z_order": 5, "other_tags": "\"electrified\"=>\"no\",\"gauge\"=>\"1435\",\"operator\"=>\"Kanawha River Railroad\",\"reporting_marks\"=>\"KNWA\",\"tiger:cfcc\"=>\"B11\",\"tiger:county\"=>\"Nicholas, WV\",\"tiger:name_base\"=>\"New York Central Railroad\",\"tiger:reviewed\"=>\"no\",\"usage\"=>\"branch\""}, "geometry": {"type": "LineString", "coordinates": [[-81.0016802, 38.268039899999984, 0.0], [-81.0018075, 38.2679125, 0.0], [-81.0021014, 38.2675728, 0.0], [-81.0022578, 38.26729239999999, 0.0], [-81.0023325, 38.2669736, 0.0], [-81.0023571, 38.266481, 0.0], [-81.0023312, 38.2649325, 0.0], [-81.0023321, 38.2646351, 0.0], [-81.0023922, 38.2644539, 0.0], [-81.0025093, 38.264246, 0.0], [-81.0027607, 38.263988, 0.0], [-81.0030023, 38.2638116, 0.0], [-81.0033164, 38.2636631, 0.0], [-81.0036318, 38.2635919, 0.0], [-81.0040317, 38.2635743, 0.0], [-81.0043827, 38.2636258, 0.0], [-81.005793, 38.264046, 0.0], [-81.006548, 38.264162, 0.0], [-81.009076, 38.263366, 0.0], [-81.010151, 38.263094, 0.0], [-81.010877, 38.263233, 0.0], [-81.011601, 38.263646, 0.0], [-81.012355, 38.264037, 0.0], [-81.013051, 38.26429, 0.0], [-81.013979, 38.264452, 0.0], [-81.014851, 38.264362, 0.0], [-81.016733, 38.264599, 0.0], [-81.01726, 38.264665, 0.0], [-81.018276, 38.264712, 0.0], [-81.019935, 38.2645146, 0.0], [-81.0203811, 38.2644363, 0.0], [-81.0206801, 38.2643355, 0.0], [-81.0208651, 38.2642598, 0.0], [-81.0209572, 38.26419879999999, 0.0], [-81.0211989, 38.2640476, 0.0], [-81.0214827, 38.2637955, 0.0], [-81.0216602, 38.26357130000001, 0.0], [-81.021775, 38.26336829999999, 0.0], [-81.0218697, 38.2630618, 0.0], [-81.0219119, 38.2628854, 0.0], [-81.0219035, 38.2627195, 0.0], [-81.0218984, 38.262555, 0.0], [-81.0218781, 38.2624595, 0.0], [-81.0218409, 38.2623321, 0.0], [-81.0217734, 38.2621756, 0.0], [-81.0216889, 38.2620084, 0.0], [-81.0215503, 38.2618161, 0.0], [-81.0213763, 38.2616316, 0.0], [-81.0210502, 38.261365, 0.0], [-81.0200718, 38.2605729, 0.0], [-81.0198201, 38.260362, 0.0], [-81.019423, 38.25993, 0.0], [-81.01932621885324, 38.25956932142396, 0.0]]}}, {"type": "Feature", "properties": {"osm_id": "168661955", "name": "Vaughan Railroad", "highway": null, "waterway": null, "aerialway": null, "barrier": null, "man_made": null, "railway": "rail", "z_order": 5, "other_tags": "\"electrified\"=>\"no\",\"gauge\"=>\"1435\",\"operator\"=>\"Vaughan Railroad\",\"usage\"=>\"branch\""}, "geometry": {"type": "LineString", "coordinates": [[-81.09326569370089, 38.28826094245813, 0.0], [-81.0931396, 38.2883027, 0.0], [-81.0927077, 38.2885163, 0.0], [-81.0907405, 38.2897817, 0.0], [-81.0902819, 38.2900023, 0.0], [-81.0898234, 38.2901254, 0.0], [-81.0876195, 38.2906594, 0.0], [-81.0870663, 38.2908754, 0.0], [-81.0867113, 38.2911099, 0.0], [-81.0861345, 38.2916044, 0.0], [-81.0854895, 38.2921942, 0.0], [-81.0853209, 38.2924171, 0.0], [-81.0852174, 38.2926794, 0.0], [-81.0851908, 38.2930045, 0.0], [-81.0852233, 38.2932668, 0.0], [-81.085386, 38.2935896, 0.0], [-81.0856759, 38.2939378, 0.0], [-81.0862262, 38.2945392, 0.0], [-81.08644210000001, 38.2949246, 0.0], [-81.0865427, 38.2953263, 0.0], [-81.0865368, 38.2957279, 0.0], [-81.086448, 38.2960646, 0.0], [-81.0861936, 38.296491799999984, 0.0], [-81.0858919, 38.2968168, 0.0], [-81.0855665, 38.2970466, 0.0], [-81.0852292, 38.2971999, 0.0], [-81.0848032, 38.2973276, 0.0], [-81.0826111, 38.2978221, 0.0], [-81.0822029, 38.29787080000001, 0.0], [-81.0801706, 38.298031, 0.0], [-81.079718, 38.29811689999999, 0.0], [-81.0792801, 38.298228399999985, 0.0], [-81.0787181, 38.2984907, 0.0], [-81.0783335, 38.2987438, 0.0], [-81.0761355, 38.3004176, 0.0], [-81.0756267, 38.3007334, 0.0], [-81.0752421, 38.3008843, 0.0], [-81.0746504, 38.3010352, 0.0], [-81.0732423, 38.3013555, 0.0], [-81.0727986, 38.3015134, 0.0], [-81.0724524, 38.30170609999998, 0.0], [-81.0720708, 38.3020056, 0.0], [-81.0703432, 38.3033219, 0.0], [-81.0699202, 38.3035795, 0.0], [-81.0694498, 38.3037838, 0.0], [-81.0687842, 38.3040044, 0.0], [-81.0673346, 38.3044803, 0.0], [-81.0669885, 38.30463119999999, 0.0], [-81.0665507, 38.3048958, 0.0], [-81.0661336, 38.3052417, 0.0], [-81.0658407, 38.3056294, 0.0], [-81.0652698, 38.3065417, 0.0], [-81.0650301, 38.306804, 0.0], [-81.0647106, 38.30705239999999, 0.0], [-81.0643527, 38.3072358, 0.0], [-81.0631043, 38.3077743, 0.0], [-81.0627582, 38.3079647, 0.0], [-81.0623647, 38.3082873, 0.0], [-81.0620216, 38.3086425, 0.0], [-81.061776, 38.3090464, 0.0], [-81.0615601, 38.3095873, 0.0], [-81.0612435, 38.3104183, 0.0], [-81.0610128, 38.3108268, 0.0], [-81.0607761, 38.311098399999985, 0.0], [-81.0603709, 38.311486, 0.0], [-81.0575161, 38.3140138, 0.0], [-81.05727950000002, 38.3142738, 0.0], [-81.0569984, 38.3147798, 0.0], [-81.0568209, 38.315283399999984, 0.0], [-81.0567795, 38.3156432, 0.0], [-81.0568446, 38.3160842, 0.0], [-81.0571197, 38.31738630000001, 0.0], [-81.0571315, 38.31769039999999, 0.0], [-81.0570221, 38.3179712, 0.0], [-81.0568476, 38.3182497, 0.0], [-81.0565576, 38.3185259, 0.0], [-81.0561879, 38.3187464, 0.0], [-81.0558269, 38.318881, 0.0], [-81.05559690000001, 38.318952, 0.0], [-81.0544807, 38.3192963, 0.0], [-81.0531556, 38.319705, 0.0], [-81.0527208, 38.3197862, 0.0], [-81.0521409, 38.3198234, 0.0], [-81.0513097, 38.3198512, 0.0], [-81.0509369, 38.3199162, 0.0], [-81.0503719, 38.3200833, 0.0], [-81.049866, 38.3203131, 0.0], [-81.0493454, 38.3206403, 0.0], [-81.0481591, 38.3213761, 0.0], [-81.0477952, 38.3215594, 0.0], [-81.0473574, 38.3216847, 0.0], [-81.0447719, 38.322251, 0.0], [-81.0430176, 38.322634, 0.0], [-81.042754, 38.3226521, 0.0], [-81.0424763, 38.32267109999999, 0.0], [-81.0420355, 38.322634, 0.0], [-81.0399972, 38.3223508, 0.0], [-81.0393849, 38.3223114, 0.0], [-81.0387518, 38.3223439, 0.0], [-81.0382519, 38.3224228, 0.0], [-81.0374827, 38.3226108, 0.0], [-81.0368615, 38.3228475, 0.0], [-81.0356841, 38.3233233, 0.0], [-81.0352196, 38.32342770000001, 0.0], [-81.0347995, 38.3234323, 0.0], [-81.0341635, 38.3233047, 0.0], [-81.03183240000001, 38.32262930000001, 0.0], [-81.0314449, 38.322562, 0.0], [-81.0309035, 38.322569, 0.0], [-81.0305248, 38.3226409, 0.0], [-81.0300338, 38.3228498, 0.0], [-81.0294954, 38.3232188, 0.0], [-81.028173, 38.3242191, 0.0], [-81.0277382, 38.3244674, 0.0], [-81.027256, 38.3246554, 0.0], [-81.0268435, 38.3247438, 0.0], [-81.026682, 38.3247784, 0.0], [-81.0260874, 38.3248225, 0.0], [-81.0255904, 38.32479, 0.0], [-81.025058, 38.3247088, 0.0], [-81.0232294, 38.3244114, 0.0], [-81.0219044, 38.3241959, 0.0]]}}, {"type": "Feature", "properties": {"osm_id": "311354835", "name": null, "highway": null, "waterway": null, "aerialway": null, "barrier": null, "man_made": null, "railway": "rail", "z_order": 5, "other_tags": "\"electrified\"=>\"no\",\"gauge\"=>\"1435\",\"service\"=>\"siding\""}, "geometry": {"type": "LineString", "coordinates": [[-81.0232294, 38.3244114, 0.0], [-81.0238194, 38.3245424, 0.0], [-81.0240795, 38.32459080000001, 0.0], [-81.0254797, 38.324816, 0.0], [-81.0257774, 38.3248412, 0.0], [-81.0259705, 38.3248539, 0.0], [-81.0262655, 38.3248518, 0.0], [-81.0265177, 38.3248265, 0.0], [-81.02676180000002, 38.3247907, 0.0], [-81.0269039, 38.3247676, 0.0], [-81.0270273, 38.3247423, 0.0], [-81.0273626, 38.3246498, 0.0], [-81.0276388, 38.3245467, 0.0], [-81.0279392, 38.324412, 0.0], [-81.02814580000002, 38.3242942, 0.0], [-81.028422, 38.3240942, 0.0], [-81.0297343, 38.3231083, 0.0], [-81.0298141, 38.32304839999998, 0.0], [-81.0300609, 38.3228864, 0.0], [-81.03025670000001, 38.3227854, 0.0], [-81.0305303, 38.3226823, 0.0], [-81.0307636, 38.322629699999986, 0.0], [-81.03098890000001, 38.3226023, 0.0], [-81.0311633, 38.3225897, 0.0], [-81.0314234, 38.3226023, 0.0], [-81.0316863, 38.3226423, 0.0], [-81.0333171, 38.3230968, 0.0], [-81.0343068, 38.3233788, 0.0], [-81.0345536, 38.3234314, 0.0], [-81.0348057, 38.3234609, 0.0], [-81.0350471, 38.3234651, 0.0], [-81.035326, 38.3234398, 0.0], [-81.035656, 38.3233683, 0.0], [-81.0358974, 38.3232841, 0.0], [-81.0371392, 38.3227644, 0.0], [-81.0374369, 38.3226591, 0.0], [-81.0377561, 38.3225645, 0.0], [-81.0380994, 38.3224845, 0.0], [-81.038424, 38.3224256, 0.0], [-81.0387915, 38.3223772, 0.0], [-81.0391616, 38.322354, 0.0], [-81.0395452, 38.3223519, 0.0], [-81.0398992, 38.3223709, 0.0], [-81.0421308, 38.3226781, 0.0], [-81.0424661, 38.3227012, 0.0], [-81.0426646, 38.3226865, 0.0], [-81.0428525, 38.3226795, 0.0], [-81.0431313, 38.3226465, 0.0], [-81.0435014, 38.322575, 0.0], [-81.0471331, 38.3217606, 0.0], [-81.0475086, 38.3216743, 0.0], [-81.04786, 38.3215607, 0.0], [-81.0481631, 38.3214176, 0.0], [-81.04878, 38.3210262, 0.0], [-81.0498931, 38.320336, 0.0], [-81.050156, 38.3202097, 0.0], [-81.0504135, 38.3200961, 0.0], [-81.0506951, 38.3200077, 0.0], [-81.0509875, 38.3199383, 0.0], [-81.0512315, 38.319898299999984, 0.0], [-81.0516285, 38.3198814, 0.0], [-81.0523983, 38.3198625, 0.0], [-81.0528891, 38.319784599999984, 0.0], [-81.05338, 38.31969, 0.0], [-81.0538279, 38.3195405, 0.0], [-81.0544807, 38.3192963, 0.0]]}}, {"type": "Feature", "properties": {"osm_id": "312529249", "name": null, "highway": null, "waterway": null, "aerialway": null, "barrier": null, "man_made": null, "railway": "rail", "z_order": 25, "other_tags": "\"bridge\"=>\"yes\",\"electrified\"=>\"no\",\"gauge\"=>\"1435\",\"layer\"=>\"1\",\"tiger:cfcc\"=>\"B11\",\"tiger:county\"=>\"Nicholas, WV\",\"tiger:reviewed\"=>\"no\",\"usage\"=>\"branch\""}, "geometry": {"type": "LineString", "coordinates": [[-80.9780865, 38.2785463, 0.0], [-80.9767029, 38.279266, 0.0]]}}, {"type": "Feature", "properties": {"osm_id": "312529267", "name": null, "highway": null, "waterway": null, "aerialway": null, "barrier": null, "man_made": null, "railway": "rail", "z_order": 5, "other_tags": "\"electrified\"=>\"no\",\"gauge\"=>\"1435\",\"tiger:cfcc\"=>\"B11\",\"tiger:county\"=>\"Nicholas, WV\",\"tiger:reviewed\"=>\"no\",\"usage\"=>\"branch\""}, "geometry": {"type": "LineString", "coordinates": [[-80.9767029, 38.279266, 0.0], [-80.9760811, 38.2796392, 0.0], [-80.97553610000001, 38.2800202, 0.0], [-80.9751274, 38.2803979, 0.0], [-80.9748421, 38.2807522, 0.0], [-80.974608, 38.2810831, 0.0], [-80.9744291, 38.2814808, 0.0], [-80.974195, 38.2821793, 0.0], [-80.973833, 38.2833056, 0.0], [-80.9735265, 38.28462909999999, 0.0], [-80.97351, 38.285118, 0.0], [-80.9728109, 38.2873688, 0.0], [-80.9726854, 38.288984, 0.0], [-80.9727565, 38.2909892, 0.0], [-80.973073, 38.2928691, 0.0], [-80.9730914, 38.2929534, 0.0], [-80.97343640000001, 38.2945366, 0.0], [-80.9735534, 38.2958729, 0.0], [-80.9732133, 38.2969313, 0.0], [-80.9726889, 38.2978078, 0.0], [-80.9716192, 38.2992868, 0.0]]}}, {"type": "Feature", "properties": {"osm_id": "312529268", "name": null, "highway": null, "waterway": null, "aerialway": null, "barrier": null, "man_made": null, "railway": "rail", "z_order": 5, "other_tags": "\"electrified\"=>\"no\",\"gauge\"=>\"1435\",\"usage\"=>\"branch\""}, "geometry": {"type": "LineString", "coordinates": [[-80.9780865, 38.2785463, 0.0], [-80.9791084, 38.2779814, 0.0], [-80.97969170000002, 38.2775536, 0.0], [-80.9801473, 38.2771692, 0.0], [-80.9806114, 38.2766779, 0.0], [-80.98157360000002, 38.27554809999999, 0.0], [-80.9818802, 38.27503, 0.0], [-80.9821186, 38.2745153, 0.0], [-80.9823017, 38.27397040000001, 0.0], [-80.9824894, 38.2732763, 0.0]]}}, {"type": "Feature", "properties": {"osm_id": "312530135", "name": null, "highway": null, "waterway": null, "aerialway": null, "barrier": null, "man_made": null, "railway": "rail", "z_order": 5, "other_tags": "\"electrified\"=>\"no\",\"gauge\"=>\"1435\",\"service\"=>\"siding\""}, "geometry": {"type": "LineString", "coordinates": [[-81.0297343, 38.3231083, 0.0], [-81.0292055, 38.3235688, 0.0]]}}, {"type": "Feature", "properties": {"osm_id": "312530138", "name": null, "highway": null, "waterway": null, "aerialway": null, "barrier": null, "man_made": null, "railway": "rail", "z_order": 5, "other_tags": "\"electrified\"=>\"no\",\"gauge\"=>\"1435\",\"service\"=>\"siding\""}, "geometry": {"type": "LineString", "coordinates": [[-81.02998870000002, 38.3229964, 0.0], [-81.0292055, 38.3235688, 0.0], [-81.0285189, 38.3240864, 0.0], [-81.0281997, 38.3243242, 0.0], [-81.0280388, 38.3244252, 0.0], [-81.0278832, 38.3245009, 0.0], [-81.027725, 38.3245704, 0.0], [-81.0276016, 38.3246146, 0.0], [-81.0274299, 38.3246588, 0.0], [-81.0270273, 38.3247423, 0.0]]}}, {"type": "Feature", "properties": {"osm_id": "476170267", "name": null, "highway": null, "waterway": null, "aerialway": null, "barrier": null, "man_made": null, "railway": "rail", "z_order": 5, "other_tags": "\"electrified\"=>\"no\",\"gauge\"=>\"1435\",\"service\"=>\"spur\""}, "geometry": {"type": "LineString", "coordinates": [[-80.9120724, 38.2895001, 0.0], [-80.9119941, 38.289016, 0.0], [-80.9115328, 38.2872897, 0.0], [-80.9110956, 38.2856454, 0.0], [-80.9107281, 38.2842243, 0.0], [-80.91030460000002, 38.282640499999985, 0.0], [-80.9100152, 38.2815237, 0.0], [-80.9098437, 38.2810573, 0.0]]}}, {"type": "Feature", "properties": {"osm_id": "501450534", "name": "Kanawha River Railroad", "highway": null, "waterway": null, "aerialway": null, "barrier": null, "man_made": null, "railway": "rail", "z_order": 25, "other_tags": "\"bridge\"=>\"yes\",\"cutting\"=>\"yes\",\"electrified\"=>\"no\",\"gauge\"=>\"1435\",\"layer\"=>\"1\",\"operator\"=>\"Kanawha River Railroad\",\"reporting_marks\"=>\"KNWA\",\"tiger:cfcc\"=>\"B11\",\"tiger:county\"=>\"Nicholas, WV\",\"tiger:name_base\"=>\"New York Central Railroad\",\"usage\"=>\"branch\""}, "geometry": {"type": "LineString", "coordinates": [[-80.9612283, 38.2794635, 0.0], [-80.9614742, 38.2793569, 0.0]]}}, {"type": "Feature", "properties": {"osm_id": "501450535", "name": "Kanawha River Railroad", "highway": null, "waterway": null, "aerialway": null, "barrier": null, "man_made": null, "railway": "rail", "z_order": 5, "other_tags": "\"electrified\"=>\"no\",\"gauge\"=>\"1435\",\"operator\"=>\"Kanawha River Railroad\",\"reporting_marks\"=>\"KNWA\",\"tiger:cfcc\"=>\"B11\",\"tiger:county\"=>\"Nicholas, WV\",\"tiger:name_base\"=>\"New York Central Railroad\",\"tiger:reviewed\"=>\"no\",\"usage\"=>\"branch\""}, "geometry": {"type": "LineString", "coordinates": [[-80.90681317039557, 38.271460232678166, 0.0], [-80.9074357, 38.2723111, 0.0], [-80.907659, 38.2728504, 0.0], [-80.9079577, 38.2738801, 0.0], [-80.9080033, 38.27403730000001, 0.0], [-80.9080876, 38.2742995, 0.0], [-80.9083656, 38.2751645, 0.0], [-80.908446, 38.2778922, 0.0], [-80.9084963, 38.2781646, 0.0], [-80.9085985, 38.27849530000001, 0.0], [-80.9087318, 38.278795, 0.0], [-80.9091197, 38.2794518, 0.0], [-80.9095235, 38.2800741, 0.0], [-80.9097409, 38.280662, 0.0], [-80.9098437, 38.2810573, 0.0], [-80.9099433, 38.2814453, 0.0], [-80.910251, 38.2826466, 0.0], [-80.9103486, 38.2830384, 0.0], [-80.9107888, 38.2846538, 0.0], [-80.911124, 38.28596, 0.0], [-80.9114323, 38.2870906, 0.0], [-80.9118024, 38.2884991, 0.0], [-80.9120724, 38.2895001, 0.0], [-80.9120944, 38.2895818, 0.0], [-80.9128822, 38.2926697, 0.0], [-80.913127, 38.2935905, 0.0], [-80.9133419, 38.2943057, 0.0], [-80.9136304, 38.2949079, 0.0], [-80.914342, 38.295958, 0.0], [-80.915771, 38.298406, 0.0], [-80.91607080000001, 38.2988999, 0.0], [-80.9164412, 38.2993664, 0.0], [-80.9168197, 38.299656, 0.0], [-80.9172094, 38.2998602, 0.0], [-80.9176477, 38.3000297, 0.0], [-80.9181989, 38.3001301, 0.0], [-80.918822, 38.3001134, 0.0], [-80.920829, 38.300001, 0.0], [-80.9215814, 38.300088, 0.0], [-80.9249084, 38.3011139, 0.0], [-80.9271384, 38.3016208, 0.0], [-80.9300239, 38.3022274, 0.0], [-80.9305175, 38.3022846, 0.0], [-80.9310764, 38.302267, 0.0], [-80.9315887, 38.302184, 0.0], [-80.932697, 38.3018203, 0.0], [-80.9332866, 38.3017176, 0.0], [-80.935067, 38.301879, 0.0], [-80.935996, 38.301626, 0.0], [-80.937708, 38.300754, 0.0], [-80.9393259, 38.3002357, 0.0], [-80.9398978, 38.2999991, 0.0], [-80.9403566, 38.299654, 0.0], [-80.9405333, 38.2994684, 0.0], [-80.9406245, 38.2992116, 0.0], [-80.9407162, 38.2987191, 0.0], [-80.9411287, 38.2970814, 0.0], [-80.9416544, 38.2963152, 0.0], [-80.9424967, 38.2951195, 0.0], [-80.9432423, 38.2942101, 0.0], [-80.9436178, 38.29348169999999, 0.0], [-80.9437456, 38.2925729, 0.0], [-80.9437805, 38.2921967, 0.0], [-80.9438163, 38.2910924, 0.0], [-80.9439129, 38.2906331, 0.0], [-80.944273, 38.29006279999999, 0.0], [-80.9444611, 38.2898681, 0.0], [-80.9453881, 38.2891787, 0.0], [-80.9464073, 38.2884503, 0.0], [-80.947845, 38.2872166, 0.0], [-80.9482151, 38.286724, 0.0], [-80.948875, 38.2859534, 0.0], [-80.9491793, 38.2850282, 0.0], [-80.949404, 38.284183, 0.0], [-80.9495655, 38.2839665, 0.0], [-80.94988610000001, 38.2836438, 0.0], [-80.9502161, 38.283448, 0.0], [-80.9505191, 38.2833069, 0.0], [-80.9508491, 38.2832143, 0.0], [-80.9512621, 38.283170100000014, 0.0], [-80.9521017, 38.2832669, 0.0], [-80.952563, 38.283377, 0.0], [-80.954771, 38.283922, 0.0], [-80.955585, 38.283898, 0.0], [-80.956455, 38.283645, 0.0], [-80.958107, 38.282543, 0.0], [-80.958513, 38.28213, 0.0], [-80.959063, 38.281717, 0.0], [-80.95996, 38.280319, 0.0], [-80.960626, 38.279791, 0.0], [-80.9610791, 38.2795328, 0.0], [-80.9612283, 38.2794635, 0.0]]}}, {"type": "Feature", "properties": {"osm_id": "1432385672", "name": "Kanawha River Railroad", "highway": null, "waterway": null, "aerialway": null, "barrier": null, "man_made": null, "railway": "rail", "z_order": 5, "other_tags": "\"electrified\"=>\"no\",\"gauge\"=>\"1435\",\"operator\"=>\"Kanawha River Railroad\",\"reporting_marks\"=>\"KNWA\",\"tiger:cfcc\"=>\"B11\",\"tiger:county\"=>\"Nicholas, WV\",\"tiger:name_base\"=>\"New York Central Railroad\",\"tiger:reviewed\"=>\"no\",\"usage\"=>\"branch\""}, "geometry": {"type": "LineString", "coordinates": [[-80.9614742, 38.2793569, 0.0], [-80.9618756, 38.2792149, 0.0], [-80.9624684, 38.2790939, 0.0], [-80.9636093, 38.2788555, 0.0], [-80.9641971, 38.2787907, 0.0], [-80.964776, 38.278777, 0.0], [-80.965561, 38.279096, 0.0], [-80.966638, 38.279941, 0.0], [-80.967513, 38.28129, 0.0], [-80.968389, 38.282776, 0.0], [-80.969, 38.283393, 0.0], [-80.969756, 38.283666, 0.0], [-80.970744, 38.283688, 0.0], [-80.971208, 38.283572, 0.0], [-80.971845, 38.282999, 0.0], [-80.972394, 38.281922, 0.0], [-80.972767, 38.280341, 0.0], [-80.973317, 38.279883, 0.0], [-80.973665, 38.27963, 0.0], [-80.975113, 38.278551, 0.0], [-80.975839, 38.278413, 0.0], [-80.976323, 38.278452, 0.0], [-80.9780122, 38.2786626, 0.0], [-80.9784954, 38.2787157, 0.0], [-80.9789381, 38.2786573, 0.0], [-80.9792423, 38.2785989, 0.0], [-80.9795658, 38.2785015, 0.0], [-80.9799531, 38.2782874, 0.0], [-80.9802709, 38.2779859, 0.0], [-80.9807285, 38.2773469, 0.0], [-80.9814299, 38.2762848, 0.0], [-80.9818693, 38.2756109, 0.0], [-80.9820872, 38.275156, 0.0], [-80.982241, 38.274662499999984, 0.0], [-80.9823593, 38.2740537, 0.0], [-80.9824894, 38.2732763, 0.0], [-80.982471, 38.27286, 0.0], [-80.982876, 38.272218, 0.0], [-80.983397, 38.271828, 0.0], [-80.984239, 38.271666, 0.0], [-80.98723, 38.271729, 0.0], [-80.989305, 38.27192, 0.0], [-80.9903956, 38.2720293, 0.0], [-80.9912771, 38.2720129, 0.0], [-80.9917534, 38.2719178, 0.0], [-80.9922568, 38.2716554, 0.0], [-80.9925701, 38.2713823, 0.0], [-80.9929429, 38.27105139999998, 0.0], [-80.9933823, 38.2707284, 0.0], [-80.994052, 38.27035189999999, 0.0], [-80.9943199, 38.2702779, 0.0], [-80.994633, 38.270239, 0.0], [-80.9946608, 38.2702381, 0.0], [-80.9948452, 38.2702322, 0.0], [-80.9951757, 38.270257, 0.0], [-80.9957887, 38.2703205, 0.0], [-80.9966046, 38.2703183, 0.0], [-80.9971545, 38.2702871, 0.0], [-80.9975343, 38.2701665, 0.0], [-80.998085, 38.2699104, 0.0], [-80.998464, 38.2697194, 0.0], [-80.9985786, 38.2696599, 0.0], [-80.999824, 38.269047, 0.0], [-81.0003896, 38.2687244, 0.0], [-81.0009499, 38.2684522, 0.0], [-81.0011363, 38.2683467, 0.0], [-81.0014395, 38.2681866, 0.0]]}}, {"type": "Feature", "properties": {"osm_id": "1432385673", "name": "Kanawha River Railroad", "highway": null, "waterway": null, "aerialway": null, "barrier": null, "man_made": null, "railway": "rail", "z_order": 25, "other_tags": "\"bridge\"=>\"yes\",\"electrified\"=>\"no\",\"gauge\"=>\"1435\",\"layer\"=>\"1\",\"operator\"=>\"Kanawha River Railroad\",\"reporting_marks\"=>\"KNWA\",\"tiger:cfcc\"=>\"B11\",\"tiger:county\"=>\"Nicholas, WV\",\"tiger:name_base\"=>\"New York Central Railroad\",\"tiger:reviewed\"=>\"no\",\"usage\"=>\"branch\""}, "geometry": {"type": "LineString", "coordinates": [[-81.0014395, 38.2681866, 0.0], [-81.0016802, 38.268039899999984, 0.0]]}}]}