{
  "type": "FeatureCollection",
  "crs": {
    "type": "name",
    "properties": {
      "name": "urn:ogc:def:crs:EPSG::32633"
    }
  },
  "features": [
    {
      "type": "Feature",
      "properties": {
        "route_type": "PIRL_generated",
        "num_points": 39,
        "step_count": 38,
        "crs": "EPSG:32633",
        "crs_name": "WGS 84 / UTM zone 33N"
      },
      "geometry": {
        "type": "LineString",
        "coordinates": [
          [
            379648.0,
            4805030.0
          ],
          [
            379687.0,
            4804940.0
          ],
          [
            379717.0,
            4804840.0
          ],
          [
            379740.0,
            4804750.0
          ],
          [
            379754.0,
            4804650.0
          ],
          [
            379759.0,
            4804550.0
          ],
          [
            379756.0,
            4804450.0
          ],
          [
            379746.0,
            4804360.0
          ],
          [
            379726.0,
            4804260.0
          ],
          [
            379698.0,
            4804170.0
          ],
          [
            379662.0,
            4804070.0
          ],
          [
            379618.0,
            4803980.0
          ],
          [
            379566.0,
            4803900.0
          ],
          [
            379508.0,
            4803820.0
          ],
          [
            379442.0,
            4803740.0
          ],
          [
            379371.0,
            4803670.0
          ],
          [
            379293.0,
            4803610.0
          ],
          [
            379211.0,
            4803550.0
          ],
          [
            379124.0,
            4803500.0
          ],
          [
            379033.0,
            4803460.0
          ],
          [
            378939.0,
            4803430.0
          ],
          [
            378843.0,
            4803400.0
          ],
          [
            378744.0,
            4803380.0
          ],
          [
            378645.0,
            4803370.0
          ],
          [
            378545.0,
            4803370.0
          ],
          [
            378445.0,
            4803380.0
          ],
          [
            378346.0,
            4803400.0
          ],
          [
            378250.0,
            4803420.0
          ],
          [
            378155.0,
            4803460.0
          ],
          [
            378064.0,
            4803500.0
          ],
          [
            377977.0,
            4803550.0
          ],
          [
            377894.0,
            4803600.0
          ],
          [
            377816.0,
            4803660.0
          ],
          [
            377743.0,
            4803730.0
          ],
          [
            377677.0,
            4803810.0
          ],
          [
            377618.0,
            4803890.0
          ],
          [
            377565.0,
            4803970.0
          ],
          [
            377520.0,
            4804060.0
          ],
          [
            377483.0,
            4804160.0
          ]
        ]
      }
    }
  ]
}