{"type": "FeatureCollection", "name": "Untitled map", "crs": {"type": "name", "properties": {"name": "urn:ogc:def:crs:OGC:1.3:CRS84"}}, "features": [{"type": "Feature", "properties": {"Name": "AOI2", "tessellate": -1, "extrude": 0, "visibility": -1}, "geometry": {"type": "Polygon", "coordinates": [[[-81.09008834287478, 38.25670485913421, 0.0], [-80.90623994819866, 38.264147072053376, 0.0], [-80.918232132918, 38.417143193921575, 0.0], [-81.10549158734764, 38.4096832655631, 0.0], [-81.09008834287478, 38.25670485913421, 0.0]]]}}]}