{"type": "FeatureCollection", "name": "waterways", "features": [{"type": "Feature", "properties": {"osm_id": 1245907252, "name": "", "waterway": "dam", "width": "", "width_m": null, "width_class": "", "crossing_cost_cat": "", "depth": "", "seasonal": "", "intermittent": "", "tunnel": ""}, "geometry": {"type": "LineString", "coordinates": [[-105.2191494, 44.5156621], [-105.2191419, 44.5153958], [-105.2191796, 44.5149627], [-105.2193569, 44.5149842], [-105.2193593, 44.51505969999999], [-105.2193758, 44.5155706], [-105.2192998, 44.5156808], [-105.2192664, 44.5157293], [-105.2191494, 44.5156621]]}}, {"type": "Feature", "properties": {"osm_id": 1279392241, "name": "", "waterway": "dam", "width": "", "width_m": null, "width_class": "", "crossing_cost_cat": "", "depth": "", "seasonal": "", "intermittent": "", "tunnel": ""}, "geometry": {"type": "LineString", "coordinates": [[-105.2384046, 44.5192611], [-105.238293, 44.5193201], [-105.2381194, 44.5192051], [-105.2378549, 44.5188072], [-105.2377391, 44.5184565], [-105.2378879, 44.51844470000001], [-105.237983, 44.5185626], [-105.23812770000002, 44.5189104], [-105.2383269, 44.5191626], [-105.2384046, 44.5192611]]}}]}