{"type": "FeatureCollection", "name": "roads", "crs": {"type": "name", "properties": {"name": "urn:ogc:def:crs:OGC:1.3:CRS84"}}, "features": [{"type": "Feature", "properties": {"osm_id": "15685142", "name": null, "highway": "service", "waterway": null, "aerialway": null, "barrier": null, "man_made": null, "railway": null, "z_order": 0, "service": "driveway", "surface": "unpaved"}, "geometry": {"type": "LineString", "coordinates": [[-105.1995317, 44.5352045, 0.0], [-105.1988621, 44.5351543, 0.0], [-105.1987352, 44.5351591, 0.0], [-105.1984844, 44.5352324, 0.0], [-105.1983961, 44.5353037, 0.0], [-105.1982286, 44.5355337, 0.0], [-105.19706570000001, 44.5381509, 0.0], [-105.1968938, 44.5384013, 0.0], [-105.1965257, 44.5387955, 0.0], [-105.19608440000002, 44.5391986, 0.0], [-105.1954771, 44.539665, 0.0], [-105.1952582, 44.5397208, 0.0], [-105.1949346, 44.539753, 0.0], [-105.1945261, 44.5397709, 0.0], [-105.1942211, 44.5397974, 0.0], [-105.1939956, 44.53984470000001, 0.0], [-105.1937171, 44.539939199999985, 0.0], [-105.1930154, 44.5402795, 0.0], [-105.1927926, 44.5404402, 0.0], [-105.1925724, 44.5406775, 0.0], [-105.1922263, 44.54107909999998, 0.0], [-105.1921307, 44.54124250000001, 0.0], [-105.1921053, 44.5413481, 0.0], [-105.1921228, 44.5414412, 0.0], [-105.1921107, 44.5415943, 0.0], [-105.1919825, 44.5417793, 0.0], [-105.1916976, 44.5420745, 0.0], [-105.19145020000002, 44.5423933, 0.0], [-105.191364, 44.542476, 0.0], [-105.1912337, 44.54254370000001, 0.0], [-105.191047, 44.542598, 0.0], [-105.1904583, 44.542709, 0.0], [-105.1902749, 44.5427342, 0.0], [-105.19000430000001, 44.5427468, 0.0], [-105.18980134617478, 44.542738690059586, 0.0]]}}]}