{"type": "FeatureCollection", "name": "roads", "crs": {"type": "name", "properties": {"name": "urn:ogc:def:crs:OGC:1.3:CRS84"}}, "features": [{"type": "Feature", "properties": {"other_tags": "\"highway\"=>\"service\",\"service\"=>\"driveway\",\"surface\"=>\"unpaved\""}, "geometry": {"type": "LineString", "coordinates": [[-105.2006915, 44.5347386, 0.0], [-105.2005238, 44.5348583, 0.0], [-105.2002692, 44.5349724, 0.0], [-105.1999094, 44.53514830000002, 0.0], [-105.199727, 44.5351931, 0.0], [-105.1995317, 44.5352045, 0.0], [-105.1988621, 44.5351543, 0.0], [-105.1987352, 44.5351591, 0.0], [-105.1985926, 44.5351831, 0.0], [-105.1984844, 44.5352324, 0.0], [-105.1983961, 44.5353037, 0.0], [-105.1982286, 44.5355337, 0.0], [-105.1979442, 44.5359334, 0.0], [-105.19706570000001, 44.5381509, 0.0], [-105.1968938, 44.5384013, 0.0], [-105.1965257, 44.5387955, 0.0], [-105.19608440000002, 44.5391986, 0.0], [-105.1956292, 44.5395863, 0.0], [-105.1954771, 44.539665, 0.0], [-105.1952582, 44.5397208, 0.0], [-105.1949346, 44.539753, 0.0], [-105.1945261, 44.5397709, 0.0], [-105.1942211, 44.5397974, 0.0], [-105.1939956, 44.53984470000001, 0.0], [-105.1937171, 44.539939199999985, 0.0], [-105.1930154, 44.5402795, 0.0], [-105.1927926, 44.5404402, 0.0], [-105.1925724, 44.5406775, 0.0], [-105.1922263, 44.54107909999998, 0.0], [-105.1921307, 44.54124250000001, 0.0], [-105.1921053, 44.5413481, 0.0], [-105.1921228, 44.5414412, 0.0], [-105.1921107, 44.5415943, 0.0], [-105.1919825, 44.5417793, 0.0], [-105.1916976, 44.5420745, 0.0], [-105.19145020000002, 44.5423933, 0.0], [-105.191364, 44.542476, 0.0], [-105.1912337, 44.54254370000001, 0.0], [-105.191047, 44.542598, 0.0], [-105.1904583, 44.542709, 0.0], [-105.1902749, 44.5427342, 0.0], [-105.19000430000001, 44.5427468, 0.0], [-105.18980134617478, 44.542738690059586, 0.0]]}}, {"type": "Feature", "properties": {"other_tags": "\"highway\"=>\"residential\",\"tiger:cfcc\"=>\"A41\",\"tiger:county\"=>\"Campbell, WY\",\"tiger:reviewed\"=>\"no\",\"tiger:separated\"=>\"no\",\"tiger:source\"=>\"tiger_import_dch_v0.6_20070830\",\"tiger:tlid\"=>\"146319522:146318589:146319416:146319533\",\"tiger:upload_uuid\"=>\"bulk_upload.pl-eb4118d7-f550-43c8-af42-8192def71c5a\""}, "geometry": {"type": "LineString", "coordinates": [[-105.2182639, 44.5389706, 0.0], [-105.214674, 44.53844, 0.0], [-105.213971, 44.53844, 0.0], [-105.213396, 44.538623, 0.0], [-105.212245, 44.539287, 0.0], [-105.211542, 44.539356, 0.0], [-105.210359, 44.538983, 0.0], [-105.209048, 44.538464, 0.0], [-105.208951, 44.537618, 0.0], [-105.209175, 44.536292, 0.0], [-105.208663, 44.535423, 0.0], [-105.207927, 44.534943, 0.0], [-105.207128, 44.534691, 0.0], [-105.205018, 44.534555, 0.0], [-105.201172, 44.53483, 0.0], [-105.2009077, 44.5348146, 0.0], [-105.2006915, 44.5347386, 0.0], [-105.199871, 44.534075, 0.0], [-105.18980127927387, 44.52834462461955, 0.0]]}}, {"type": "Feature", "properties": {"other_tags": "\"highway\"=>\"residential\",\"surface\"=>\"unpaved\",\"tiger:cfcc\"=>\"A41\",\"tiger:county\"=>\"Campbell, WY\",\"tiger:reviewed\"=>\"no\""}, "geometry": {"type": "LineString", "coordinates": [[-105.2290655, 44.5115315, 0.0], [-105.2295945, 44.5115217, 0.0], [-105.2320342, 44.5115092, 0.0], [-105.233246, 44.511442, 0.0], [-105.2341321, 44.5113719, 0.0], [-105.2396682, 44.5113512, 0.0], [-105.2443953, 44.5113321, 0.0], [-105.24910096578066, 44.51130996982027, 0.0]]}}, {"type": "Feature", "properties": {"other_tags": "\"highway\"=>\"residential\",\"tiger:cfcc\"=>\"A41\",\"tiger:county\"=>\"Campbell, WY\",\"tiger:reviewed\"=>\"no\",\"tiger:separated\"=>\"no\",\"tiger:source\"=>\"tiger_import_dch_v0.6_20070830\",\"tiger:tlid\"=>\"146347615\",\"tiger:upload_uuid\"=>\"bulk_upload.pl-eb4118d7-f550-43c8-af42-8192def71c5a\""}, "geometry": {"type": "LineString", "coordinates": [[-105.228003, 44.503762, 0.0], [-105.232727, 44.503711, 0.0], [-105.233232, 44.503941, 0.0], [-105.233803, 44.504148, 0.0], [-105.234409, 44.504355, 0.0], [-105.234846, 44.504437, 0.0], [-105.235104, 44.504455, 0.0], [-105.235508, 44.504373, 0.0], [-105.235956, 44.504175, 0.0], [-105.236371, 44.503869, 0.0], [-105.236472, 44.50359, 0.0], [-105.236472, 44.502735, 0.0], [-105.239254, 44.502722, 0.0]]}}, {"type": "Feature", "properties": {"other_tags": "\"highway\"=>\"residential\",\"tiger:cfcc\"=>\"A41\",\"tiger:county\"=>\"Campbell, WY\",\"tiger:reviewed\"=>\"no\",\"tiger:separated\"=>\"no\",\"tiger:source\"=>\"tiger_import_dch_v0.6_20070830\",\"tiger:tlid\"=>\"146319429:146319548:146321584:146347629\",\"tiger:upload_uuid\"=>\"bulk_upload.pl-eb4118d7-f550-43c8-af42-8192def71c5a\""}, "geometry": {"type": "LineString", "coordinates": [[-105.19752067178867, 44.49356915298429, 0.0], [-105.197979, 44.493821, 0.0], [-105.199161, 44.494118, 0.0], [-105.201173, 44.494324, 0.0], [-105.202164, 44.494666, 0.0], [-105.206222, 44.496747, 0.0], [-105.206765, 44.497135, 0.0], [-105.207532, 44.498279, 0.0], [-105.208139, 44.499532, 0.0], [-105.208267, 44.499982, 0.0], [-105.208459, 44.500402, 0.0], [-105.208555, 44.500482, 0.0], [-105.208555, 44.501374, 0.0], [-105.208541, 44.501465, 0.0], [-105.208459, 44.502014, 0.0], [-105.208587, 44.50222, 0.0], [-105.209386, 44.502494, 0.0], [-105.209514, 44.502654, 0.0], [-105.209546, 44.503478, 0.0], [-105.209994, 44.503866, 0.0], [-105.210793, 44.504003, 0.0], [-105.213764, 44.503614, 0.0], [-105.21581, 44.503613, 0.0], [-105.216736, 44.503659, 0.0], [-105.218078, 44.503567, 0.0], [-105.219133, 44.503315, 0.0], [-105.221177, 44.502652, 0.0], [-105.222327, 44.502468, 0.0], [-105.224532, 44.50233, 0.0], [-105.2280057, 44.50291039999998, 0.0]]}}, {"type": "Feature", "properties": {"other_tags": "\"access\"=>\"private\",\"highway\"=>\"service\",\"tiger:cfcc\"=>\"A74\",\"tiger:county\"=>\"Campbell, WY\",\"tiger:reviewed\"=>\"no\",\"tiger:source\"=>\"tiger_import_dch_v0.6_20070830\",\"tiger:tlid\"=>\"146353875\",\"tiger:upload_uuid\"=>\"bulk_upload.pl-eb4118d7-f550-43c8-af42-8192def71c5a\""}, "geometry": {"type": "LineString", "coordinates": [[-105.222054, 44.49687, 0.0], [-105.222973, 44.496823, 0.0], [-105.223976, 44.496869, 0.0], [-105.224723, 44.497097, 0.0], [-105.225449, 44.497401, 0.0], [-105.226196, 44.497599, 0.0], [-105.2280164, 44.4976839, 0.0]]}}, {"type": "Feature", "properties": {"other_tags": "\"highway\"=>\"residential\",\"tiger:cfcc\"=>\"A41\",\"tiger:county\"=>\"Campbell, WY\",\"tiger:reviewed\"=>\"no\",\"tiger:separated\"=>\"no\",\"tiger:source\"=>\"tiger_import_dch_v0.6_20070830\",\"tiger:tlid\"=>\"146321576:146319430\",\"tiger:upload_uuid\"=>\"bulk_upload.pl-eb4118d7-f550-43c8-af42-8192def71c5a\""}, "geometry": {"type": "LineString", "coordinates": [[-105.208459, 44.500402, 0.0], [-105.20766, 44.500436, 0.0], [-105.207436, 44.500551, 0.0], [-105.207245, 44.500803, 0.0], [-105.206957, 44.500986, 0.0], [-105.205552, 44.501169, 0.0], [-105.205232, 44.501397, 0.0], [-105.204977, 44.501832, 0.0], [-105.204178, 44.502198, 0.0], [-105.204018, 44.502449, 0.0], [-105.203891, 44.503204, 0.0], [-105.203571, 44.503341, 0.0], [-105.202964, 44.503319, 0.0], [-105.199577, 44.50277, 0.0], [-105.19766, 44.502793, 0.0], [-105.196318, 44.503022, 0.0], [-105.19536, 44.502999, 0.0], [-105.194561, 44.502748, 0.0], [-105.193666, 44.502382, 0.0], [-105.192484, 44.502176, 0.0], [-105.190885, 44.502062, 0.0], [-105.1898011570771, 44.502053378735184, 0.0]]}}, {"type": "Feature", "properties": {"other_tags": "\"access\"=>\"private\",\"highway\"=>\"service\",\"tiger:cfcc\"=>\"A74\",\"tiger:county\"=>\"Campbell, WY\",\"tiger:reviewed\"=>\"no\""}, "geometry": {"type": "LineString", "coordinates": [[-105.24910096915589, 44.543717635263285, 0.0], [-105.2479604, 44.5432289, 0.0]]}}, {"type": "Feature", "properties": {"other_tags": "\"highway\"=>\"tertiary\",\"name\"=>\"Cow Creek Road\",\"oneway\"=>\"no\",\"surface\"=>\"unpaved\",\"tiger:cfcc\"=>\"A41\",\"tiger:county\"=>\"Campbell, WY\",\"tiger:name_base\"=>\"Cow Creek\",\"tiger:name_type\"=>\"Rd\""}, "geometry": {"type": "LineString", "coordinates": [[-105.233375, 44.5260853, 0.0], [-105.233977, 44.526955, 0.0], [-105.235032, 44.527915, 0.0], [-105.236184, 44.528669, 0.0], [-105.237974, 44.529446, 0.0], [-105.244786, 44.531935, 0.0], [-105.246929, 44.532826, 0.0], [-105.247505, 44.533328, 0.0], [-105.247633, 44.53374, 0.0], [-105.2475349, 44.53873440000002, 0.0], [-105.2475436, 44.5393262, 0.0], [-105.247608, 44.54028, 0.0], [-105.247737, 44.54092, 0.0], [-105.247802, 44.542155, 0.0], [-105.2479604, 44.5432289, 0.0], [-105.24848, 44.5461111, 0.0], [-105.2485878, 44.5463484, 0.0], [-105.2487369, 44.5465721, 0.0], [-105.2489103, 44.5467714, 0.0], [-105.24910096949026, 44.54692810678626, 0.0]]}}, {"type": "Feature", "properties": {"other_tags": "\"highway\"=>\"unclassified\",\"name\"=>\"Spring Creek Road\",\"surface\"=>\"compacted\",\"tiger:cfcc\"=>\"A41\",\"tiger:county\"=>\"Campbell, WY\",\"tiger:name_base\"=>\"Spring Creek\",\"tiger:name_type\"=>\"Rd\",\"tiger:reviewed\"=>\"aerial\""}, "geometry": {"type": "LineString", "coordinates": [[-105.233375, 44.5260853, 0.0], [-105.2331609, 44.5261065, 0.0], [-105.2319163, 44.5260645, 0.0], [-105.2305591, 44.5260377, 0.0], [-105.2290034, 44.526053, 0.0], [-105.2284402, 44.5260759, 0.0], [-105.2280003, 44.5261524, 0.0], [-105.2275819, 44.526271, 0.0], [-105.22710440000002, 44.526489, 0.0], [-105.2267397, 44.526772, 0.0], [-105.2244437, 44.5286497, 0.0], [-105.2238482, 44.5291698, 0.0], [-105.2236015, 44.5294872, 0.0], [-105.2234888, 44.5297396, 0.0], [-105.2234781, 44.5300915, 0.0], [-105.2234781, 44.5304051, 0.0], [-105.2235639, 44.5307186, 0.0], [-105.2236927, 44.5311584, 0.0], [-105.2238375, 44.5317129, 0.0], [-105.2239341, 44.53222919999999, 0.0], [-105.22393940000002, 44.5326345, 0.0], [-105.22392330000001, 44.5329175, 0.0], [-105.2236122, 44.5343974, 0.0], [-105.2234566, 44.5349786, 0.0], [-105.2232796, 44.5353266, 0.0], [-105.223082, 44.535557, 0.0], [-105.2228665, 44.5357893, 0.0], [-105.2224159, 44.5360225, 0.0], [-105.2219224, 44.5362175, 0.0], [-105.2210856, 44.5365196, 0.0], [-105.2203667, 44.5367643, 0.0], [-105.2199107, 44.53697080000001, 0.0], [-105.2195674, 44.5371696, 0.0], [-105.2192885, 44.5374258, 0.0], [-105.2190203, 44.5377547, 0.0], [-105.2182639, 44.5389706, 0.0], [-105.2171212, 44.540771499999984, 0.0], [-105.2167136, 44.5414138, 0.0], [-105.21644, 44.5418153, 0.0], [-105.2161449, 44.542102, 0.0], [-105.2158123, 44.5424423, 0.0], [-105.2143532, 44.5437958, 0.0], [-105.213366, 44.544706, 0.0], [-105.2130336, 44.5450689, 0.0], [-105.2128029, 44.5453519, 0.0], [-105.2126098, 44.5457036, 0.0], [-105.2122986, 44.5464415, 0.0], [-105.2117997, 44.5475922, 0.0], [-105.2115154, 44.5482918, 0.0], [-105.211274, 44.5486856, 0.0], [-105.2096379, 44.5507805, 0.0], [-105.20803114932386, 44.552868833196044, 0.0]]}}, {"type": "Feature", "properties": {"other_tags": "\"highway\"=>\"residential\",\"name\"=>\"De Vel Street\",\"tiger:cfcc\"=>\"A41\",\"tiger:county\"=>\"Campbell, WY\",\"tiger:name_base\"=>\"De Vel\",\"tiger:name_type\"=>\"St\",\"tiger:reviewed\"=>\"no\""}, "geometry": {"type": "LineString", "coordinates": [[-105.24910096974541, 44.549378041146994, 0.0], [-105.2476194, 44.5493904, 0.0], [-105.2469048, 44.549281, 0.0], [-105.247173, 44.5488704, 0.0]]}}, {"type": "Feature", "properties": {"other_tags": "\"highway\"=>\"unclassified\",\"name\"=>\"Soda Wells Road\",\"surface\"=>\"compacted\",\"tiger:cfcc\"=>\"A41\",\"tiger:county\"=>\"Campbell, WY\",\"tiger:name_base\"=>\"Soda Wells\",\"tiger:name_type\"=>\"Rd\""}, "geometry": {"type": "LineString", "coordinates": [[-105.2171212, 44.540771499999984, 0.0], [-105.2181351, 44.5410047, 0.0], [-105.2186877, 44.5411577, 0.0], [-105.2192026, 44.5413488, 0.0], [-105.2197659, 44.5416662, 0.0], [-105.220179, 44.5419682, 0.0], [-105.22093, 44.5426794, 0.0], [-105.222373, 44.5441093, 0.0], [-105.224783, 44.546532, 0.0], [-105.225023, 44.5467511, 0.0], [-105.2252483, 44.546904, 0.0], [-105.2255648, 44.547034, 0.0], [-105.2260906, 44.5472022, 0.0], [-105.2266431, 44.5473399, 0.0], [-105.22690590000002, 44.5474546, 0.0], [-105.2270722, 44.5475654, 0.0], [-105.2271688, 44.5477298, 0.0], [-105.2272707, 44.5479707, 0.0], [-105.2274531, 44.54839119999998, 0.0], [-105.2275711, 44.5486818, 0.0], [-105.2276194, 44.54889579999998, 0.0], [-105.2275872, 44.549129, 0.0], [-105.22751750000002, 44.5493737, 0.0], [-105.227152, 44.55003, 0.0], [-105.2270991, 44.5502797, 0.0], [-105.2271259, 44.550662, 0.0], [-105.22719560000002, 44.55104429999999, 0.0], [-105.2272761, 44.5512622, 0.0], [-105.2275497, 44.5517554, 0.0], [-105.2282417, 44.55284479999999, 0.0], [-105.22825544888533, 44.55286892538346, 0.0]]}}, {"type": "Feature", "properties": {"other_tags": "\"highway\"=>\"tertiary\",\"name\"=>\"Adon Road\",\"surface\"=>\"paved\",\"tiger:cfcc\"=>\"A41\",\"tiger:county\"=>\"Campbell, WY\",\"tiger:name_base\"=>\"Adon\",\"tiger:name_type\"=>\"Rd\""}, "geometry": {"type": "LineString", "coordinates": [[-105.22804141729593, 44.493569331756945, 0.0], [-105.2280164, 44.4976839, 0.0], [-105.2280271, 44.4996506, 0.0], [-105.2280057, 44.50291039999998, 0.0], [-105.228003, 44.503762, 0.0], [-105.22799490000001, 44.5097279, 0.0], [-105.2280197, 44.5102203, 0.0], [-105.2280763, 44.5103981, 0.0], [-105.2281735, 44.5106178, 0.0], [-105.22831680000002, 44.5108335, 0.0], [-105.2286434, 44.5111818, 0.0], [-105.2290655, 44.5115315, 0.0], [-105.2305162, 44.512597, 0.0], [-105.2314174, 44.513232, 0.0], [-105.2320558, 44.5137943, 0.0], [-105.2325279, 44.5143222, 0.0], [-105.2328712, 44.5147353, 0.0], [-105.233075, 44.5150528, 0.0], [-105.2332038, 44.5154736, 0.0], [-105.2332306, 44.5180402, 0.0], [-105.233375, 44.5260853, 0.0]]}}, {"type": "Feature", "properties": {"other_tags": "\"highway\"=>\"residential\",\"name\"=>\"Lou Court\",\"tiger:cfcc\"=>\"A41\",\"tiger:county\"=>\"Campbell, WY\",\"tiger:name_base\"=>\"Lou\",\"tiger:name_type\"=>\"Ct\",\"tiger:reviewed\"=>\"no\""}, "geometry": {"type": "LineString", "coordinates": [[-105.2456667, 44.5522032, 0.0], [-105.2464432, 44.5519236, 0.0], [-105.2469756, 44.551656499999986, 0.0], [-105.2474464, 44.5513769, 0.0], [-105.2476065, 44.5512181, 0.0], [-105.2476194, 44.5493904, 0.0]]}}, {"type": "Feature", "properties": {"other_tags": "\"highway\"=>\"service\",\"surface\"=>\"unpaved\""}, "geometry": {"type": "LineString", "coordinates": [[-105.2280197, 44.5102203, 0.0], [-105.2279647, 44.5103964, 0.0], [-105.22797720000001, 44.5111104, 0.0], [-105.227994, 44.5113415, 0.0], [-105.2280582, 44.5114431, 0.0], [-105.2281417, 44.5115013, 0.0], [-105.2282662, 44.5115263, 0.0], [-105.2289028, 44.511503, 0.0], [-105.2290655, 44.5115315, 0.0]]}}, {"type": "Feature", "properties": {"other_tags": "\"highway\"=>\"service\",\"service\"=>\"driveway\",\"surface\"=>\"unpaved\""}, "geometry": {"type": "LineString", "coordinates": [[-105.2446614, 44.54073789999999, 0.0], [-105.2443417, 44.5402843, 0.0], [-105.2453365, 44.5401576, 0.0], [-105.246165, 44.5400146, 0.0], [-105.2464144, 44.5399349, 0.0], [-105.2465821, 44.5398358, 0.0], [-105.246881, 44.5395628, 0.0], [-105.2471126, 44.5394161, 0.0], [-105.2473681, 44.5393439, 0.0], [-105.2475436, 44.5393262, 0.0]]}}]}