{"type": "FeatureCollection", "name": "waterways", "crs": {"type": "name", "properties": {"name": "urn:ogc:def:crs:OGC:1.3:CRS84"}}, "features": [{"type": "Feature", "properties": {"osm_id": "291844840", "name": "Peters Creek", "highway": null, "waterway": "stream", "aerialway": null, "barrier": null, "man_made": null, "railway": null, "z_order": 0, "other_tags": null}, "geometry": {"type": "LineString", "coordinates": [[-81.0007569, 38.2687686, 0.0], [-81.0010004, 38.268693, 0.0], [-81.0012835, 38.2686975, 0.0], [-81.001459, 38.268742, 0.0], [-81.0019064, 38.2689998, 0.0], [-81.0021442, 38.269022, 0.0], [-81.0022462, 38.26896869999999, 0.0], [-81.0023877, 38.268742, 0.0], [-81.002954, 38.2681818, 0.0], [-81.0033221, 38.2676171, 0.0], [-81.003458, 38.2672037, 0.0], [-81.0033164, 38.2665101, 0.0], [-81.0029483, 38.2658965, 0.0], [-81.0026539, 38.2656476, 0.0], [-81.0025463, 38.2654208, 0.0], [-81.0025845, 38.2646772, 0.0], [-81.0026638, 38.26435710000001, 0.0], [-81.0029158, 38.264121399999986, 0.0], [-81.0032385, 38.2638969, 0.0], [-81.00358960000001, 38.2637791, 0.0], [-81.0039379, 38.2637546, 0.0], [-81.0044985, 38.2638302, 0.0], [-81.0049855, 38.2639992, 0.0], [-81.005315, 38.26419880000001, 0.0], [-81.0055167, 38.2643909, 0.0], [-81.0057657, 38.2645122, 0.0], [-81.0060489, 38.2649165, 0.0], [-81.0061991, 38.265176, 0.0], [-81.0063107, 38.2651996, 0.0], [-81.0067398, 38.2651962, 0.0], [-81.0077441, 38.2649603, 0.0], [-81.0081818, 38.2647952, 0.0], [-81.0089886, 38.2643033, 0.0], [-81.0096023, 38.263909, 0.0], [-81.0099499, 38.2637439, 0.0], [-81.0103147, 38.26346429999999, 0.0], [-81.0105893, 38.2633632, 0.0], [-81.010761, 38.26338, 0.0], [-81.0111, 38.2634542, 0.0], [-81.0115292, 38.2636934, 0.0], [-81.0120699, 38.2641382, 0.0], [-81.0121171, 38.2642763, 0.0], [-81.0121257, 38.26471439999999, 0.0], [-81.0122072, 38.264802, 0.0], [-81.012439, 38.2648694, 0.0], [-81.0128124, 38.2649705, 0.0], [-81.0132329, 38.2650143, 0.0], [-81.0138938, 38.2649031, 0.0], [-81.0147478, 38.2646807, 0.0], [-81.0150568, 38.2646335, 0.0], [-81.0155847, 38.26465369999998, 0.0], [-81.0163185, 38.264802, 0.0], [-81.01743, 38.2649772, 0.0], [-81.0181038, 38.26500079999999, 0.0], [-81.0186531, 38.264994, 0.0], [-81.0192969, 38.2649435, 0.0], [-81.0203697, 38.2649603, 0.0], [-81.0210478, 38.2651322, 0.0], [-81.0213954, 38.265267, 0.0], [-81.0215843, 38.2653175, 0.0], [-81.021889, 38.2653344, 0.0], [-81.0225885, 38.2650918, 0.0], [-81.0230176, 38.264818799999986, 0.0], [-81.0233395, 38.2644077, 0.0], [-81.023487, 38.26400849999999, 0.0], [-81.0235815, 38.2634929, 0.0], [-81.0235471, 38.2629403, 0.0], [-81.0233368, 38.262226, 0.0], [-81.022839, 38.2614172, 0.0], [-81.022191, 38.2603996, 0.0], [-81.02201510000002, 38.260312, 0.0], [-81.0216975, 38.2603322, 0.0], [-81.0211095, 38.2604872, 0.0], [-81.0205988, 38.2605816, 0.0], [-81.02038, 38.2605681, 0.0], [-81.0199508, 38.260194, 0.0], [-81.01976630000001, 38.2598065, 0.0], [-81.0197370805063, 38.25955268967743, 0.0]]}}, {"type": "Feature", "properties": {"osm_id": "1273965936", "name": "Sugar Camp Branch Coal Refuse Impoundment Dam", "highway": null, "waterway": "dam", "aerialway": null, "barrier": null, "man_made": null, "railway": null, "z_order": 0, "other_tags": "\"ref:US:NID\"=>\"WV06712\""}, "geometry": {"type": "LineString", "coordinates": [[-81.0301244, 38.3056062, 0.0], [-81.02947, 38.3055178, 0.0], [-81.0278177, 38.30525260000001, 0.0]]}}, {"type": "Feature", "properties": {"osm_id": "1432385604", "name": "Otter Creek", "highway": null, "waterway": "stream", "aerialway": null, "barrier": null, "man_made": null, "railway": null, "z_order": 0, "other_tags": null}, "geometry": {"type": "LineString", "coordinates": [[-81.0573705, 38.25928420000001, 0.0], [-81.0573876, 38.2594763, 0.0], [-81.0573147, 38.25951, 0.0], [-81.056892, 38.2594965, 0.0], [-81.0566473, 38.2595083, 0.0], [-81.056289, 38.2594325, 0.0], [-81.0561645, 38.2594459, 0.0], [-81.0559242, 38.2593954, 0.0], [-81.0557719, 38.259424, 0.0], [-81.0555444, 38.2593667, 0.0], [-81.0551389, 38.2593667, 0.0], [-81.0548063, 38.2591747, 0.0], [-81.0546475, 38.258959, 0.0], [-81.0544479, 38.2588865, 0.0], [-81.0543235, 38.25890170000001, 0.0], [-81.0542784, 38.2589506, 0.0], [-81.0542269, 38.2590062, 0.0], [-81.0536347, 38.2589017, 0.0], [-81.0530403, 38.2587046, 0.0], [-81.052727, 38.2586355, 0.0], [-81.0526262, 38.258558, 0.0], [-81.05240940000002, 38.2583406, 0.0], [-81.0521369, 38.2582716, 0.0], [-81.05202469100651, 38.25824568195284, 0.0]]}}, {"type": "Feature", "properties": {"osm_id": "1432385609", "name": "Otter Creek", "highway": null, "waterway": "stream", "aerialway": null, "barrier": null, "man_made": null, "railway": null, "z_order": 0, "other_tags": null}, "geometry": {"type": "LineString", "coordinates": [[-81.0599754, 38.2584131, 0.0], [-81.0596364, 38.25846869999999, 0.0], [-81.059321, 38.25846030000001, 0.0], [-81.0591514, 38.2584586, 0.0], [-81.0590291, 38.2585411, 0.0], [-81.0588725, 38.2586069, 0.0], [-81.0585077, 38.2587349, 0.0], [-81.058409, 38.25883260000001, 0.0], [-81.0582652, 38.2588697, 0.0], [-81.058085, 38.2588512, 0.0], [-81.057952, 38.2589034, 0.0], [-81.0578833, 38.2589758, 0.0], [-81.0578275, 38.2590281, 0.0], [-81.0577352, 38.2590399, 0.0], [-81.0576129, 38.2590601, 0.0]]}}, {"type": "Feature", "properties": {"osm_id": "1432385610", "name": "Otter Creek", "highway": null, "waterway": "stream", "aerialway": null, "barrier": null, "man_made": null, "railway": null, "z_order": -10, "other_tags": "\"layer\"=>\"-1\",\"tunnel\"=>\"culvert\""}, "geometry": {"type": "LineString", "coordinates": [[-81.05738, 38.2591623, 0.0], [-81.0573705, 38.25928420000001, 0.0]]}}, {"type": "Feature", "properties": {"osm_id": "1432385611", "name": "Otter Creek", "highway": null, "waterway": "stream", "aerialway": null, "barrier": null, "man_made": null, "railway": null, "z_order": 0, "other_tags": null}, "geometry": {"type": "LineString", "coordinates": [[-81.0575035, 38.2590769, 0.0], [-81.05738, 38.2591623, 0.0]]}}, {"type": "Feature", "properties": {"osm_id": "1432385612", "name": "Otter Creek", "highway": null, "waterway": "stream", "aerialway": null, "barrier": null, "man_made": null, "railway": null, "z_order": -10, "other_tags": "\"layer\"=>\"-1\",\"tunnel\"=>\"culvert\""}, "geometry": {"type": "LineString", "coordinates": [[-81.0576129, 38.2590601, 0.0], [-81.0575035, 38.2590769, 0.0]]}}, {"type": "Feature", "properties": {"osm_id": "1432385613", "name": null, "highway": null, "waterway": "stream", "aerialway": null, "barrier": null, "man_made": null, "railway": null, "z_order": 0, "other_tags": null}, "geometry": {"type": "LineString", "coordinates": [[-81.0570425683335, 38.258042557462495, 0.0], [-81.0570379, 38.2580901, 0.0], [-81.0571192, 38.2581744, 0.0], [-81.0572688, 38.2583046, 0.0], [-81.0572656, 38.2583915, 0.0], [-81.0573274, 38.2584987, 0.0], [-81.0573501, 38.2586801, 0.0], [-81.0573599, 38.2587618, 0.0], [-81.0573176, 38.2589482, 0.0], [-81.0573144, 38.2591397, 0.0], [-81.05738, 38.2591623, 0.0]]}}, {"type": "Feature", "properties": {"osm_id": "1432385614", "name": null, "highway": null, "waterway": "stream", "aerialway": null, "barrier": null, "man_made": null, "railway": null, "z_order": 0, "other_tags": null}, "geometry": {"type": "LineString", "coordinates": [[-81.0528809, 38.2633106, 0.0], [-81.0528895, 38.263132, 0.0], [-81.0528289, 38.2628856, 0.0], [-81.0528224, 38.2625766, 0.0], [-81.0526826, 38.2623927, 0.0], [-81.05265, 38.2622471, 0.0], [-81.0524809, 38.2620914, 0.0], [-81.0525004, 38.261979, 0.0], [-81.0522878, 38.2617825, 0.0], [-81.0520907, 38.2616819, 0.0], [-81.0521202, 38.2615619, 0.0], [-81.052034, 38.2614496, 0.0], [-81.0520611, 38.2613741, 0.0], [-81.0521671, 38.2613257, 0.0], [-81.0521375, 38.2612638, 0.0], [-81.051965, 38.2611361, 0.0], [-81.0519403, 38.2610683, 0.0], [-81.051965, 38.2610141, 0.0], [-81.0519083, 38.260929, 0.0], [-81.0519107, 38.26082839999999, 0.0], [-81.0519871, 38.2607393, 0.0], [-81.0519157, 38.2606426, 0.0], [-81.0519734, 38.2604854, 0.0], [-81.0518687, 38.2604561, 0.0], [-81.0518463, 38.260341699999984, 0.0], [-81.0516857, 38.2602361, 0.0], [-81.0516371, 38.260118699999985, 0.0], [-81.0514914, 38.2597638, 0.0], [-81.0514316, 38.2596112, 0.0], [-81.0514765, 38.2595144, 0.0], [-81.0513793, 38.2591741, 0.0], [-81.0514316, 38.259048, 0.0], [-81.0514466, 38.258866099999985, 0.0], [-81.05139430000001, 38.2586285, 0.0], [-81.0514316, 38.2583791, 0.0], [-81.0514092, 38.2582706, 0.0], [-81.05140920102417, 38.25827059708744, 0.0]]}}, {"type": "Feature", "properties": {"osm_id": "1432385615", "name": "Line Creek", "highway": null, "waterway": "stream", "aerialway": null, "barrier": null, "man_made": null, "railway": null, "z_order": 0, "other_tags": null}, "geometry": {"type": "LineString", "coordinates": [[-81.0347755, 38.2594564, 0.0], [-81.0347905, 38.2592511, 0.0], [-81.0348614, 38.2590105, 0.0], [-81.03484775832473, 38.258941006981594, 0.0]]}}, {"type": "Feature", "properties": {"osm_id": "1432385616", "name": "Right Fork Line Creek", "highway": null, "waterway": "stream", "aerialway": null, "barrier": null, "man_made": null, "railway": null, "z_order": 0, "other_tags": null}, "geometry": {"type": "LineString", "coordinates": [[-81.0308797, 38.2638518, 0.0], [-81.0309216, 38.2637822, 0.0], [-81.031067, 38.2637067, 0.0], [-81.0313973, 38.2634938, 0.0], [-81.0318163, 38.2633525, 0.0], [-81.0320554, 38.2632209, 0.0], [-81.0322895, 38.2629616, 0.0], [-81.0325927, 38.2626674, 0.0], [-81.032854, 38.2625455, 0.0], [-81.0330586, 38.26241390000001, 0.0], [-81.0331596, 38.2622726, 0.0], [-81.0331473, 38.26214869999998, 0.0], [-81.0331843, 38.2620229, 0.0], [-81.033135, 38.2618197, 0.0], [-81.033271, 38.2616189, 0.0], [-81.0333621, 38.2614989, 0.0], [-81.0334206, 38.261412, 0.0], [-81.0334907, 38.2611469, 0.0], [-81.0336265, 38.2609322, 0.0], [-81.033821, 38.260725, 0.0], [-81.0340157, 38.260576, 0.0], [-81.0341464, 38.2604483, 0.0], [-81.034245, 38.260425, 0.0], [-81.0343805, 38.2603592, 0.0], [-81.0345777, 38.2602896, 0.0], [-81.0346566, 38.2602005, 0.0], [-81.0347379, 38.2600379, 0.0], [-81.0347643, 38.2596647, 0.0]]}}, {"type": "Feature", "properties": {"osm_id": "1432385617", "name": "Line Creek", "highway": null, "waterway": "stream", "aerialway": null, "barrier": null, "man_made": null, "railway": null, "z_order": -10, "other_tags": "\"layer\"=>\"-1\",\"tunnel\"=>\"culvert\""}, "geometry": {"type": "LineString", "coordinates": [[-81.0347643, 38.2596647, 0.0], [-81.0347755, 38.2594564, 0.0]]}}, {"type": "Feature", "properties": {"osm_id": "1432385618", "name": "Right Fork Line Creek", "highway": null, "waterway": "stream", "aerialway": null, "barrier": null, "man_made": null, "railway": null, "z_order": 0, "other_tags": null}, "geometry": {"type": "LineString", "coordinates": [[-81.0265865, 38.2669766, 0.0], [-81.0267584, 38.2668622, 0.0], [-81.0272478, 38.2667478, 0.0], [-81.0274309, 38.2666363, 0.0], [-81.0275542, 38.2663782, 0.0], [-81.0276588, 38.2662579, 0.0], [-81.0277783, 38.26612, 0.0], [-81.0278306, 38.2658414, 0.0], [-81.0279016, 38.2657739, 0.0], [-81.0279776, 38.2657294, 0.0], [-81.0280959, 38.2657182, 0.0], [-81.02838610000002, 38.2657212, 0.0], [-81.0287852, 38.2657785, 0.0], [-81.0289826, 38.2658189, 0.0], [-81.02908130000002, 38.2657853, 0.0], [-81.0292358, 38.2656606, 0.0], [-81.0296006, 38.2653775, 0.0], [-81.02999110000002, 38.265081, 0.0], [-81.0302068, 38.264835, 0.0], [-81.0304089, 38.2644653, 0.0], [-81.030648, 38.2642428, 0.0], [-81.0308082, 38.2640086, 0.0]]}}, {"type": "Feature", "properties": {"osm_id": "1432385619", "name": "Right Fork Line Creek", "highway": null, "waterway": "stream", "aerialway": null, "barrier": null, "man_made": null, "railway": null, "z_order": -10, "other_tags": "\"layer\"=>\"-1\",\"tunnel\"=>\"culvert\""}, "geometry": {"type": "LineString", "coordinates": [[-81.0308082, 38.2640086, 0.0], [-81.0308797, 38.2638518, 0.0]]}}, {"type": "Feature", "properties": {"osm_id": "1432385620", "name": "Line Creek", "highway": null, "waterway": "stream", "aerialway": null, "barrier": null, "man_made": null, "railway": null, "z_order": 0, "other_tags": null}, "geometry": {"type": "LineString", "coordinates": [[-81.0407027, 38.271156, 0.0], [-81.0406149, 38.2709982, 0.0], [-81.0402383, 38.2706092, 0.0], [-81.0400005, 38.2704736, 0.0], [-81.0397485, 38.2703624, 0.0], [-81.0396183, 38.2701846, 0.0], [-81.0394144, 38.26972439999999, 0.0], [-81.0388757, 38.2690912, 0.0], [-81.0386439, 38.2687745, 0.0], [-81.0385431, 38.26858750000001, 0.0], [-81.03837620000002, 38.268321, 0.0], [-81.0381843, 38.2681372, 0.0], [-81.038142, 38.2679559, 0.0], [-81.0380848, 38.2678346, 0.0], [-81.0378868, 38.2675911, 0.0], [-81.0375655, 38.2673037, 0.0], [-81.037162, 38.2669341, 0.0], [-81.0367997, 38.26664369999999, 0.0], [-81.0364186, 38.2664354, 0.0], [-81.0360637, 38.2662448, 0.0], [-81.03570870000001, 38.2659104, 0.0], [-81.0354883, 38.2656523, 0.0], [-81.0353277, 38.26547919999999, 0.0], [-81.0350176, 38.2653355, 0.0], [-81.0347224, 38.2650568, 0.0], [-81.0346066, 38.26482510000001, 0.0], [-81.034573, 38.264608, 0.0], [-81.0343937, 38.2644085, 0.0], [-81.0342815, 38.26417269999999, 0.0], [-81.0341807, 38.26400839999999, 0.0], [-81.0340499, 38.2638706, 0.0], [-81.0338482, 38.2635977, 0.0], [-81.03375850000002, 38.2632839, 0.0], [-81.0335867, 38.2628644, 0.0], [-81.0333177, 38.2624126, 0.0]]}}, {"type": "Feature", "properties": {"osm_id": "1432385621", "name": "Line Creek", "highway": null, "waterway": "stream", "aerialway": null, "barrier": null, "man_made": null, "railway": null, "z_order": 0, "other_tags": null}, "geometry": {"type": "LineString", "coordinates": [[-81.0332386, 38.2623426, 0.0], [-81.0331596, 38.2622726, 0.0]]}}, {"type": "Feature", "properties": {"osm_id": "1432385622", "name": "Line Creek", "highway": null, "waterway": "stream", "aerialway": null, "barrier": null, "man_made": null, "railway": null, "z_order": -10, "other_tags": "\"layer\"=>\"-1\",\"tunnel\"=>\"culvert\""}, "geometry": {"type": "LineString", "coordinates": [[-81.0333177, 38.2624126, 0.0], [-81.0332386, 38.2623426, 0.0]]}}, {"type": "Feature", "properties": {"osm_id": "1432385623", "name": "Right Fork Line Creek", "highway": null, "waterway": "stream", "aerialway": null, "barrier": null, "man_made": null, "railway": null, "z_order": 0, "other_tags": null}, "geometry": {"type": "LineString", "coordinates": [[-81.0186569, 38.2860149, 0.0], [-81.01914180000001, 38.2860519, 0.0], [-81.0194765, 38.2859677, 0.0], [-81.0196911, 38.2857858, 0.0], [-81.0198156, 38.28558369999999, 0.0], [-81.0200387, 38.28550280000002, 0.0], [-81.0203821, 38.2853782, 0.0], [-81.0205408, 38.2852232, 0.0], [-81.0206095, 38.2850818, 0.0], [-81.0206438, 38.2848628, 0.0], [-81.0207597, 38.2846438, 0.0], [-81.0210558, 38.2845158, 0.0], [-81.0214378, 38.2844417, 0.0], [-81.0217425, 38.2844249, 0.0], [-81.0220128, 38.2843878, 0.0], [-81.0224205, 38.2841992, 0.0], [-81.0225235, 38.2841015, 0.0], [-81.0227767, 38.2840611, 0.0], [-81.0229999, 38.284024, 0.0], [-81.0231844, 38.2838253, 0.0], [-81.0234205, 38.2837242, 0.0], [-81.0236265, 38.2837242, 0.0], [-81.023781, 38.2836299, 0.0], [-81.0237981, 38.2834716, 0.0], [-81.0239354, 38.28333339999999, 0.0], [-81.0241886, 38.2832459, 0.0], [-81.0242401, 38.2831684, 0.0], [-81.0243002, 38.2830572, 0.0], [-81.0243818, 38.282909, 0.0], [-81.02457490000002, 38.2828618, 0.0], [-81.0246221, 38.282818, 0.0], [-81.0245878, 38.2827136, 0.0], [-81.0246264, 38.28261590000001, 0.0], [-81.0247551, 38.2825485, 0.0], [-81.0248753, 38.2824643, 0.0], [-81.0249713, 38.2823115, 0.0], [-81.0251192, 38.2822303, 0.0], [-81.0252447, 38.2821691, 0.0], [-81.0253292, 38.2818959, 0.0], [-81.025365, 38.2815028, 0.0], [-81.0253975, 38.2813445, 0.0], [-81.0253943, 38.2812372, 0.0], [-81.0252317, 38.2810279, 0.0], [-81.02518610000001, 38.2808875, 0.0], [-81.0252154, 38.2807751, 0.0], [-81.0251504, 38.2805658, 0.0], [-81.0251764, 38.2803743, 0.0], [-81.0251048, 38.2802747, 0.0], [-81.0250756, 38.2801803, 0.0], [-81.0250333, 38.2799633, 0.0], [-81.0249682, 38.2798331, 0.0], [-81.0247828, 38.2797207, 0.0], [-81.0246658, 38.27961350000001, 0.0], [-81.0246495, 38.27951140000001, 0.0], [-81.0244283, 38.2792484, 0.0], [-81.0242429, 38.2790059, 0.0], [-81.0242137, 38.2788961, 0.0], [-81.024269, 38.2788195, 0.0], [-81.0243047, 38.2787582, 0.0], [-81.0242755, 38.2785539, 0.0], [-81.0240348, 38.2782833, 0.0], [-81.023934, 38.2782297, 0.0], [-81.0238819, 38.278171, 0.0], [-81.0238852, 38.2780688, 0.0], [-81.02396, 38.2779591, 0.0], [-81.0239763, 38.2778569, 0.0], [-81.0238819, 38.2777676, 0.0], [-81.0238852, 38.277668, 0.0], [-81.0239405, 38.2776374, 0.0], [-81.0240771, 38.27761180000001, 0.0], [-81.0242397, 38.2775276, 0.0], [-81.0242885, 38.277428, 0.0], [-81.0243503, 38.277331, 0.0], [-81.0243795, 38.2771829, 0.0], [-81.0244478, 38.2770195, 0.0], [-81.0244446, 38.2768561, 0.0], [-81.0243243, 38.2767846, 0.0], [-81.0242039, 38.2765957, 0.0], [-81.0242234, 38.2764629, 0.0], [-81.0241259, 38.276171799999986, 0.0], [-81.023986, 38.2759471, 0.0], [-81.0239567, 38.275845, 0.0], [-81.023986, 38.2757378, 0.0], [-81.0239828, 38.2756127, 0.0], [-81.0238266, 38.27513779999999, 0.0], [-81.02379410000002, 38.2748748, 0.0], [-81.023839, 38.2746744, 0.0], [-81.0238462, 38.2746424, 0.0], [-81.0238006, 38.27449940000001, 0.0], [-81.0235925, 38.2741522, 0.0], [-81.0235632, 38.2740271, 0.0], [-81.0236022, 38.2739173, 0.0], [-81.0235827, 38.2738713, 0.0], [-81.0234266, 38.27369, 0.0], [-81.0232477, 38.27353679999999, 0.0], [-81.0231306, 38.2734985, 0.0], [-81.0230396, 38.273496, 0.0], [-81.0229908, 38.273473, 0.0], [-81.0229778, 38.2734168, 0.0], [-81.023007, 38.2733556, 0.0], [-81.0230819, 38.2732841, 0.0], [-81.0231632, 38.2730798, 0.0], [-81.0231729, 38.272901099999984, 0.0], [-81.0231176, 38.2727325, 0.0], [-81.0231502, 38.2726559, 0.0], [-81.023238, 38.2725768, 0.0], [-81.0233908, 38.2725206, 0.0], [-81.0235177, 38.2723981, 0.0], [-81.02356, 38.2722474, 0.0], [-81.0235404, 38.2720763, 0.0], [-81.0234266, 38.2718695, 0.0], [-81.0234494, 38.27170610000001, 0.0], [-81.0235339, 38.2715044, 0.0], [-81.0236152, 38.2712056, 0.0], [-81.0235697, 38.2710294, 0.0], [-81.0236022, 38.2708992, 0.0], [-81.0237323, 38.2707945, 0.0], [-81.0238494, 38.2706362, 0.0], [-81.0238722, 38.270529, 0.0], [-81.0238527, 38.27037579999999, 0.0], [-81.0240933, 38.2699468, 0.0], [-81.0243015, 38.2696072, 0.0], [-81.0244153, 38.26946419999999, 0.0], [-81.0246365, 38.2691552, 0.0], [-81.0247471, 38.269048, 0.0], [-81.0248837, 38.2688846, 0.0], [-81.0252528, 38.268537, 0.0], [-81.0255479, 38.2682202, 0.0], [-81.0256712, 38.2679797, 0.0], [-81.0258356, 38.267794899999984, 0.0], [-81.0260672, 38.2674664, 0.0], [-81.0262242, 38.2671966, 0.0], [-81.0263661, 38.2670646, 0.0]]}}, {"type": "Feature", "properties": {"osm_id": "1432385624", "name": "Right Fork Line Creek", "highway": null, "waterway": "stream", "aerialway": null, "barrier": null, "man_made": null, "railway": null, "z_order": -10, "other_tags": "\"layer\"=>\"-1\",\"tunnel\"=>\"culvert\""}, "geometry": {"type": "LineString", "coordinates": [[-81.0263661, 38.2670646, 0.0], [-81.0265865, 38.2669766, 0.0]]}}, {"type": "Feature", "properties": {"osm_id": "1432385629", "name": "Line Creek", "highway": null, "waterway": "stream", "aerialway": null, "barrier": null, "man_made": null, "railway": null, "z_order": 0, "other_tags": null}, "geometry": {"type": "LineString", "coordinates": [[-81.04688550000002, 38.27354290000002, 0.0], [-81.0467795, 38.2733632, 0.0], [-81.0465774, 38.2732587, 0.0], [-81.0463629, 38.2732297, 0.0], [-81.0461066, 38.273251, 0.0], [-81.04580090000002, 38.2732123, 0.0], [-81.0456185, 38.2731272, 0.0], [-81.0455372, 38.2731272, 0.0], [-81.0453449, 38.2730614, 0.0], [-81.0452513, 38.2730768, 0.0], [-81.0450319, 38.2730381, 0.0], [-81.04476570000001, 38.272982, 0.0], [-81.0447041, 38.27299750000001, 0.0], [-81.0446449, 38.2730478, 0.0], [-81.0445439, 38.273073, 0.0], [-81.0442013, 38.2730285, 0.0], [-81.0438882, 38.2729162, 0.0], [-81.0435678, 38.272746, 0.0], [-81.0433139, 38.27269370000001, 0.0], [-81.0431266, 38.272715, 0.0], [-81.0430572, 38.2727773, 0.0], [-81.042934, 38.2728063, 0.0], [-81.0427244, 38.2727134, 0.0], [-81.0422956, 38.2725741, 0.0]]}}, {"type": "Feature", "properties": {"osm_id": "1432385630", "name": "Line Creek", "highway": null, "waterway": "stream", "aerialway": null, "barrier": null, "man_made": null, "railway": null, "z_order": -10, "other_tags": "\"layer\"=>\"-1\",\"tunnel\"=>\"culvert\""}, "geometry": {"type": "LineString", "coordinates": [[-81.040714, 38.27131159999998, 0.0], [-81.0407027, 38.271156, 0.0]]}}, {"type": "Feature", "properties": {"osm_id": "1432385631", "name": "Line Creek", "highway": null, "waterway": "stream", "aerialway": null, "barrier": null, "man_made": null, "railway": null, "z_order": 0, "other_tags": null}, "geometry": {"type": "LineString", "coordinates": [[-81.0602679, 38.2768734, 0.0], [-81.0601559, 38.276803, 0.0], [-81.0600363, 38.2767649, 0.0], [-81.0599168, 38.276627, 0.0], [-81.0595936, 38.2764349, 0.0], [-81.0594329, 38.2763411, 0.0], [-81.0594143, 38.2762634, 0.0], [-81.0593321, 38.276127, 0.0], [-81.0591901, 38.2760918, 0.0], [-81.05908740000001, 38.2760229, 0.0], [-81.0589379, 38.2760141, 0.0], [-81.058824, 38.2759466, 0.0], [-81.0586577, 38.2759334, 0.0], [-81.0584896, 38.2758469, 0.0], [-81.0582972, 38.2758469, 0.0], [-81.0581627, 38.2757853, 0.0], [-81.057989, 38.275756, 0.0], [-81.05767330000002, 38.2756269, 0.0], [-81.0572605, 38.2756079, 0.0], [-81.0569915, 38.2755536, 0.0], [-81.0567748, 38.275552099999985, 0.0], [-81.0565995, 38.2755104, 0.0], [-81.0564105, 38.2754422, 0.0], [-81.0561901, 38.2754392, 0.0], [-81.0560305, 38.2753819, 0.0], [-81.0559935, 38.2752348, 0.0], [-81.0560157, 38.2751206, 0.0], [-81.0557692, 38.2749291, 0.0], [-81.0556213, 38.2746833, 0.0], [-81.0554586, 38.274671699999985, 0.0], [-81.0554068, 38.2745808, 0.0], [-81.0554389, 38.2744743, 0.0], [-81.0554537, 38.2743602, 0.0], [-81.0553945, 38.2742034, 0.0], [-81.0552491, 38.2741783, 0.0], [-81.055185, 38.2742537, 0.0], [-81.0551456, 38.274277, 0.0], [-81.0550766, 38.2742634, 0.0], [-81.0550519, 38.2741822, 0.0], [-81.0550618, 38.2741183, 0.0], [-81.0549903, 38.2740757, 0.0], [-81.0545688, 38.27395579999999, 0.0], [-81.0543223, 38.2739596, 0.0], [-81.05420650000002, 38.2739093, 0.0], [-81.0540734, 38.2738764, 0.0], [-81.0539625, 38.2738087, 0.0], [-81.0537944, 38.27375379999999, 0.0], [-81.05371060000002, 38.273769299999984, 0.0], [-81.0536317, 38.2738564, 0.0], [-81.0535602, 38.2739222, 0.0], [-81.0534888, 38.2739377, 0.0], [-81.0533951, 38.2739009, 0.0], [-81.0532373, 38.2738815, 0.0], [-81.0531462, 38.27390279999999, 0.0], [-81.0530574, 38.2739493, 0.0], [-81.0529888, 38.274013, 0.0], [-81.0529145, 38.274077, 0.0], [-81.0526014, 38.2740596, 0.0], [-81.0522909, 38.2741002, 0.0], [-81.0521405, 38.2740789, 0.0], [-81.0518866, 38.2740576, 0.0], [-81.0516746, 38.2740189, 0.0], [-81.0513592, 38.2740095, 0.0], [-81.0511053, 38.2739941, 0.0], [-81.0509229, 38.273965, 0.0], [-81.05074050000002, 38.2738489, 0.0], [-81.0506542, 38.2737831, 0.0], [-81.0505384, 38.273787, 0.0], [-81.0504398, 38.2737986, 0.0], [-81.0503855, 38.2737561, 0.0], [-81.0502943, 38.2736903, 0.0], [-81.0501489, 38.2736941, 0.0], [-81.0500922, 38.2737425, 0.0], [-81.050006, 38.2737561, 0.0], [-81.0498162, 38.2738605, 0.0], [-81.0495795, 38.2738509, 0.0], [-81.0489387, 38.2739225, 0.0], [-81.0484112, 38.2739496, 0.0], [-81.0481031, 38.2739167, 0.0], [-81.0476471, 38.2739225, 0.0], [-81.0472774, 38.2738547, 0.0], [-81.0470925, 38.2738296, 0.0], [-81.0469175, 38.2738257, 0.0]]}}, {"type": "Feature", "properties": {"osm_id": "1432385632", "name": "Line Creek", "highway": null, "waterway": "stream", "aerialway": null, "barrier": null, "man_made": null, "railway": null, "z_order": -10, "other_tags": "\"layer\"=>\"-1\",\"tunnel\"=>\"culvert\""}, "geometry": {"type": "LineString", "coordinates": [[-81.0469175, 38.2738257, 0.0], [-81.0468608, 38.2737522, 0.0]]}}, {"type": "Feature", "properties": {"osm_id": "1432385633", "name": "Line Creek", "highway": null, "waterway": "stream", "aerialway": null, "barrier": null, "man_made": null, "railway": null, "z_order": 0, "other_tags": null}, "geometry": {"type": "LineString", "coordinates": [[-81.0468608, 38.2737522, 0.0], [-81.0468805, 38.2736225, 0.0]]}}, {"type": "Feature", "properties": {"osm_id": "1432385634", "name": "Line Creek", "highway": null, "waterway": "stream", "aerialway": null, "barrier": null, "man_made": null, "railway": null, "z_order": -10, "other_tags": "\"layer\"=>\"-1\",\"tunnel\"=>\"culvert\""}, "geometry": {"type": "LineString", "coordinates": [[-81.0468805, 38.2736225, 0.0], [-81.04688550000002, 38.27354290000002, 0.0]]}}, {"type": "Feature", "properties": {"osm_id": "1432385635", "name": "Line Creek", "highway": null, "waterway": "stream", "aerialway": null, "barrier": null, "man_made": null, "railway": null, "z_order": 0, "other_tags": null}, "geometry": {"type": "LineString", "coordinates": [[-81.0608348, 38.2769913, 0.0], [-81.0607584, 38.276917799999985, 0.0], [-81.06062290000001, 38.276917799999985, 0.0], [-81.0604331, 38.2767998, 0.0]]}}, {"type": "Feature", "properties": {"osm_id": "1432385636", "name": "Line Creek", "highway": null, "waterway": "stream", "aerialway": null, "barrier": null, "man_made": null, "railway": null, "z_order": -10, "other_tags": "\"layer\"=>\"-1\",\"tunnel\"=>\"culvert\""}, "geometry": {"type": "LineString", "coordinates": [[-81.0604331, 38.2767998, 0.0], [-81.0602679, 38.2768734, 0.0]]}}, {"type": "Feature", "properties": {"osm_id": "1432385651", "name": null, "highway": null, "waterway": "stream", "aerialway": null, "barrier": null, "man_made": null, "railway": null, "z_order": 0, "other_tags": null}, "geometry": {"type": "LineString", "coordinates": [[-81.0184125, 38.27661239999998, 0.0], [-81.0185308, 38.276535, 0.0], [-81.0186713, 38.27652529999999, 0.0], [-81.018903, 38.2764827, 0.0], [-81.0189375, 38.2764247, 0.0], [-81.0190263, 38.2763821, 0.0], [-81.019046, 38.2763221, 0.0], [-81.0191618, 38.2763183, 0.0], [-81.0192949, 38.2762892, 0.0], [-81.0194157, 38.276297, 0.0], [-81.0194897, 38.2762563, 0.0], [-81.0196203, 38.2762409, 0.0], [-81.0197164, 38.2761847, 0.0], [-81.0198717, 38.2761693, 0.0], [-81.0199851, 38.2761015, 0.0], [-81.0201133, 38.276088, 0.0], [-81.02019710000002, 38.2760338, 0.0], [-81.0203228, 38.2760261, 0.0], [-81.0205052, 38.2759293, 0.0], [-81.020621, 38.2759429, 0.0], [-81.0207295, 38.2758964, 0.0], [-81.0208576, 38.2758771, 0.0], [-81.020939, 38.2758132, 0.0], [-81.0211115, 38.27576289999999, 0.0], [-81.021289, 38.27579389999999, 0.0], [-81.0214221, 38.2757513, 0.0], [-81.0215577, 38.2757648, 0.0], [-81.0216982, 38.2757339, 0.0], [-81.0218165, 38.2757242, 0.0], [-81.0219077, 38.27564490000002, 0.0], [-81.02189290000001, 38.2755597, 0.0], [-81.0219274, 38.2755133, 0.0], [-81.0221246, 38.2754552, 0.0], [-81.0222873, 38.2753856, 0.0], [-81.0224672, 38.275403, 0.0], [-81.0227137, 38.2753527, 0.0], [-81.0227236, 38.2752844, 0.0], [-81.0228082, 38.2752053, 0.0], [-81.0229256, 38.2752134, 0.0], [-81.0229947, 38.27517849999999, 0.0], [-81.0230366, 38.27507409999998, 0.0], [-81.0231007, 38.2750044, 0.0], [-81.0231352, 38.2749444, 0.0], [-81.0231943, 38.2749309, 0.0], [-81.0232214, 38.2749541, 0.0], [-81.02327570000001, 38.2749734, 0.0], [-81.0234186, 38.2749367, 0.0], [-81.0234359, 38.2748535, 0.0], [-81.0234926, 38.2748244, 0.0], [-81.0235197, 38.2747528, 0.0], [-81.023564, 38.274689, 0.0], [-81.0236602, 38.2746774, 0.0], [-81.0237095, 38.2746483, 0.0], [-81.023839, 38.2746744, 0.0]]}}, {"type": "Feature", "properties": {"osm_id": "1432385652", "name": null, "highway": null, "waterway": "stream", "aerialway": null, "barrier": null, "man_made": null, "railway": null, "z_order": 0, "other_tags": null}, "geometry": {"type": "LineString", "coordinates": [[-81.0246206, 38.2898014, 0.0], [-81.0246675, 38.289697, 0.0], [-81.0247808, 38.2896022, 0.0], [-81.0248474, 38.2894493, 0.0], [-81.0248499, 38.2893333, 0.0], [-81.0247439, 38.2890721, 0.0], [-81.024741, 38.2889696, 0.0], [-81.0253993, 38.2877956, 0.0], [-81.0255375, 38.2875244, 0.0], [-81.0256706, 38.2873425, 0.0], [-81.0259048, 38.2871413, 0.0], [-81.02600590000002, 38.2869672, 0.0], [-81.0261957, 38.2868685, 0.0], [-81.0263534, 38.2867756, 0.0], [-81.0264101, 38.2866692, 0.0], [-81.0263485, 38.2865647, 0.0], [-81.0263633, 38.2864564, 0.0], [-81.0263904, 38.28603660000001, 0.0], [-81.0264446, 38.2859495, 0.0], [-81.0264495, 38.2858121, 0.0], [-81.0265876, 38.2855316, 0.0], [-81.0266517, 38.2852878, 0.0], [-81.0265925, 38.2850827, 0.0], [-81.0265492, 38.2848483, 0.0], [-81.0265394, 38.2847079, 0.0], [-81.0264581, 38.284575199999985, 0.0], [-81.0264353, 38.2844245, 0.0], [-81.0264126, 38.284325, 0.0], [-81.0262467, 38.28404419999998, 0.0], [-81.02624020000002, 38.2838961, 0.0], [-81.0261621, 38.2837378, 0.0], [-81.0260581, 38.2836536, 0.0], [-81.0260125, 38.28348, 0.0], [-81.0258694, 38.2833983, 0.0], [-81.0257686, 38.2831838, 0.0], [-81.0253816, 38.2828417, 0.0], [-81.0252612, 38.2826809, 0.0], [-81.0251376, 38.2826502, 0.0], [-81.0250823, 38.2825941, 0.0], [-81.0250823, 38.2825124, 0.0], [-81.0251506, 38.2824613, 0.0], [-81.0251799, 38.2823694, 0.0], [-81.0252482, 38.2822801, 0.0], [-81.0252447, 38.2821691, 0.0]]}}, {"type": "Feature", "properties": {"osm_id": "1432385653", "name": "Line Creek", "highway": null, "waterway": "stream", "aerialway": null, "barrier": null, "man_made": null, "railway": null, "z_order": 0, "other_tags": null}, "geometry": {"type": "LineString", "coordinates": [[-81.0421304, 38.2726167, 0.0], [-81.0420589, 38.2725973, 0.0], [-81.0416416, 38.2722668, 0.0], [-81.0414075, 38.27202170000001, 0.0], [-81.0410453, 38.271745, 0.0], [-81.0408131, 38.2715494, 0.0], [-81.040714, 38.27131159999998, 0.0]]}}, {"type": "Feature", "properties": {"osm_id": "1432385654", "name": "Line Creek", "highway": null, "waterway": "stream", "aerialway": null, "barrier": null, "man_made": null, "railway": null, "z_order": -10, "other_tags": "\"layer\"=>\"-1\",\"tunnel\"=>\"culvert\""}, "geometry": {"type": "LineString", "coordinates": [[-81.0422956, 38.2725741, 0.0], [-81.0421304, 38.2726167, 0.0]]}}, {"type": "Feature", "properties": {"osm_id": "1432385671", "name": "Laurel Creek", "highway": null, "waterway": "stream", "aerialway": null, "barrier": null, "man_made": null, "railway": null, "z_order": 0, "other_tags": null}, "geometry": {"type": "LineString", "coordinates": [[-80.99542303074868, 38.26053692636626, 0.0], [-80.9955268, 38.2606109, 0.0], [-80.9957804, 38.2609991, 0.0], [-80.9959886, 38.2612315, 0.0], [-80.9962358, 38.2613464, 0.0], [-80.9967009, 38.2614307, 0.0], [-80.9972765, 38.2614383, 0.0], [-80.9976018, 38.2613438, 0.0], [-80.9977872, 38.2612315, 0.0], [-80.9979823, 38.2610246, 0.0], [-80.9981449, 38.260971, 0.0], [-80.99849290000002, 38.2610859, 0.0], [-80.9987889, 38.2612494, 0.0], [-80.9991759, 38.2615405, 0.0], [-80.9994426, 38.261686, 0.0], [-80.999602, 38.2617627, 0.0], [-80.9996996, 38.2620589, 0.0], [-80.9996573, 38.2622581, 0.0], [-80.99955, 38.2624649, 0.0], [-80.9993971, 38.2627612, 0.0], [-80.9993873, 38.262945, 0.0], [-80.9994426, 38.2630548, 0.0], [-80.9998329, 38.2635119, 0.0], [-81.0000411, 38.263775, 0.0], [-81.0002199, 38.2638746, 0.0], [-81.0005159, 38.2639435, 0.0], [-81.0007241, 38.26402009999999, 0.0], [-81.0008444, 38.2641504, 0.0], [-81.000994, 38.2646049, 0.0], [-81.0010591, 38.2649624, 0.0], [-81.00102980000001, 38.2651616, 0.0], [-81.000929, 38.2653582, 0.0], [-81.0007403, 38.2654782, 0.0], [-81.00047040000001, 38.2655932, 0.0], [-81.0004151, 38.2656774, 0.0], [-81.0004769, 38.26645629999999, 0.0], [-81.0005896, 38.2674066, 0.0], [-81.0006681, 38.2676706, 0.0], [-81.0007652, 38.2678055, 0.0], [-81.0008661, 38.2678524, 0.0], [-81.0012883, 38.2679111, 0.0], [-81.0014265, 38.2679727, 0.0], [-81.0016918, 38.268178, 0.0], [-81.0019102, 38.2684165, 0.0], [-81.0021666, 38.2686236, 0.0], [-81.0023877, 38.268742, 0.0]]}}, {"type": "Feature", "properties": {"osm_id": "1442230133", "name": "Twentymile Creek", "highway": null, "waterway": "stream", "aerialway": null, "barrier": null, "man_made": null, "railway": null, "z_order": 0, "other_tags": null}, "geometry": {"type": "LineString", "coordinates": [[-80.9433151, 38.35802680000001, 0.0], [-80.944352, 38.3579531, 0.0], [-80.9447558, 38.3577077, 0.0], [-80.94569, 38.3564199, 0.0], [-80.947835, 38.3552034, 0.0], [-80.95039, 38.3536718, 0.0], [-80.9514996, 38.3538936, 0.0], [-80.9542628, 38.354507900000016, 0.0], [-80.9560904, 38.3548576, 0.0], [-80.9572653, 38.3544567, 0.0], [-80.9588862, 38.3540216, 0.0], [-80.9599414, 38.3542008, 0.0], [-80.9612904, 38.3537913, 0.0], [-80.9620193, 38.3538595, 0.0], [-80.9633029, 38.3543373, 0.0], [-80.9656636, 38.3519912, 0.0], [-80.9665992, 38.3516926, 0.0], [-80.9671322, 38.3509163, 0.0], [-80.9682636, 38.35072859999998, 0.0], [-80.9700803, 38.3503873, 0.0], [-80.9707004, 38.3504471, 0.0], [-80.9714945, 38.3508651, 0.0], [-80.9726912, 38.3499949, 0.0], [-80.9731698, 38.3500461, 0.0], [-80.9742686, 38.3502253, 0.0], [-80.9743665, 38.3505665, 0.0], [-80.9739422, 38.3518462, 0.0], [-80.9738008, 38.3523069, 0.0], [-80.97441, 38.352460399999984, 0.0], [-80.9746928, 38.352733399999984, 0.0], [-80.9746602, 38.3533135, 0.0], [-80.9749757, 38.3541837, 0.0], [-80.9751171, 38.3547382, 0.0], [-80.9756678, 38.3551262, 0.0], [-80.9758677, 38.355267099999985, 0.0], [-80.9763573, 38.3551562, 0.0], [-80.9769773, 38.3547382, 0.0], [-80.9773363, 38.35403010000001, 0.0], [-80.9772711, 38.352989399999984, 0.0], [-80.9768468, 38.35151350000001, 0.0], [-80.9775758, 38.349418599999986, 0.0], [-80.977761, 38.3489951, 0.0], [-80.9779996, 38.3484425, 0.0], [-80.9784073, 38.34777779999999, 0.0], [-80.9788901, 38.3473319, 0.0], [-80.9794051, 38.34729819999998, 0.0], [-80.9796269, 38.34738689999999, 0.0], [-80.979795, 38.3474389, 0.0], [-80.9807306, 38.3469284, 0.0], [-80.9814497, 38.3466799, 0.0], [-80.9816448, 38.3462688, 0.0], [-80.9819251, 38.3456762, 0.0], [-80.9831195, 38.3449592, 0.0], [-80.9840093, 38.3447681, 0.0], [-80.985155, 38.3449975, 0.0], [-80.9870442, 38.3452556, 0.0], [-80.9881289, 38.345571, 0.0], [-80.9888115, 38.3459438, 0.0], [-80.9893356, 38.3464696, 0.0], [-80.99014, 38.3468328, 0.0], [-80.9912247, 38.3467372, 0.0], [-80.9915904, 38.3463835, 0.0], [-80.9926142, 38.3453034, 0.0], [-80.9925898, 38.344720299999985, 0.0], [-80.9928823, 38.3442232, 0.0], [-80.9937111, 38.3433915, 0.0], [-80.9945887, 38.3427797, 0.0], [-80.996161, 38.342426, 0.0], [-80.9966119, 38.3418047, 0.0], [-80.9994396, 38.3393669, 0.0], [-81.0005366, 38.3384683, 0.0], [-81.0011094, 38.3383345, 0.0], [-81.0017676, 38.3380477, 0.0], [-81.0025598, 38.3374263, 0.0], [-81.0030717, 38.33739759999999, 0.0], [-81.003864, 38.33746450000001, 0.0], [-81.0048878, 38.337063, 0.0], [-81.0054972, 38.3369291, 0.0], [-81.0089343, 38.3374836, 0.0], [-81.0094828, 38.3373402, 0.0], [-81.0099094, 38.3374071, 0.0], [-81.0113841, 38.3382293, 0.0], [-81.0126761, 38.3386308, 0.0], [-81.0131514, 38.3388698, 0.0], [-81.0137487, 38.3387073, 0.0], [-81.0138705, 38.3382102, 0.0], [-81.0136146, 38.3379616, 0.0], [-81.0136146, 38.3375983, 0.0], [-81.0157597, 38.3365945, 0.0], [-81.0168689, 38.3361165, 0.0], [-81.017527, 38.335715, 0.0], [-81.0173686, 38.3353421, 0.0], [-81.0165885, 38.334931, 0.0], [-81.0165411, 38.3346163, 0.0], [-81.0168319, 38.333856, 0.0], [-81.016728, 38.3334922, 0.0], [-81.0168734, 38.33275359999998, 0.0], [-81.0166172, 38.3322377, 0.0], [-81.0165011, 38.331767, 0.0], [-81.0165337, 38.3316158, 0.0], [-81.0174014, 38.330819, 0.0], [-81.0178581, 38.3288613, 0.0], [-81.0185877, 38.327986, 0.0], [-81.0191456, 38.3268245, 0.0], [-81.0187808, 38.3258481, 0.0], [-81.0191027, 38.3253936, 0.0], [-81.019961, 38.325259, 0.0], [-81.022084, 38.3238251, 0.0], [-81.0232427, 38.323404199999985, 0.0], [-81.0235002, 38.32363990000001, 0.0], [-81.0252382, 38.3243469, 0.0], [-81.0267403, 38.3241113, 0.0], [-81.0274484, 38.3235894, 0.0], [-81.03071, 38.32214169999999, 0.0], [-81.0313108, 38.3217208, 0.0], [-81.0318043, 38.3218555, 0.0], [-81.0319116, 38.3222763, 0.0], [-81.0338671, 38.3229379, 0.0], [-81.0343059, 38.32292829999999, 0.0], [-81.0349275, 38.3229666, 0.0], [-81.0353175, 38.3231292, 0.0], [-81.0373652, 38.3223546, 0.0], [-81.0386815, 38.3216183, 0.0], [-81.0390228, 38.3217905, 0.0], [-81.0406316, 38.3216566, 0.0], [-81.0412654, 38.3216566, 0.0], [-81.0428499, 38.32240239999999, 0.0], [-81.0437884, 38.3219339, 0.0], [-81.0450316, 38.3215418, 0.0], [-81.046092, 38.3214749, 0.0], [-81.0474205, 38.3208725, 0.0], [-81.0488709, 38.3206621, 0.0], [-81.0507844, 38.3196581, 0.0], [-81.0528443, 38.3196007, 0.0], [-81.0532695, 38.3193381, 0.0], [-81.0535339, 38.3188477, 0.0], [-81.0544595, 38.3186214, 0.0], [-81.0561484, 38.3182536, 0.0], [-81.0567314, 38.3177349, 0.0], [-81.0566713, 38.3172539, 0.0], [-81.0561304, 38.3152215, 0.0], [-81.0564687, 38.314212200000014, 0.0], [-81.05635640000001, 38.3134191, 0.0], [-81.0570163, 38.3123175, 0.0], [-81.0593047, 38.3110616, 0.0], [-81.059961, 38.3106669, 0.0], [-81.0607059, 38.308661, 0.0], [-81.0615218, 38.3081814, 0.0], [-81.061715, 38.3077941, 0.0], [-81.0631955, 38.3073563, 0.0], [-81.0646761, 38.3065649, 0.0], [-81.0648263, 38.305723, 0.0], [-81.06525550000002, 38.3048643, 0.0], [-81.0660494, 38.3037698, 0.0], [-81.0679592, 38.3031299, 0.0], [-81.0694397, 38.3029784, 0.0], [-81.0703624, 38.3030289, 0.0], [-81.0729159, 38.3008903, 0.0], [-81.0745467, 38.299981, 0.0], [-81.0760058, 38.3001157, 0.0], [-81.0765637, 38.2997621, 0.0], [-81.077422, 38.2983307, 0.0], [-81.0789884, 38.2980276, 0.0], [-81.0793961, 38.297674, 0.0], [-81.081735, 38.2969667, 0.0], [-81.0844601, 38.2967814, 0.0], [-81.0848678, 38.2965793, 0.0], [-81.08516820000001, 38.2958047, 0.0], [-81.0858334, 38.29521530000001, 0.0], [-81.08566170000002, 38.2945922, 0.0], [-81.0844816, 38.2937501, 0.0], [-81.0840309, 38.2931607, 0.0], [-81.0843099, 38.292285, 0.0], [-81.0851467, 38.2918808, 0.0], [-81.0870994, 38.2905671, 0.0], [-81.0907257, 38.288664, 0.0], [-81.0908974, 38.2880408, 0.0], [-81.09321534966914, 38.287760947164024, 0.0]]}}]}