{
  "type": "FeatureCollection",
  "crs": {
    "type": "name",
    "properties": {
      "name": "EPSG:32633"
    }
  },
  "metadata": {
    "project_name": "test_project2",
    "algorithm": "Dijkstra shortest path with hard constraints",
    "total_length_m": 29775.47,
    "constraints": {
      "max_slope_percent": 35.0,
      "house_clearance_m": 13.5,
      "railway_clearance_m": 10.0,
      "powerline_clearance_m": 6.0
    },
    "generated_at": "2025-12-12T11:36:33.142476"
  },
  "features": [
    {
      "type": "Feature",
      "geometry": {
        "type": "LineString",
        "coordinates": [
          [
            379622.91,
            4805069.06
          ],
          [
            379649.58,
            4805042.4
          ],
          [
            379676.26,
            4805015.73
          ],
          [
            379702.93,
            4804989.07
          ],
          [
            379702.93,
            4804962.41
          ],
          [
            379702.93,
            4804935.74
          ],
          [
            379702.93,
            4804909.08
          ],
          [
            379702.93,
            4804882.41
          ],
          [
            379702.93,
            4804855.75
          ],
          [
            379729.6,
            4804829.09
          ],
          [
            379729.6,
            4804802.42
          ],
          [
            379729.6,
            4804775.76
          ],
          [
            379756.27,
            4804749.09
          ],
          [
            379782.95,
            4804722.43
          ],
          [
            379809.62,
            4804695.77
          ],
          [
            379836.29,
            4804669.1
          ],
          [
            379862.96,
            4804642.44
          ],
          [
            379889.63,
            4804615.78
          ],
          [
            379916.31,
            4804589.11
          ],
          [
            379942.98,
            4804562.45
          ],
          [
            379969.65,
            4804535.78
          ],
          [
            379996.32,
            4804509.12
          ],
          [
            380023.0,
            4804482.46
          ],
          [
            380049.67,
            4804455.79
          ],
          [
            380076.34,
            4804429.13
          ],
          [
            380103.01,
            4804402.47
          ],
          [
            380129.68,
            4804375.8
          ],
          [
            380156.36,
            4804349.14
          ],
          [
            380183.03,
            4804322.47
          ],
          [
            380209.7,
            4804295.81
          ],
          [
            380236.37,
            4804269.15
          ],
          [
            380263.05,
            4804242.48
          ],
          [
            380289.72,
            4804215.82
          ],
          [
            380316.39,
            4804189.16
          ],
          [
            380343.06,
            4804162.49
          ],
          [
            380369.74,
            4804135.83
          ],
          [
            380396.41,
            4804109.16
          ],
          [
            380423.08,
            4804082.5
          ],
          [
            380449.75,
            4804055.84
          ],
          [
            380476.42,
            4804029.17
          ],
          [
            380503.1,
            4804002.51
          ],
          [
            380529.77,
            4803975.84
          ],
          [
            380556.44,
            4803949.18
          ],
          [
            380583.11,
            4803922.52
          ],
          [
            380609.79,
            4803895.85
          ],
          [
            380636.46,
            4803869.19
          ],
          [
            380663.13,
            4803842.53
          ],
          [
            380689.8,
            4803815.86
          ],
          [
            380716.47,
            4803789.2
          ],
          [
            380743.15,
            4803762.53
          ],
          [
            380769.82,
            4803735.87
          ],
          [
            380796.49,
            4803709.21
          ],
          [
            380823.16,
            4803682.54
          ],
          [
            380849.84,
            4803655.88
          ],
          [
            380876.51,
            4803629.22
          ],
          [
            380903.18,
            4803602.55
          ],
          [
            380929.85,
            4803575.89
          ],
          [
            380956.52,
            4803549.22
          ],
          [
            380983.2,
            4803522.56
          ],
          [
            381009.87,
            4803495.9
          ],
          [
            381036.54,
            4803469.23
          ],
          [
            381063.21,
            4803442.57
          ],
          [
            381089.89,
            4803415.91
          ],
          [
            381116.56,
            4803389.24
          ],
          [
            381143.23,
            4803362.58
          ],
          [
            381169.9,
            4803335.91
          ],
          [
            381196.57,
            4803309.25
          ],
          [
            381223.25,
            4803282.59
          ],
          [
            381249.92,
            4803255.92
          ],
          [
            381276.59,
            4803229.26
          ],
          [
            381303.26,
            4803202.59
          ],
          [
            381329.94,
            4803175.93
          ],
          [
            381356.61,
            4803149.27
          ],
          [
            381383.28,
            4803122.6
          ],
          [
            381409.95,
            4803095.94
          ],
          [
            381436.63,
            4803069.28
          ],
          [
            381463.3,
            4803042.61
          ],
          [
            381489.97,
            4803015.95
          ],
          [
            381516.64,
            4802989.28
          ],
          [
            381543.31,
            4802962.62
          ],
          [
            381569.99,
            4802935.96
          ],
          [
            381596.66,
            4802909.29
          ],
          [
            381623.33,
            4802882.63
          ],
          [
            381650.0,
            4802855.97
          ],
          [
            381676.68,
            4802829.3
          ],
          [
            381703.35,
            4802802.64
          ],
          [
            381730.02,
            4802775.97
          ],
          [
            381756.69,
            4802749.31
          ],
          [
            381783.36,
            4802722.65
          ],
          [
            381810.04,
            4802695.98
          ],
          [
            381836.71,
            4802669.32
          ],
          [
            381863.38,
            4802642.66
          ],
          [
            381890.05,
            4802615.99
          ],
          [
            381916.73,
            4802589.33
          ],
          [
            381943.4,
            4802562.66
          ],
          [
            381970.07,
            4802536.0
          ],
          [
            381996.74,
            4802509.34
          ],
          [
            382023.41,
            4802482.67
          ],
          [
            382050.09,
            4802456.01
          ],
          [
            382076.76,
            4802429.34
          ],
          [
            382103.43,
            4802402.68
          ],
          [
            382130.1,
            4802376.02
          ],
          [
            382156.78,
            4802349.35
          ],
          [
            382183.45,
            4802322.69
          ],
          [
            382210.12,
            4802296.03
          ],
          [
            382236.79,
            4802269.36
          ],
          [
            382263.47,
            4802242.7
          ],
          [
            382290.14,
            4802216.03
          ],
          [
            382316.81,
            4802189.37
          ],
          [
            382343.48,
            4802162.71
          ],
          [
            382370.15,
            4802136.04
          ],
          [
            382370.15,
            4802109.38
          ],
          [
            382370.15,
            4802082.72
          ],
          [
            382370.15,
            4802056.05
          ],
          [
            382370.15,
            4802029.39
          ],
          [
            382370.15,
            4802002.72
          ],
          [
            382370.15,
            4801976.06
          ],
          [
            382370.15,
            4801949.4
          ],
          [
            382370.15,
            4801922.73
          ],
          [
            382370.15,
            4801896.07
          ],
          [
            382370.15,
            4801869.41
          ],
          [
            382370.15,
            4801842.74
          ],
          [
            382370.15,
            4801816.08
          ],
          [
            382370.15,
            4801789.41
          ],
          [
            382370.15,
            4801762.75
          ],
          [
            382370.15,
            4801736.09
          ],
          [
            382370.15,
            4801709.42
          ],
          [
            382370.15,
            4801682.76
          ],
          [
            382370.15,
            4801656.09
          ],
          [
            382370.15,
            4801629.43
          ],
          [
            382370.15,
            4801602.77
          ],
          [
            382370.15,
            4801576.1
          ],
          [
            382370.15,
            4801549.44
          ],
          [
            382370.15,
            4801522.78
          ],
          [
            382370.15,
            4801496.11
          ],
          [
            382370.15,
            4801469.45
          ],
          [
            382370.15,
            4801442.78
          ],
          [
            382370.15,
            4801416.12
          ],
          [
            382370.15,
            4801389.46
          ],
          [
            382370.15,
            4801362.79
          ],
          [
            382370.15,
            4801336.13
          ],
          [
            382370.15,
            4801309.47
          ],
          [
            382370.15,
            4801282.8
          ],
          [
            382370.15,
            4801256.14
          ],
          [
            382370.15,
            4801229.47
          ],
          [
            382370.15,
            4801202.81
          ],
          [
            382370.15,
            4801176.15
          ],
          [
            382370.15,
            4801149.48
          ],
          [
            382370.15,
            4801122.82
          ],
          [
            382370.15,
            4801096.15
          ],
          [
            382370.15,
            4801069.49
          ],
          [
            382370.15,
            4801042.83
          ],
          [
            382370.15,
            4801016.16
          ],
          [
            382370.15,
            4800989.5
          ],
          [
            382370.15,
            4800962.84
          ],
          [
            382396.83,
            4800936.17
          ],
          [
            382423.5,
            4800909.51
          ],
          [
            382450.17,
            4800882.84
          ],
          [
            382476.84,
            4800856.18
          ],
          [
            382476.84,
            4800829.52
          ],
          [
            382476.84,
            4800802.85
          ],
          [
            382476.84,
            4800776.19
          ],
          [
            382476.84,
            4800749.53
          ],
          [
            382476.84,
            4800722.86
          ],
          [
            382476.84,
            4800696.2
          ],
          [
            382476.84,
            4800669.53
          ],
          [
            382476.84,
            4800642.87
          ],
          [
            382476.84,
            4800616.21
          ],
          [
            382476.84,
            4800589.54
          ],
          [
            382476.84,
            4800562.88
          ],
          [
            382476.84,
            4800536.22
          ],
          [
            382476.84,
            4800509.55
          ],
          [
            382476.84,
            4800482.89
          ],
          [
            382476.84,
            4800456.22
          ],
          [
            382476.84,
            4800429.56
          ],
          [
            382476.84,
            4800402.9
          ],
          [
            382476.84,
            4800376.23
          ],
          [
            382476.84,
            4800349.57
          ],
          [
            382476.84,
            4800322.9
          ],
          [
            382476.84,
            4800296.24
          ],
          [
            382476.84,
            4800269.58
          ],
          [
            382476.84,
            4800242.91
          ],
          [
            382476.84,
            4800216.25
          ],
          [
            382476.84,
            4800189.59
          ],
          [
            382476.84,
            4800162.92
          ],
          [
            382476.84,
            4800136.26
          ],
          [
            382476.84,
            4800109.59
          ],
          [
            382476.84,
            4800082.93
          ],
          [
            382476.84,
            4800056.27
          ],
          [
            382476.84,
            4800029.6
          ],
          [
            382476.84,
            4800002.94
          ],
          [
            382503.52,
            4799976.28
          ],
          [
            382530.19,
            4799949.61
          ],
          [
            382556.86,
            4799922.95
          ],
          [
            382583.53,
            4799896.28
          ],
          [
            382610.2,
            4799869.62
          ],
          [
            382636.88,
            4799842.96
          ],
          [
            382663.55,
            4799816.29
          ],
          [
            382690.22,
            4799789.63
          ],
          [
            382716.89,
            4799762.97
          ],
          [
            382743.57,
            4799736.3
          ],
          [
            382770.24,
            4799709.64
          ],
          [
            382796.91,
            4799682.97
          ],
          [
            382823.58,
            4799656.31
          ],
          [
            382850.25,
            4799629.65
          ],
          [
            382876.93,
            4799602.98
          ],
          [
            382903.6,
            4799576.32
          ],
          [
            382930.27,
            4799549.65
          ],
          [
            382956.94,
            4799522.99
          ],
          [
            382983.62,
            4799496.33
          ],
          [
            383010.29,
            4799469.66
          ],
          [
            383036.96,
            4799443.0
          ],
          [
            383063.63,
            4799416.34
          ],
          [
            383090.3,
            4799389.67
          ],
          [
            383116.98,
            4799363.01
          ],
          [
            383143.65,
            4799336.34
          ],
          [
            383170.32,
            4799309.68
          ],
          [
            383196.99,
            4799283.02
          ],
          [
            383223.67,
            4799256.35
          ],
          [
            383250.34,
            4799229.69
          ],
          [
            383277.01,
            4799203.03
          ],
          [
            383303.68,
            4799176.36
          ],
          [
            383330.36,
            4799149.7
          ],
          [
            383357.03,
            4799123.03
          ],
          [
            383383.7,
            4799096.37
          ],
          [
            383410.37,
            4799069.71
          ],
          [
            383437.04,
            4799043.04
          ],
          [
            383463.72,
            4799016.38
          ],
          [
            383490.39,
            4798989.72
          ],
          [
            383517.06,
            4798963.05
          ],
          [
            383543.73,
            4798936.39
          ],
          [
            383570.41,
            4798909.72
          ],
          [
            383597.08,
            4798883.06
          ],
          [
            383623.75,
            4798856.4
          ],
          [
            383650.42,
            4798829.73
          ],
          [
            383677.09,
            4798803.07
          ],
          [
            383703.77,
            4798776.4
          ],
          [
            383730.44,
            4798749.74
          ],
          [
            383757.11,
            4798723.08
          ],
          [
            383783.78,
            4798696.41
          ],
          [
            383810.46,
            4798669.75
          ],
          [
            383837.13,
            4798643.09
          ],
          [
            383863.8,
            4798616.42
          ],
          [
            383890.47,
            4798589.76
          ],
          [
            383917.14,
            4798563.09
          ],
          [
            383943.82,
            4798536.43
          ],
          [
            383970.49,
            4798509.77
          ],
          [
            383997.16,
            4798483.1
          ],
          [
            384023.83,
            4798456.44
          ],
          [
            384050.51,
            4798429.78
          ],
          [
            384077.18,
            4798403.11
          ],
          [
            384103.85,
            4798376.45
          ],
          [
            384130.52,
            4798349.78
          ],
          [
            384157.2,
            4798323.12
          ],
          [
            384183.87,
            4798296.46
          ],
          [
            384210.54,
            4798269.79
          ],
          [
            384237.21,
            4798243.13
          ],
          [
            384263.88,
            4798216.47
          ],
          [
            384290.56,
            4798189.8
          ],
          [
            384317.23,
            4798163.14
          ],
          [
            384343.9,
            4798136.47
          ],
          [
            384370.57,
            4798109.81
          ],
          [
            384397.25,
            4798083.15
          ],
          [
            384423.92,
            4798056.48
          ],
          [
            384450.59,
            4798029.82
          ],
          [
            384477.26,
            4798003.15
          ],
          [
            384503.93,
            4797976.49
          ],
          [
            384530.61,
            4797949.83
          ],
          [
            384557.28,
            4797923.16
          ],
          [
            384583.95,
            4797896.5
          ],
          [
            384610.62,
            4797869.84
          ],
          [
            384637.3,
            4797843.17
          ],
          [
            384663.97,
            4797816.51
          ],
          [
            384690.64,
            4797789.84
          ],
          [
            384717.31,
            4797763.18
          ],
          [
            384743.98,
            4797736.52
          ],
          [
            384770.66,
            4797709.85
          ],
          [
            384797.33,
            4797683.19
          ],
          [
            384824.0,
            4797656.53
          ],
          [
            384850.67,
            4797629.86
          ],
          [
            384877.35,
            4797603.2
          ],
          [
            384904.02,
            4797576.53
          ],
          [
            384930.69,
            4797549.87
          ],
          [
            384957.36,
            4797523.21
          ],
          [
            384984.03,
            4797496.54
          ],
          [
            385010.71,
            4797469.88
          ],
          [
            385037.38,
            4797443.22
          ],
          [
            385064.05,
            4797416.55
          ],
          [
            385090.72,
            4797389.89
          ],
          [
            385117.4,
            4797363.22
          ],
          [
            385144.07,
            4797336.56
          ],
          [
            385170.74,
            4797309.9
          ],
          [
            385197.41,
            4797283.23
          ],
          [
            385224.09,
            4797256.57
          ],
          [
            385250.76,
            4797229.9
          ],
          [
            385277.43,
            4797203.24
          ],
          [
            385304.1,
            4797176.58
          ],
          [
            385330.77,
            4797149.91
          ],
          [
            385357.45,
            4797123.25
          ],
          [
            385384.12,
            4797096.59
          ],
          [
            385410.79,
            4797069.92
          ],
          [
            385437.46,
            4797043.26
          ],
          [
            385464.14,
            4797016.59
          ],
          [
            385490.81,
            4796989.93
          ],
          [
            385517.48,
            4796963.27
          ],
          [
            385544.15,
            4796936.6
          ],
          [
            385570.82,
            4796909.94
          ],
          [
            385597.5,
            4796883.28
          ],
          [
            385624.17,
            4796856.61
          ],
          [
            385650.84,
            4796829.95
          ],
          [
            385677.51,
            4796803.28
          ],
          [
            385704.19,
            4796776.62
          ],
          [
            385730.86,
            4796749.96
          ],
          [
            385757.53,
            4796723.29
          ],
          [
            385784.2,
            4796696.63
          ],
          [
            385810.87,
            4796669.97
          ],
          [
            385837.55,
            4796643.3
          ],
          [
            385864.22,
            4796616.64
          ],
          [
            385890.89,
            4796589.97
          ],
          [
            385917.56,
            4796563.31
          ],
          [
            385944.24,
            4796536.65
          ],
          [
            385970.91,
            4796509.98
          ],
          [
            385997.58,
            4796483.32
          ],
          [
            386024.25,
            4796456.65
          ],
          [
            386050.92,
            4796429.99
          ],
          [
            386077.6,
            4796403.33
          ],
          [
            386104.27,
            4796376.66
          ],
          [
            386130.94,
            4796350.0
          ],
          [
            386157.61,
            4796323.34
          ],
          [
            386184.29,
            4796296.67
          ],
          [
            386210.96,
            4796270.01
          ],
          [
            386237.63,
            4796243.34
          ],
          [
            386264.3,
            4796216.68
          ],
          [
            386290.98,
            4796190.02
          ],
          [
            386317.65,
            4796163.35
          ],
          [
            386344.32,
            4796136.69
          ],
          [
            386370.99,
            4796110.03
          ],
          [
            386397.66,
            4796083.36
          ],
          [
            386424.34,
            4796056.7
          ],
          [
            386451.01,
            4796030.03
          ],
          [
            386477.68,
            4796003.37
          ],
          [
            386504.35,
            4795976.71
          ],
          [
            386531.03,
            4795950.04
          ],
          [
            386557.7,
            4795923.38
          ],
          [
            386584.37,
            4795896.72
          ],
          [
            386611.04,
            4795870.05
          ],
          [
            386637.71,
            4795843.39
          ],
          [
            386664.39,
            4795816.72
          ],
          [
            386691.06,
            4795790.06
          ],
          [
            386717.73,
            4795763.4
          ],
          [
            386744.4,
            4795736.73
          ],
          [
            386771.08,
            4795710.07
          ],
          [
            386797.75,
            4795683.4
          ],
          [
            386824.42,
            4795656.74
          ],
          [
            386851.09,
            4795630.08
          ],
          [
            386877.76,
            4795603.41
          ],
          [
            386904.44,
            4795576.75
          ],
          [
            386931.11,
            4795550.09
          ],
          [
            386957.78,
            4795523.42
          ],
          [
            386984.45,
            4795496.76
          ],
          [
            387011.13,
            4795470.09
          ],
          [
            387037.8,
            4795443.43
          ],
          [
            387064.47,
            4795416.77
          ],
          [
            387091.14,
            4795390.1
          ],
          [
            387117.82,
            4795363.44
          ],
          [
            387144.49,
            4795336.78
          ],
          [
            387171.16,
            4795310.11
          ],
          [
            387197.83,
            4795283.45
          ],
          [
            387224.5,
            4795256.78
          ],
          [
            387251.18,
            4795230.12
          ],
          [
            387277.85,
            4795203.46
          ],
          [
            387304.52,
            4795176.79
          ],
          [
            387331.19,
            4795150.13
          ],
          [
            387357.87,
            4795123.47
          ],
          [
            387384.54,
            4795096.8
          ],
          [
            387411.21,
            4795070.14
          ],
          [
            387437.88,
            4795043.47
          ],
          [
            387464.55,
            4795016.81
          ],
          [
            387491.23,
            4794990.15
          ],
          [
            387517.9,
            4794963.48
          ],
          [
            387544.57,
            4794936.82
          ],
          [
            387571.24,
            4794910.15
          ],
          [
            387597.92,
            4794883.49
          ],
          [
            387624.59,
            4794856.83
          ],
          [
            387651.26,
            4794830.16
          ],
          [
            387677.93,
            4794803.5
          ],
          [
            387704.6,
            4794776.84
          ],
          [
            387731.28,
            4794750.17
          ],
          [
            387757.95,
            4794723.51
          ],
          [
            387784.62,
            4794696.84
          ],
          [
            387811.29,
            4794670.18
          ],
          [
            387837.97,
            4794643.52
          ],
          [
            387864.64,
            4794616.85
          ],
          [
            387891.31,
            4794590.19
          ],
          [
            387917.98,
            4794563.53
          ],
          [
            387944.65,
            4794536.86
          ],
          [
            387971.33,
            4794510.2
          ],
          [
            387998.0,
            4794483.53
          ],
          [
            388024.67,
            4794456.87
          ],
          [
            388051.34,
            4794430.21
          ],
          [
            388078.02,
            4794403.54
          ],
          [
            388104.69,
            4794376.88
          ],
          [
            388131.36,
            4794350.21
          ],
          [
            388158.03,
            4794323.55
          ],
          [
            388184.71,
            4794296.89
          ],
          [
            388211.38,
            4794270.22
          ],
          [
            388238.05,
            4794243.56
          ],
          [
            388264.72,
            4794216.9
          ],
          [
            388291.39,
            4794190.23
          ],
          [
            388318.07,
            4794163.57
          ],
          [
            388344.74,
            4794136.9
          ],
          [
            388371.41,
            4794110.24
          ],
          [
            388398.08,
            4794083.58
          ],
          [
            388424.76,
            4794056.91
          ],
          [
            388451.43,
            4794030.25
          ],
          [
            388478.1,
            4794003.59
          ],
          [
            388504.77,
            4793976.92
          ],
          [
            388531.44,
            4793950.26
          ],
          [
            388558.12,
            4793923.59
          ],
          [
            388584.79,
            4793896.93
          ],
          [
            388611.46,
            4793870.27
          ],
          [
            388638.13,
            4793843.6
          ],
          [
            388664.81,
            4793816.94
          ],
          [
            388691.48,
            4793790.28
          ],
          [
            388718.15,
            4793763.61
          ],
          [
            388744.82,
            4793736.95
          ],
          [
            388771.49,
            4793710.28
          ],
          [
            388798.17,
            4793683.62
          ],
          [
            388824.84,
            4793656.96
          ],
          [
            388851.51,
            4793630.29
          ],
          [
            388878.18,
            4793603.63
          ],
          [
            388904.86,
            4793576.96
          ],
          [
            388931.53,
            4793550.3
          ],
          [
            388958.2,
            4793523.64
          ],
          [
            388984.87,
            4793496.97
          ],
          [
            389011.55,
            4793470.31
          ],
          [
            389038.22,
            4793443.65
          ],
          [
            389064.89,
            4793416.98
          ],
          [
            389091.56,
            4793390.32
          ],
          [
            389118.23,
            4793363.65
          ],
          [
            389144.91,
            4793336.99
          ],
          [
            389171.58,
            4793310.33
          ],
          [
            389198.25,
            4793283.66
          ],
          [
            389224.92,
            4793257.0
          ],
          [
            389251.6,
            4793230.34
          ],
          [
            389278.27,
            4793203.67
          ],
          [
            389304.94,
            4793177.01
          ],
          [
            389331.61,
            4793150.34
          ],
          [
            389358.28,
            4793123.68
          ],
          [
            389384.96,
            4793097.02
          ],
          [
            389411.63,
            4793070.35
          ],
          [
            389438.3,
            4793043.69
          ],
          [
            389464.97,
            4793017.03
          ],
          [
            389491.65,
            4792990.36
          ],
          [
            389518.32,
            4792963.7
          ],
          [
            389544.99,
            4792937.03
          ],
          [
            389571.66,
            4792910.37
          ],
          [
            389598.33,
            4792883.71
          ],
          [
            389625.01,
            4792857.04
          ],
          [
            389651.68,
            4792830.38
          ],
          [
            389651.68,
            4792803.71
          ],
          [
            389651.68,
            4792777.05
          ],
          [
            389651.68,
            4792750.39
          ],
          [
            389651.68,
            4792723.72
          ],
          [
            389651.68,
            4792697.06
          ],
          [
            389651.68,
            4792670.4
          ],
          [
            389651.68,
            4792643.73
          ],
          [
            389651.68,
            4792617.07
          ],
          [
            389651.68,
            4792590.4
          ],
          [
            389651.68,
            4792563.74
          ],
          [
            389651.68,
            4792537.08
          ],
          [
            389651.68,
            4792510.41
          ],
          [
            389651.68,
            4792483.75
          ],
          [
            389651.68,
            4792457.09
          ],
          [
            389651.68,
            4792430.42
          ],
          [
            389651.68,
            4792403.76
          ],
          [
            389651.68,
            4792377.09
          ],
          [
            389651.68,
            4792350.43
          ],
          [
            389651.68,
            4792323.77
          ],
          [
            389651.68,
            4792297.1
          ],
          [
            389651.68,
            4792270.44
          ],
          [
            389651.68,
            4792243.78
          ],
          [
            389651.68,
            4792217.11
          ],
          [
            389651.68,
            4792190.45
          ],
          [
            389651.68,
            4792163.78
          ],
          [
            389651.68,
            4792137.12
          ],
          [
            389651.68,
            4792110.46
          ],
          [
            389651.68,
            4792083.79
          ],
          [
            389651.68,
            4792057.13
          ],
          [
            389651.68,
            4792030.46
          ],
          [
            389651.68,
            4792003.8
          ],
          [
            389651.68,
            4791977.14
          ],
          [
            389651.68,
            4791950.47
          ],
          [
            389651.68,
            4791923.81
          ],
          [
            389651.68,
            4791897.15
          ],
          [
            389651.68,
            4791870.48
          ],
          [
            389651.68,
            4791843.82
          ],
          [
            389651.68,
            4791817.15
          ],
          [
            389651.68,
            4791790.49
          ],
          [
            389651.68,
            4791763.83
          ],
          [
            389651.68,
            4791737.16
          ],
          [
            389651.68,
            4791710.5
          ],
          [
            389651.68,
            4791683.84
          ],
          [
            389651.68,
            4791657.17
          ],
          [
            389651.68,
            4791630.51
          ],
          [
            389651.68,
            4791603.84
          ],
          [
            389651.68,
            4791577.18
          ],
          [
            389651.68,
            4791550.52
          ],
          [
            389651.68,
            4791523.85
          ],
          [
            389651.68,
            4791497.19
          ],
          [
            389651.68,
            4791470.53
          ],
          [
            389651.68,
            4791443.86
          ],
          [
            389651.68,
            4791417.2
          ],
          [
            389651.68,
            4791390.53
          ],
          [
            389651.68,
            4791363.87
          ],
          [
            389651.68,
            4791337.21
          ],
          [
            389651.68,
            4791310.54
          ],
          [
            389651.68,
            4791283.88
          ],
          [
            389651.68,
            4791257.21
          ],
          [
            389651.68,
            4791230.55
          ],
          [
            389678.35,
            4791203.89
          ],
          [
            389705.02,
            4791177.22
          ],
          [
            389705.02,
            4791150.56
          ],
          [
            389705.02,
            4791123.9
          ],
          [
            389705.02,
            4791097.23
          ],
          [
            389705.02,
            4791070.57
          ],
          [
            389705.02,
            4791043.9
          ],
          [
            389705.02,
            4791017.24
          ],
          [
            389705.02,
            4790990.58
          ],
          [
            389705.02,
            4790963.91
          ],
          [
            389705.02,
            4790937.25
          ],
          [
            389705.02,
            4790910.59
          ],
          [
            389705.02,
            4790883.92
          ],
          [
            389705.02,
            4790857.26
          ],
          [
            389705.02,
            4790830.59
          ],
          [
            389705.02,
            4790803.93
          ],
          [
            389705.02,
            4790777.27
          ],
          [
            389705.02,
            4790750.6
          ],
          [
            389705.02,
            4790723.94
          ],
          [
            389705.02,
            4790697.28
          ],
          [
            389705.02,
            4790670.61
          ],
          [
            389705.02,
            4790643.95
          ],
          [
            389705.02,
            4790617.28
          ],
          [
            389705.02,
            4790590.62
          ],
          [
            389705.02,
            4790563.96
          ],
          [
            389705.02,
            4790537.29
          ],
          [
            389705.02,
            4790510.63
          ],
          [
            389705.02,
            4790483.96
          ],
          [
            389705.02,
            4790457.3
          ],
          [
            389705.02,
            4790430.64
          ],
          [
            389705.02,
            4790403.97
          ],
          [
            389705.02,
            4790377.31
          ],
          [
            389705.02,
            4790350.65
          ],
          [
            389731.7,
            4790323.98
          ],
          [
            389758.37,
            4790297.32
          ],
          [
            389785.04,
            4790270.65
          ],
          [
            389811.71,
            4790243.99
          ],
          [
            389838.38,
            4790217.33
          ],
          [
            389865.06,
            4790190.66
          ],
          [
            389891.73,
            4790164.0
          ],
          [
            389918.4,
            4790137.34
          ],
          [
            389945.07,
            4790110.67
          ],
          [
            389971.75,
            4790084.01
          ],
          [
            389998.42,
            4790057.34
          ],
          [
            390025.09,
            4790030.68
          ],
          [
            390051.76,
            4790004.02
          ],
          [
            390078.44,
            4789977.35
          ],
          [
            390105.11,
            4789950.69
          ],
          [
            390131.78,
            4789924.03
          ],
          [
            390158.45,
            4789897.36
          ],
          [
            390185.12,
            4789870.7
          ],
          [
            390211.8,
            4789844.03
          ],
          [
            390238.47,
            4789817.37
          ],
          [
            390265.14,
            4789790.71
          ],
          [
            390291.81,
            4789764.04
          ],
          [
            390318.49,
            4789737.38
          ],
          [
            390345.16,
            4789710.71
          ],
          [
            390371.83,
            4789684.05
          ],
          [
            390398.5,
            4789657.39
          ],
          [
            390425.17,
            4789630.72
          ],
          [
            390425.17,
            4789604.06
          ],
          [
            390451.85,
            4789577.4
          ],
          [
            390478.52,
            4789550.73
          ],
          [
            390505.19,
            4789524.07
          ],
          [
            390531.86,
            4789497.4
          ],
          [
            390558.54,
            4789470.74
          ],
          [
            390585.21,
            4789444.08
          ],
          [
            390611.88,
            4789417.41
          ],
          [
            390638.55,
            4789390.75
          ],
          [
            390665.22,
            4789364.09
          ],
          [
            390691.9,
            4789337.42
          ],
          [
            390718.57,
            4789310.76
          ],
          [
            390745.24,
            4789284.09
          ],
          [
            390771.91,
            4789257.43
          ],
          [
            390798.59,
            4789230.77
          ],
          [
            390825.26,
            4789204.1
          ],
          [
            390851.93,
            4789177.44
          ],
          [
            390878.6,
            4789150.78
          ],
          [
            390905.28,
            4789124.11
          ],
          [
            390931.95,
            4789097.45
          ],
          [
            390958.62,
            4789070.78
          ],
          [
            390985.29,
            4789044.12
          ],
          [
            391011.96,
            4789017.46
          ],
          [
            391038.64,
            4788990.79
          ],
          [
            391065.31,
            4788964.13
          ],
          [
            391091.98,
            4788937.46
          ],
          [
            391118.65,
            4788910.8
          ],
          [
            391145.33,
            4788884.14
          ],
          [
            391172.0,
            4788857.47
          ],
          [
            391172.0,
            4788830.81
          ],
          [
            391198.67,
            4788804.15
          ],
          [
            391225.34,
            4788777.48
          ],
          [
            391252.01,
            4788750.82
          ],
          [
            391278.69,
            4788724.15
          ],
          [
            391305.36,
            4788697.49
          ],
          [
            391332.03,
            4788670.83
          ],
          [
            391358.7,
            4788644.16
          ],
          [
            391385.38,
            4788617.5
          ],
          [
            391412.05,
            4788590.84
          ],
          [
            391438.72,
            4788564.17
          ],
          [
            391465.39,
            4788537.51
          ],
          [
            391492.06,
            4788510.84
          ],
          [
            391518.74,
            4788484.18
          ],
          [
            391545.41,
            4788457.52
          ],
          [
            391572.08,
            4788430.85
          ],
          [
            391598.75,
            4788404.19
          ],
          [
            391625.43,
            4788377.52
          ],
          [
            391652.1,
            4788350.86
          ],
          [
            391678.77,
            4788324.2
          ],
          [
            391705.44,
            4788297.53
          ],
          [
            391732.11,
            4788270.87
          ],
          [
            391758.79,
            4788244.21
          ],
          [
            391785.46,
            4788217.54
          ],
          [
            391812.13,
            4788190.88
          ],
          [
            391838.8,
            4788164.21
          ],
          [
            391865.48,
            4788137.55
          ],
          [
            391892.15,
            4788110.89
          ],
          [
            391918.82,
            4788084.22
          ],
          [
            391918.82,
            4788057.56
          ],
          [
            391945.49,
            4788030.9
          ],
          [
            391972.17,
            4788004.23
          ],
          [
            391998.84,
            4787977.57
          ],
          [
            392025.51,
            4787950.9
          ],
          [
            392052.18,
            4787924.24
          ],
          [
            392078.85,
            4787897.58
          ],
          [
            392105.53,
            4787870.91
          ],
          [
            392132.2,
            4787844.25
          ],
          [
            392158.87,
            4787817.59
          ],
          [
            392185.54,
            4787790.92
          ],
          [
            392212.22,
            4787764.26
          ],
          [
            392238.89,
            4787737.59
          ],
          [
            392265.56,
            4787710.93
          ],
          [
            392292.23,
            4787684.27
          ],
          [
            392318.9,
            4787657.6
          ],
          [
            392345.58,
            4787630.94
          ],
          [
            392372.25,
            4787604.27
          ],
          [
            392398.92,
            4787577.61
          ],
          [
            392425.59,
            4787550.95
          ],
          [
            392452.27,
            4787524.28
          ],
          [
            392478.94,
            4787497.62
          ],
          [
            392505.61,
            4787470.96
          ],
          [
            392532.28,
            4787444.29
          ],
          [
            392558.95,
            4787417.63
          ],
          [
            392585.63,
            4787390.96
          ],
          [
            392612.3,
            4787364.3
          ],
          [
            392638.97,
            4787337.64
          ],
          [
            392665.64,
            4787310.97
          ],
          [
            392665.64,
            4787284.31
          ],
          [
            392692.32,
            4787257.65
          ],
          [
            392718.99,
            4787230.98
          ],
          [
            392745.66,
            4787204.32
          ],
          [
            392772.33,
            4787177.65
          ],
          [
            392799.01,
            4787150.99
          ],
          [
            392825.68,
            4787124.33
          ],
          [
            392852.35,
            4787097.66
          ],
          [
            392879.02,
            4787071.0
          ],
          [
            392905.69,
            4787044.34
          ],
          [
            392932.37,
            4787017.67
          ],
          [
            392959.04,
            4786991.01
          ],
          [
            392985.71,
            4786964.34
          ],
          [
            393012.38,
            4786937.68
          ],
          [
            393039.06,
            4786911.02
          ],
          [
            393065.73,
            4786884.35
          ],
          [
            393092.4,
            4786857.69
          ],
          [
            393119.07,
            4786831.02
          ],
          [
            393145.74,
            4786804.36
          ],
          [
            393172.42,
            4786777.7
          ],
          [
            393199.09,
            4786751.03
          ],
          [
            393225.76,
            4786724.37
          ],
          [
            393252.43,
            4786697.71
          ],
          [
            393279.11,
            4786671.04
          ],
          [
            393305.78,
            4786644.38
          ],
          [
            393332.45,
            4786617.71
          ],
          [
            393359.12,
            4786591.05
          ],
          [
            393385.79,
            4786564.39
          ],
          [
            393412.47,
            4786537.72
          ],
          [
            393439.14,
            4786511.06
          ],
          [
            393439.14,
            4786484.4
          ],
          [
            393465.81,
            4786457.73
          ],
          [
            393492.48,
            4786431.07
          ],
          [
            393519.16,
            4786404.4
          ],
          [
            393545.83,
            4786377.74
          ],
          [
            393572.5,
            4786351.08
          ],
          [
            393599.17,
            4786324.41
          ],
          [
            393625.84,
            4786297.75
          ],
          [
            393652.52,
            4786271.09
          ],
          [
            393679.19,
            4786244.42
          ],
          [
            393705.86,
            4786217.76
          ],
          [
            393732.53,
            4786191.09
          ],
          [
            393759.21,
            4786164.43
          ],
          [
            393785.88,
            4786137.77
          ],
          [
            393812.55,
            4786111.1
          ],
          [
            393839.22,
            4786084.44
          ],
          [
            393865.9,
            4786057.77
          ],
          [
            393892.57,
            4786031.11
          ],
          [
            393919.24,
            4786004.45
          ],
          [
            393945.91,
            4785977.78
          ],
          [
            393972.58,
            4785951.12
          ],
          [
            393999.26,
            4785924.46
          ],
          [
            394025.93,
            4785897.79
          ],
          [
            394052.6,
            4785871.13
          ],
          [
            394079.27,
            4785844.46
          ],
          [
            394105.95,
            4785817.8
          ],
          [
            394132.62,
            4785791.14
          ],
          [
            394159.29,
            4785764.47
          ],
          [
            394185.96,
            4785737.81
          ],
          [
            394185.96,
            4785711.15
          ],
          [
            394212.63,
            4785684.48
          ],
          [
            394239.31,
            4785657.82
          ],
          [
            394265.98,
            4785631.15
          ],
          [
            394292.65,
            4785604.49
          ],
          [
            394319.32,
            4785577.83
          ],
          [
            394346.0,
            4785551.16
          ],
          [
            394372.67,
            4785524.5
          ],
          [
            394399.34,
            4785497.84
          ],
          [
            394426.01,
            4785471.17
          ],
          [
            394452.68,
            4785444.51
          ],
          [
            394479.36,
            4785417.84
          ],
          [
            394506.03,
            4785391.18
          ],
          [
            394532.7,
            4785364.52
          ],
          [
            394559.37,
            4785337.85
          ],
          [
            394586.05,
            4785311.19
          ],
          [
            394612.72,
            4785284.52
          ],
          [
            394639.39,
            4785257.86
          ],
          [
            394666.06,
            4785231.2
          ],
          [
            394692.74,
            4785204.53
          ],
          [
            394719.41,
            4785177.87
          ],
          [
            394746.08,
            4785151.21
          ],
          [
            394772.75,
            4785124.54
          ],
          [
            394799.42,
            4785097.88
          ],
          [
            394826.1,
            4785071.21
          ],
          [
            394852.77,
            4785044.55
          ],
          [
            394879.44,
            4785017.89
          ],
          [
            394906.11,
            4784991.22
          ],
          [
            394932.79,
            4784964.56
          ],
          [
            394932.79,
            4784937.9
          ],
          [
            394959.46,
            4784911.23
          ],
          [
            394986.13,
            4784884.57
          ],
          [
            395012.8,
            4784857.9
          ],
          [
            395039.47,
            4784831.24
          ],
          [
            395066.15,
            4784804.58
          ],
          [
            395092.82,
            4784777.91
          ],
          [
            395119.49,
            4784751.25
          ],
          [
            395119.49,
            4784724.59
          ],
          [
            395119.49,
            4784697.92
          ],
          [
            395119.49,
            4784671.26
          ],
          [
            395119.49,
            4784644.59
          ],
          [
            395146.16,
            4784617.93
          ],
          [
            395172.84,
            4784591.27
          ],
          [
            395199.51,
            4784564.6
          ],
          [
            395226.18,
            4784537.94
          ],
          [
            395252.85,
            4784511.27
          ],
          [
            395279.52,
            4784484.61
          ],
          [
            395306.2,
            4784457.95
          ],
          [
            395332.87,
            4784431.28
          ],
          [
            395359.54,
            4784404.62
          ],
          [
            395386.21,
            4784377.96
          ],
          [
            395412.89,
            4784351.29
          ],
          [
            395439.56,
            4784324.63
          ],
          [
            395466.23,
            4784297.96
          ],
          [
            395492.9,
            4784271.3
          ],
          [
            395519.57,
            4784244.64
          ],
          [
            395546.25,
            4784217.97
          ],
          [
            395572.92,
            4784191.31
          ],
          [
            395599.59,
            4784164.65
          ],
          [
            395626.26,
            4784137.98
          ],
          [
            395652.94,
            4784111.32
          ],
          [
            395679.61,
            4784084.65
          ],
          [
            395706.28,
            4784057.99
          ],
          [
            395732.95,
            4784031.33
          ],
          [
            395759.63,
            4784004.66
          ],
          [
            395786.3,
            4783978.0
          ],
          [
            395812.97,
            4783951.34
          ],
          [
            395839.64,
            4783924.67
          ],
          [
            395866.31,
            4783898.01
          ],
          [
            395892.99,
            4783871.34
          ],
          [
            395919.66,
            4783844.68
          ],
          [
            395946.33,
            4783818.02
          ],
          [
            395973.0,
            4783791.35
          ],
          [
            395999.68,
            4783764.69
          ],
          [
            396026.35,
            4783738.02
          ],
          [
            396053.02,
            4783711.36
          ],
          [
            396079.69,
            4783684.7
          ],
          [
            396106.36,
            4783658.03
          ],
          [
            396133.04,
            4783631.37
          ],
          [
            396159.71,
            4783604.71
          ],
          [
            396186.38,
            4783578.04
          ],
          [
            396213.05,
            4783551.38
          ],
          [
            396239.73,
            4783524.71
          ],
          [
            396266.4,
            4783498.05
          ],
          [
            396293.07,
            4783471.39
          ],
          [
            396319.74,
            4783444.72
          ],
          [
            396346.41,
            4783418.06
          ],
          [
            396373.09,
            4783391.4
          ],
          [
            396399.76,
            4783364.73
          ],
          [
            396426.43,
            4783338.07
          ],
          [
            396453.1,
            4783311.4
          ],
          [
            396479.78,
            4783284.74
          ],
          [
            396506.45,
            4783258.08
          ],
          [
            396533.12,
            4783231.41
          ],
          [
            396559.79,
            4783204.75
          ],
          [
            396586.47,
            4783178.09
          ],
          [
            396613.14,
            4783151.42
          ],
          [
            396639.81,
            4783124.76
          ],
          [
            396666.48,
            4783098.09
          ],
          [
            396693.15,
            4783071.43
          ],
          [
            396719.83,
            4783044.77
          ],
          [
            396746.5,
            4783018.1
          ],
          [
            396773.17,
            4782991.44
          ],
          [
            396799.84,
            4782964.77
          ],
          [
            396826.52,
            4782938.11
          ],
          [
            396853.19,
            4782911.45
          ],
          [
            396879.86,
            4782884.78
          ],
          [
            396906.53,
            4782858.12
          ],
          [
            396933.2,
            4782831.46
          ],
          [
            396959.88,
            4782804.79
          ],
          [
            396986.55,
            4782778.13
          ],
          [
            397013.22,
            4782751.46
          ],
          [
            397039.89,
            4782724.8
          ],
          [
            397066.57,
            4782698.14
          ],
          [
            397093.24,
            4782671.47
          ],
          [
            397119.91,
            4782644.81
          ],
          [
            397146.58,
            4782618.15
          ],
          [
            397173.25,
            4782591.48
          ],
          [
            397199.93,
            4782591.48
          ]
        ]
      },
      "properties": {
        "algorithm": "Dijkstra shortest path",
        "constraints": "max_slope=20%, water=blocked, within_aoi",
        "length_m": 29775.47,
        "crs": "EPSG:32633"
      }
    }
  ]
}