{
  "type": "FeatureCollection",
  "crs": {
    "type": "name",
    "properties": {
      "name": "EPSG:32613"
    }
  },
  "metadata": {
    "title": "US_PIPELINE PIRL Route (7D Slope Optimization)",
    "description": "Reinforcement learning generated pipeline route optimized for terrain slope",
    "model_type": "PPO",
    "state_space_dim": 7,
    "action_space_dim": 2,
    "optimization_focus": "slope_minimization",
    "generation_date": "2025-11-21T15:26:29.196729",
    "total_length_m": 6695.87,
    "total_segments": 119,
    "average_slope_percent": 68.3,
    "max_slope_percent": 6911.88,
    "crs": "EPSG:32613"
  },
  "features": [
    {
      "type": "Feature",
      "geometry": {
        "type": "MultiLineString",
        "coordinates": [
          [
            [
              484838.28,
              4933184.19
            ],
            [
              484804.49,
              4933137.38
            ]
          ],
          [
            [
              484804.49,
              4933137.38
            ],
            [
              484776.61,
              4933099.43
            ]
          ],
          [
            [
              484776.61,
              4933099.43
            ],
            [
              484747.93,
              4933060.98
            ]
          ],
          [
            [
              484747.93,
              4933060.98
            ],
            [
              484716.53,
              4933019.48
            ]
          ],
          [
            [
              484716.53,
              4933019.48
            ],
            [
              484687.96,
              4932982.07
            ]
          ],
          [
            [
              484687.96,
              4932982.07
            ],
            [
              484659.61,
              4932945.24
            ]
          ],
          [
            [
              484659.61,
              4932945.24
            ],
            [
              484631.27,
              4932908.64
            ]
          ],
          [
            [
              484631.27,
              4932908.64
            ],
            [
              484597.83,
              4932865.86
            ]
          ],
          [
            [
              484597.83,
              4932865.86
            ],
            [
              484562.01,
              4932820.68
            ]
          ],
          [
            [
              484562.01,
              4932820.68
            ],
            [
              484525.92,
              4932775.71
            ]
          ],
          [
            [
              484525.92,
              4932775.71
            ],
            [
              484489.6,
              4932730.89
            ]
          ],
          [
            [
              484489.6,
              4932730.89
            ],
            [
              484453.74,
              4932686.76
            ]
          ],
          [
            [
              484453.74,
              4932686.76
            ],
            [
              484426.07,
              4932652.62
            ]
          ],
          [
            [
              484426.07,
              4932652.62
            ],
            [
              484398.24,
              4932618.22
            ]
          ],
          [
            [
              484398.24,
              4932618.22
            ],
            [
              484370.21,
              4932583.55
            ]
          ],
          [
            [
              484370.21,
              4932583.55
            ],
            [
              484342.45,
              4932549.17
            ]
          ],
          [
            [
              484342.45,
              4932549.17
            ],
            [
              484305.98,
              4932504.34
            ]
          ],
          [
            [
              484305.98,
              4932504.34
            ],
            [
              484271.5,
              4932462.1
            ]
          ],
          [
            [
              484271.5,
              4932462.1
            ],
            [
              484234.81,
              4932417.37
            ]
          ],
          [
            [
              484234.81,
              4932417.37
            ],
            [
              484198.02,
              4932372.74
            ]
          ],
          [
            [
              484198.02,
              4932372.74
            ],
            [
              484161.13,
              4932328.19
            ]
          ],
          [
            [
              484161.13,
              4932328.19
            ],
            [
              484124.14,
              4932283.83
            ]
          ],
          [
            [
              484124.14,
              4932283.83
            ],
            [
              484087.01,
              4932239.6
            ]
          ],
          [
            [
              484087.01,
              4932239.6
            ],
            [
              484049.74,
              4932195.42
            ]
          ],
          [
            [
              484049.74,
              4932195.42
            ],
            [
              484012.38,
              4932151.31
            ]
          ],
          [
            [
              484012.38,
              4932151.31
            ],
            [
              483974.91,
              4932107.34
            ]
          ],
          [
            [
              483974.91,
              4932107.34
            ],
            [
              483937.34,
              4932063.44
            ]
          ],
          [
            [
              483937.34,
              4932063.44
            ],
            [
              483899.65,
              4932019.55
            ]
          ],
          [
            [
              483899.65,
              4932019.55
            ],
            [
              483861.9,
              4931975.71
            ]
          ],
          [
            [
              483861.9,
              4931975.71
            ],
            [
              483824.07,
              4931932.01
            ]
          ],
          [
            [
              483824.07,
              4931932.01
            ],
            [
              483786.13,
              4931888.43
            ]
          ],
          [
            [
              483786.13,
              4931888.43
            ],
            [
              483748.06,
              4931844.94
            ]
          ],
          [
            [
              483748.06,
              4931844.94
            ],
            [
              483709.89,
              4931801.46
            ]
          ],
          [
            [
              483709.89,
              4931801.46
            ],
            [
              483671.64,
              4931757.92
            ]
          ],
          [
            [
              483671.64,
              4931757.92
            ],
            [
              483633.36,
              4931714.43
            ]
          ],
          [
            [
              483633.36,
              4931714.43
            ],
            [
              483595.01,
              4931671.0
            ]
          ],
          [
            [
              483595.01,
              4931671.0
            ],
            [
              483556.6,
              4931627.64
            ]
          ],
          [
            [
              483556.6,
              4931627.64
            ],
            [
              483518.1,
              4931584.22
            ]
          ],
          [
            [
              483518.1,
              4931584.22
            ],
            [
              483479.56,
              4931540.93
            ]
          ],
          [
            [
              483479.56,
              4931540.93
            ],
            [
              483440.93,
              4931497.72
            ]
          ],
          [
            [
              483440.93,
              4931497.72
            ],
            [
              483402.19,
              4931454.57
            ]
          ],
          [
            [
              483402.19,
              4931454.57
            ],
            [
              483363.36,
              4931411.47
            ]
          ],
          [
            [
              483363.36,
              4931411.47
            ],
            [
              483324.44,
              4931368.51
            ]
          ],
          [
            [
              483324.44,
              4931368.51
            ],
            [
              483285.38,
              4931325.66
            ]
          ],
          [
            [
              483285.38,
              4931325.66
            ],
            [
              483265.8,
              4931303.85
            ]
          ],
          [
            [
              483265.8,
              4931303.85
            ],
            [
              483227.9,
              4931261.69
            ]
          ],
          [
            [
              483227.9,
              4931261.69
            ],
            [
              483188.92,
              4931218.62
            ]
          ],
          [
            [
              483188.92,
              4931218.62
            ],
            [
              483149.8,
              4931175.71
            ]
          ],
          [
            [
              483149.8,
              4931175.71
            ],
            [
              483117.44,
              4931140.1
            ]
          ],
          [
            [
              483117.44,
              4931140.1
            ],
            [
              483078.19,
              4931097.37
            ]
          ],
          [
            [
              483078.19,
              4931097.37
            ],
            [
              483038.74,
              4931054.52
            ]
          ],
          [
            [
              483038.74,
              4931054.52
            ],
            [
              482999.22,
              4931011.69
            ]
          ],
          [
            [
              482999.22,
              4931011.69
            ],
            [
              482959.62,
              4930969.06
            ]
          ],
          [
            [
              482959.62,
              4930969.06
            ],
            [
              482919.87,
              4930926.57
            ]
          ],
          [
            [
              482919.87,
              4930926.57
            ],
            [
              482884.7,
              4930888.9
            ]
          ],
          [
            [
              482884.7,
              4930888.9
            ],
            [
              482849.37,
              4930851.02
            ]
          ],
          [
            [
              482849.37,
              4930851.02
            ],
            [
              482809.48,
              4930808.45
            ]
          ],
          [
            [
              482809.48,
              4930808.45
            ],
            [
              482769.45,
              4930766.19
            ]
          ],
          [
            [
              482769.45,
              4930766.19
            ],
            [
              482729.21,
              4930724.03
            ]
          ],
          [
            [
              482729.21,
              4930724.03
            ],
            [
              482688.81,
              4930681.89
            ]
          ],
          [
            [
              482688.81,
              4930681.89
            ],
            [
              482648.29,
              4930639.82
            ]
          ],
          [
            [
              482648.29,
              4930639.82
            ],
            [
              482607.68,
              4930597.69
            ]
          ],
          [
            [
              482607.68,
              4930597.69
            ],
            [
              482579.13,
              4930567.88
            ]
          ],
          [
            [
              482579.13,
              4930567.88
            ],
            [
              482538.56,
              4930525.69
            ]
          ],
          [
            [
              482538.56,
              4930525.69
            ],
            [
              482497.9,
              4930483.64
            ]
          ],
          [
            [
              482497.9,
              4930483.64
            ],
            [
              482457.42,
              4930441.87
            ]
          ],
          [
            [
              482457.42,
              4930441.87
            ],
            [
              482416.92,
              4930400.16
            ]
          ],
          [
            [
              482416.92,
              4930400.16
            ],
            [
              482376.13,
              4930358.3
            ]
          ],
          [
            [
              482376.13,
              4930358.3
            ],
            [
              482335.29,
              4930316.62
            ]
          ],
          [
            [
              482335.29,
              4930316.62
            ],
            [
              482294.37,
              4930275.01
            ]
          ],
          [
            [
              482294.37,
              4930275.01
            ],
            [
              482253.4,
              4930233.46
            ]
          ],
          [
            [
              482253.4,
              4930233.46
            ],
            [
              482212.39,
              4930191.93
            ]
          ],
          [
            [
              482212.39,
              4930191.93
            ],
            [
              482171.36,
              4930150.62
            ]
          ],
          [
            [
              482171.36,
              4930150.62
            ],
            [
              482130.25,
              4930109.46
            ]
          ],
          [
            [
              482130.25,
              4930109.46
            ],
            [
              482089.05,
              4930068.4
            ]
          ],
          [
            [
              482089.05,
              4930068.4
            ],
            [
              482047.77,
              4930027.44
            ]
          ],
          [
            [
              482047.77,
              4930027.44
            ],
            [
              482006.43,
              4929986.61
            ]
          ],
          [
            [
              482006.43,
              4929986.61
            ],
            [
              481965.02,
              4929945.89
            ]
          ],
          [
            [
              481965.02,
              4929945.89
            ],
            [
              481923.54,
              4929905.26
            ]
          ],
          [
            [
              481923.54,
              4929905.26
            ],
            [
              481882.01,
              4929864.73
            ]
          ],
          [
            [
              481882.01,
              4929864.73
            ],
            [
              481840.41,
              4929824.34
            ]
          ],
          [
            [
              481840.41,
              4929824.34
            ],
            [
              481798.73,
              4929784.08
            ]
          ],
          [
            [
              481798.73,
              4929784.08
            ],
            [
              481756.98,
              4929743.93
            ]
          ],
          [
            [
              481756.98,
              4929743.93
            ],
            [
              481715.14,
              4929703.89
            ]
          ],
          [
            [
              481715.14,
              4929703.89
            ],
            [
              481673.24,
              4929663.93
            ]
          ],
          [
            [
              481673.24,
              4929663.93
            ],
            [
              481631.27,
              4929624.03
            ]
          ],
          [
            [
              481631.27,
              4929624.03
            ],
            [
              481589.25,
              4929584.22
            ]
          ],
          [
            [
              481589.25,
              4929584.22
            ],
            [
              481547.17,
              4929544.55
            ]
          ],
          [
            [
              481547.17,
              4929544.55
            ],
            [
              481505.02,
              4929505.06
            ]
          ],
          [
            [
              481505.02,
              4929505.06
            ],
            [
              481462.75,
              4929465.67
            ]
          ],
          [
            [
              481462.75,
              4929465.67
            ],
            [
              481420.39,
              4929426.42
            ]
          ],
          [
            [
              481420.39,
              4929426.42
            ],
            [
              481377.93,
              4929387.3
            ]
          ],
          [
            [
              481377.93,
              4929387.3
            ],
            [
              481335.37,
              4929348.3
            ]
          ],
          [
            [
              481335.37,
              4929348.3
            ],
            [
              481292.71,
              4929309.41
            ]
          ],
          [
            [
              481292.71,
              4929309.41
            ],
            [
              481249.95,
              4929270.66
            ]
          ],
          [
            [
              481249.95,
              4929270.66
            ],
            [
              481207.08,
              4929232.08
            ]
          ],
          [
            [
              481207.08,
              4929232.08
            ],
            [
              481164.1,
              4929193.75
            ]
          ],
          [
            [
              481164.1,
              4929193.75
            ],
            [
              481120.94,
              4929155.53
            ]
          ],
          [
            [
              481120.94,
              4929155.53
            ],
            [
              481077.67,
              4929117.54
            ]
          ],
          [
            [
              481077.67,
              4929117.54
            ],
            [
              481034.22,
              4929079.74
            ]
          ],
          [
            [
              481034.22,
              4929079.74
            ],
            [
              480990.61,
              4929042.15
            ]
          ],
          [
            [
              480990.61,
              4929042.15
            ],
            [
              480946.83,
              4929004.77
            ]
          ],
          [
            [
              480946.83,
              4929004.77
            ],
            [
              480902.87,
              4928967.61
            ]
          ],
          [
            [
              480902.87,
              4928967.61
            ],
            [
              480858.71,
              4928930.64
            ]
          ],
          [
            [
              480858.71,
              4928930.64
            ],
            [
              480814.37,
              4928893.86
            ]
          ],
          [
            [
              480814.37,
              4928893.86
            ],
            [
              480769.85,
              4928857.36
            ]
          ],
          [
            [
              480769.85,
              4928857.36
            ],
            [
              480725.13,
              4928821.24
            ]
          ],
          [
            [
              480725.13,
              4928821.24
            ],
            [
              480680.16,
              4928785.52
            ]
          ],
          [
            [
              480680.16,
              4928785.52
            ],
            [
              480634.9,
              4928750.17
            ]
          ],
          [
            [
              480634.9,
              4928750.17
            ],
            [
              480589.34,
              4928715.21
            ]
          ],
          [
            [
              480589.34,
              4928715.21
            ],
            [
              480543.48,
              4928680.69
            ]
          ],
          [
            [
              480543.48,
              4928680.69
            ],
            [
              480497.32,
              4928646.7
            ]
          ],
          [
            [
              480497.32,
              4928646.7
            ],
            [
              480450.79,
              4928613.15
            ]
          ],
          [
            [
              480450.79,
              4928613.15
            ],
            [
              480403.93,
              4928580.14
            ]
          ],
          [
            [
              480403.93,
              4928580.14
            ],
            [
              480356.67,
              4928547.57
            ]
          ],
          [
            [
              480356.67,
              4928547.57
            ],
            [
              480309.07,
              4928515.56
            ]
          ],
          [
            [
              480309.07,
              4928515.56
            ],
            [
              480261.12,
              4928484.19
            ]
          ],
          [
            [
              480261.12,
              4928484.19
            ],
            [
              480212.78,
              4928453.48
            ]
          ],
          [
            [
              480212.78,
              4928453.48
            ],
            [
              480164.01,
              4928423.42
            ]
          ]
        ]
      },
      "properties": {
        "type": "full_route",
        "total_length_m": 6695.87,
        "total_segments": 119,
        "success": false,
        "average_slope_percent": 68.3,
        "max_slope_percent": 6911.88,
        "generation_timestamp": "2025-11-21T15:26:29.196717",
        "model_path": "/opt/agrs/Projects/US_PIPELINE/PIRL/outputs/production_500k_cpu_20251121_152041/eval/best_model.zip",
        "crs": "EPSG:32613"
      }
    },
    {
      "type": "Feature",
      "geometry": {
        "type": "LineString",
        "coordinates": [
          [
            484838.28,
            4933184.19
          ],
          [
            484804.49,
            4933137.38
          ]
        ]
      },
      "properties": {
        "segment_id": 1,
        "step": 1,
        "length_m": 57.73,
        "cumulative_distance_m": 57.73,
        "elevation_start_m": 1207.98,
        "elevation_end_m": 1210.35,
        "max_slope_percent": 24.39,
        "reward": 6.12,
        "total_reward_cumulative": 6.12,
        "distance_to_aoi_boundary_m": 119.99
      }
    },
    {
      "type": "Feature",
      "geometry": {
        "type": "LineString",
        "coordinates": [
          [
            484804.49,
            4933137.38
          ],
          [
            484776.61,
            4933099.43
          ]
        ]
      },
      "properties": {
        "segment_id": 2,
        "step": 2,
        "length_m": 47.1,
        "cumulative_distance_m": 104.82,
        "elevation_start_m": 1210.35,
        "elevation_end_m": 1219.97,
        "max_slope_percent": 23.64,
        "reward": 13.63,
        "total_reward_cumulative": 19.75,
        "distance_to_aoi_boundary_m": 147.79
      }
    },
    {
      "type": "Feature",
      "geometry": {
        "type": "LineString",
        "coordinates": [
          [
            484776.61,
            4933099.43
          ],
          [
            484747.93,
            4933060.98
          ]
        ]
      },
      "properties": {
        "segment_id": 3,
        "step": 3,
        "length_m": 47.96,
        "cumulative_distance_m": 152.78,
        "elevation_start_m": 1219.97,
        "elevation_end_m": 1217.91,
        "max_slope_percent": 20.06,
        "reward": 49.36,
        "total_reward_cumulative": 69.11,
        "distance_to_aoi_boundary_m": 176.37
      }
    },
    {
      "type": "Feature",
      "geometry": {
        "type": "LineString",
        "coordinates": [
          [
            484747.93,
            4933060.98
          ],
          [
            484716.53,
            4933019.48
          ]
        ]
      },
      "properties": {
        "segment_id": 4,
        "step": 4,
        "length_m": 52.05,
        "cumulative_distance_m": 204.83,
        "elevation_start_m": 1217.91,
        "elevation_end_m": 1214.07,
        "max_slope_percent": 24.42,
        "reward": 5.79,
        "total_reward_cumulative": 74.9,
        "distance_to_aoi_boundary_m": 207.68
      }
    },
    {
      "type": "Feature",
      "geometry": {
        "type": "LineString",
        "coordinates": [
          [
            484716.53,
            4933019.48
          ],
          [
            484687.96,
            4932982.07
          ]
        ]
      },
      "properties": {
        "segment_id": 5,
        "step": 5,
        "length_m": 47.07,
        "cumulative_distance_m": 251.9,
        "elevation_start_m": 1214.07,
        "elevation_end_m": 1222.68,
        "max_slope_percent": 24.94,
        "reward": 0.58,
        "total_reward_cumulative": 75.48,
        "distance_to_aoi_boundary_m": 236.16
      }
    },
    {
      "type": "Feature",
      "geometry": {
        "type": "LineString",
        "coordinates": [
          [
            484687.96,
            4932982.07
          ],
          [
            484659.61,
            4932945.24
          ]
        ]
      },
      "properties": {
        "segment_id": 6,
        "step": 6,
        "length_m": 46.48,
        "cumulative_distance_m": 298.38,
        "elevation_start_m": 1222.68,
        "elevation_end_m": 1229.97,
        "max_slope_percent": 25.11,
        "reward": -2.2,
        "total_reward_cumulative": 73.28,
        "distance_to_aoi_boundary_m": 264.42
      }
    },
    {
      "type": "Feature",
      "geometry": {
        "type": "LineString",
        "coordinates": [
          [
            484659.61,
            4932945.24
          ],
          [
            484631.27,
            4932908.64
          ]
        ]
      },
      "properties": {
        "segment_id": 7,
        "step": 7,
        "length_m": 46.28,
        "cumulative_distance_m": 344.66,
        "elevation_start_m": 1229.97,
        "elevation_end_m": 1230.76,
        "max_slope_percent": 18.09,
        "reward": 53.82,
        "total_reward_cumulative": 127.1,
        "distance_to_aoi_boundary_m": 292.68
      }
    },
    {
      "type": "Feature",
      "geometry": {
        "type": "LineString",
        "coordinates": [
          [
            484631.27,
            4932908.64
          ],
          [
            484597.83,
            4932865.86
          ]
        ]
      },
      "properties": {
        "segment_id": 8,
        "step": 8,
        "length_m": 54.31,
        "cumulative_distance_m": 398.97,
        "elevation_start_m": 1230.76,
        "elevation_end_m": 1230.03,
        "max_slope_percent": 4.83,
        "reward": 100.0,
        "total_reward_cumulative": 227.1,
        "distance_to_aoi_boundary_m": 326.02
      }
    },
    {
      "type": "Feature",
      "geometry": {
        "type": "LineString",
        "coordinates": [
          [
            484597.83,
            4932865.86
          ],
          [
            484562.01,
            4932820.68
          ]
        ]
      },
      "properties": {
        "segment_id": 9,
        "step": 9,
        "length_m": 57.65,
        "cumulative_distance_m": 456.63,
        "elevation_start_m": 1230.03,
        "elevation_end_m": 1230.69,
        "max_slope_percent": 5.15,
        "reward": 99.4,
        "total_reward_cumulative": 326.49,
        "distance_to_aoi_boundary_m": 361.74
      }
    },
    {
      "type": "Feature",
      "geometry": {
        "type": "LineString",
        "coordinates": [
          [
            484562.01,
            4932820.68
          ],
          [
            484525.92,
            4932775.71
          ]
        ]
      },
      "properties": {
        "segment_id": 10,
        "step": 10,
        "length_m": 57.67,
        "cumulative_distance_m": 514.29,
        "elevation_start_m": 1230.69,
        "elevation_end_m": 1232.88,
        "max_slope_percent": 5.96,
        "reward": 96.18,
        "total_reward_cumulative": 422.67,
        "distance_to_aoi_boundary_m": 397.73
      }
    },
    {
      "type": "Feature",
      "geometry": {
        "type": "LineString",
        "coordinates": [
          [
            484525.92,
            4932775.71
          ],
          [
            484489.6,
            4932730.89
          ]
        ]
      },
      "properties": {
        "segment_id": 11,
        "step": 11,
        "length_m": 57.69,
        "cumulative_distance_m": 571.98,
        "elevation_start_m": 1232.88,
        "elevation_end_m": 1228.78,
        "max_slope_percent": 15.87,
        "reward": 58.26,
        "total_reward_cumulative": 480.93,
        "distance_to_aoi_boundary_m": 433.94
      }
    },
    {
      "type": "Feature",
      "geometry": {
        "type": "LineString",
        "coordinates": [
          [
            484489.6,
            4932730.89
          ],
          [
            484453.74,
            4932686.76
          ]
        ]
      },
      "properties": {
        "segment_id": 12,
        "step": 12,
        "length_m": 56.86,
        "cumulative_distance_m": 628.83,
        "elevation_start_m": 1228.78,
        "elevation_end_m": 1215.5,
        "max_slope_percent": 27.16,
        "reward": -43.16,
        "total_reward_cumulative": 437.77,
        "distance_to_aoi_boundary_m": 469.7
      }
    },
    {
      "type": "Feature",
      "geometry": {
        "type": "LineString",
        "coordinates": [
          [
            484453.74,
            4932686.76
          ],
          [
            484426.07,
            4932652.62
          ]
        ]
      },
      "properties": {
        "segment_id": 13,
        "step": 13,
        "length_m": 43.95,
        "cumulative_distance_m": 672.78,
        "elevation_start_m": 1215.5,
        "elevation_end_m": 1207.63,
        "max_slope_percent": 26.9,
        "reward": -37.97,
        "total_reward_cumulative": 399.8,
        "distance_to_aoi_boundary_m": 497.29
      }
    },
    {
      "type": "Feature",
      "geometry": {
        "type": "LineString",
        "coordinates": [
          [
            484426.07,
            4932652.62
          ],
          [
            484398.24,
            4932618.22
          ]
        ]
      },
      "properties": {
        "segment_id": 14,
        "step": 14,
        "length_m": 44.25,
        "cumulative_distance_m": 717.03,
        "elevation_start_m": 1207.63,
        "elevation_end_m": 1202.29,
        "max_slope_percent": 26.6,
        "reward": -32.05,
        "total_reward_cumulative": 367.75,
        "distance_to_aoi_boundary_m": 525.04
      }
    },
    {
      "type": "Feature",
      "geometry": {
        "type": "LineString",
        "coordinates": [
          [
            484398.24,
            4932618.22
          ],
          [
            484370.21,
            4932583.55
          ]
        ]
      },
      "properties": {
        "segment_id": 15,
        "step": 15,
        "length_m": 44.59,
        "cumulative_distance_m": 761.62,
        "elevation_start_m": 1202.29,
        "elevation_end_m": 1211.64,
        "max_slope_percent": 26.95,
        "reward": -39.04,
        "total_reward_cumulative": 328.7,
        "distance_to_aoi_boundary_m": 552.98
      }
    },
    {
      "type": "Feature",
      "geometry": {
        "type": "LineString",
        "coordinates": [
          [
            484370.21,
            4932583.55
          ],
          [
            484342.45,
            4932549.17
          ]
        ]
      },
      "properties": {
        "segment_id": 16,
        "step": 16,
        "length_m": 44.18,
        "cumulative_distance_m": 805.8,
        "elevation_start_m": 1211.64,
        "elevation_end_m": 1215.23,
        "max_slope_percent": 11.83,
        "reward": 72.67,
        "total_reward_cumulative": 401.37,
        "distance_to_aoi_boundary_m": 580.66
      }
    },
    {
      "type": "Feature",
      "geometry": {
        "type": "LineString",
        "coordinates": [
          [
            484342.45,
            4932549.17
          ],
          [
            484305.98,
            4932504.34
          ]
        ]
      },
      "properties": {
        "segment_id": 17,
        "step": 17,
        "length_m": 57.79,
        "cumulative_distance_m": 863.59,
        "elevation_start_m": 1215.23,
        "elevation_end_m": 1223.48,
        "max_slope_percent": 17.92,
        "reward": 54.17,
        "total_reward_cumulative": 455.54,
        "distance_to_aoi_boundary_m": 617.03
      }
    },
    {
      "type": "Feature",
      "geometry": {
        "type": "LineString",
        "coordinates": [
          [
            484305.98,
            4932504.34
          ],
          [
            484271.5,
            4932462.1
          ]
        ]
      },
      "properties": {
        "segment_id": 18,
        "step": 18,
        "length_m": 54.53,
        "cumulative_distance_m": 918.12,
        "elevation_start_m": 1223.48,
        "elevation_end_m": 1219.84,
        "max_slope_percent": 14.63,
        "reward": 61.48,
        "total_reward_cumulative": 517.03,
        "distance_to_aoi_boundary_m": 651.42
      }
    },
    {
      "type": "Feature",
      "geometry": {
        "type": "LineString",
        "coordinates": [
          [
            484271.5,
            4932462.1
          ],
          [
            484234.81,
            4932417.37
          ]
        ]
      },
      "properties": {
        "segment_id": 19,
        "step": 19,
        "length_m": 57.85,
        "cumulative_distance_m": 975.97,
        "elevation_start_m": 1219.84,
        "elevation_end_m": 1215.57,
        "max_slope_percent": 13.68,
        "reward": 65.28,
        "total_reward_cumulative": 582.31,
        "distance_to_aoi_boundary_m": 688.0
      }
    },
    {
      "type": "Feature",
      "geometry": {
        "type": "LineString",
        "coordinates": [
          [
            484234.81,
            4932417.37
          ],
          [
            484198.02,
            4932372.74
          ]
        ]
      },
      "properties": {
        "segment_id": 20,
        "step": 20,
        "length_m": 57.84,
        "cumulative_distance_m": 1033.81,
        "elevation_start_m": 1215.57,
        "elevation_end_m": 1209.05,
        "max_slope_percent": 13.43,
        "reward": 66.3,
        "total_reward_cumulative": 648.61,
        "distance_to_aoi_boundary_m": 724.69
      }
    },
    {
      "type": "Feature",
      "geometry": {
        "type": "LineString",
        "coordinates": [
          [
            484198.02,
            4932372.74
          ],
          [
            484161.13,
            4932328.19
          ]
        ]
      },
      "properties": {
        "segment_id": 21,
        "step": 21,
        "length_m": 57.84,
        "cumulative_distance_m": 1091.66,
        "elevation_start_m": 1209.05,
        "elevation_end_m": 1208.99,
        "max_slope_percent": 7.91,
        "reward": 88.36,
        "total_reward_cumulative": 736.96,
        "distance_to_aoi_boundary_m": 761.48
      }
    },
    {
      "type": "Feature",
      "geometry": {
        "type": "LineString",
        "coordinates": [
          [
            484161.13,
            4932328.19
          ],
          [
            484124.14,
            4932283.83
          ]
        ]
      },
      "properties": {
        "segment_id": 22,
        "step": 22,
        "length_m": 57.75,
        "cumulative_distance_m": 1149.41,
        "elevation_start_m": 1208.99,
        "elevation_end_m": 1209.29,
        "max_slope_percent": 6.94,
        "reward": 92.23,
        "total_reward_cumulative": 829.19,
        "distance_to_aoi_boundary_m": 798.36
      }
    },
    {
      "type": "Feature",
      "geometry": {
        "type": "LineString",
        "coordinates": [
          [
            484124.14,
            4932283.83
          ],
          [
            484087.01,
            4932239.6
          ]
        ]
      },
      "properties": {
        "segment_id": 23,
        "step": 23,
        "length_m": 57.75,
        "cumulative_distance_m": 1207.16,
        "elevation_start_m": 1209.29,
        "elevation_end_m": 1212.66,
        "max_slope_percent": 9.63,
        "reward": 81.48,
        "total_reward_cumulative": 910.67,
        "distance_to_aoi_boundary_m": 835.39
      }
    },
    {
      "type": "Feature",
      "geometry": {
        "type": "LineString",
        "coordinates": [
          [
            484087.01,
            4932239.6
          ],
          [
            484049.74,
            4932195.42
          ]
        ]
      },
      "properties": {
        "segment_id": 24,
        "step": 24,
        "length_m": 57.8,
        "cumulative_distance_m": 1264.96,
        "elevation_start_m": 1212.66,
        "elevation_end_m": 1215.34,
        "max_slope_percent": 9.34,
        "reward": 82.63,
        "total_reward_cumulative": 993.3,
        "distance_to_aoi_boundary_m": 872.55
      }
    },
    {
      "type": "Feature",
      "geometry": {
        "type": "LineString",
        "coordinates": [
          [
            484049.74,
            4932195.42
          ],
          [
            484012.38,
            4932151.31
          ]
        ]
      },
      "properties": {
        "segment_id": 25,
        "step": 25,
        "length_m": 57.81,
        "cumulative_distance_m": 1322.77,
        "elevation_start_m": 1215.34,
        "elevation_end_m": 1212.99,
        "max_slope_percent": 6.5,
        "reward": 93.99,
        "total_reward_cumulative": 1087.29,
        "distance_to_aoi_boundary_m": 909.82
      }
    },
    {
      "type": "Feature",
      "geometry": {
        "type": "LineString",
        "coordinates": [
          [
            484012.38,
            4932151.31
          ],
          [
            483974.91,
            4932107.34
          ]
        ]
      },
      "properties": {
        "segment_id": 26,
        "step": 26,
        "length_m": 57.77,
        "cumulative_distance_m": 1380.53,
        "elevation_start_m": 1212.99,
        "elevation_end_m": 1210.28,
        "max_slope_percent": 6.75,
        "reward": 93.01,
        "total_reward_cumulative": 1180.3,
        "distance_to_aoi_boundary_m": 947.18
      }
    },
    {
      "type": "Feature",
      "geometry": {
        "type": "LineString",
        "coordinates": [
          [
            483974.91,
            4932107.34
          ],
          [
            483937.34,
            4932063.44
          ]
        ]
      },
      "properties": {
        "segment_id": 27,
        "step": 27,
        "length_m": 57.78,
        "cumulative_distance_m": 1438.32,
        "elevation_start_m": 1210.28,
        "elevation_end_m": 1207.05,
        "max_slope_percent": 10.11,
        "reward": 79.58,
        "total_reward_cumulative": 1259.88,
        "distance_to_aoi_boundary_m": 984.65
      }
    },
    {
      "type": "Feature",
      "geometry": {
        "type": "LineString",
        "coordinates": [
          [
            483937.34,
            4932063.44
          ],
          [
            483899.65,
            4932019.55
          ]
        ]
      },
      "properties": {
        "segment_id": 28,
        "step": 28,
        "length_m": 57.85,
        "cumulative_distance_m": 1496.17,
        "elevation_start_m": 1207.05,
        "elevation_end_m": 1203.21,
        "max_slope_percent": 10.11,
        "reward": 79.58,
        "total_reward_cumulative": 1339.46,
        "distance_to_aoi_boundary_m": 1022.24
      }
    },
    {
      "type": "Feature",
      "geometry": {
        "type": "LineString",
        "coordinates": [
          [
            483899.65,
            4932019.55
          ],
          [
            483861.9,
            4931975.71
          ]
        ]
      },
      "properties": {
        "segment_id": 29,
        "step": 29,
        "length_m": 57.86,
        "cumulative_distance_m": 1554.02,
        "elevation_start_m": 1203.21,
        "elevation_end_m": 1200.79,
        "max_slope_percent": 5.7,
        "reward": 97.2,
        "total_reward_cumulative": 1436.66,
        "distance_to_aoi_boundary_m": 1059.89
      }
    },
    {
      "type": "Feature",
      "geometry": {
        "type": "LineString",
        "coordinates": [
          [
            483861.9,
            4931975.71
          ],
          [
            483824.07,
            4931932.01
          ]
        ]
      },
      "properties": {
        "segment_id": 30,
        "step": 30,
        "length_m": 57.8,
        "cumulative_distance_m": 1611.82,
        "elevation_start_m": 1200.79,
        "elevation_end_m": 1198.61,
        "max_slope_percent": 4.11,
        "reward": 100.0,
        "total_reward_cumulative": 1536.66,
        "distance_to_aoi_boundary_m": 1097.61
      }
    },
    {
      "type": "Feature",
      "geometry": {
        "type": "LineString",
        "coordinates": [
          [
            483824.07,
            4931932.01
          ],
          [
            483786.13,
            4931888.43
          ]
        ]
      },
      "properties": {
        "segment_id": 31,
        "step": 31,
        "length_m": 57.78,
        "cumulative_distance_m": 1669.6,
        "elevation_start_m": 1198.61,
        "elevation_end_m": 1196.43,
        "max_slope_percent": 4.38,
        "reward": 100.0,
        "total_reward_cumulative": 1636.66,
        "distance_to_aoi_boundary_m": 1135.45
      }
    },
    {
      "type": "Feature",
      "geometry": {
        "type": "LineString",
        "coordinates": [
          [
            483786.13,
            4931888.43
          ],
          [
            483748.06,
            4931844.94
          ]
        ]
      },
      "properties": {
        "segment_id": 32,
        "step": 32,
        "length_m": 57.8,
        "cumulative_distance_m": 1727.4,
        "elevation_start_m": 1196.43,
        "elevation_end_m": 1198.24,
        "max_slope_percent": 7.17,
        "reward": 91.3,
        "total_reward_cumulative": 1727.96,
        "distance_to_aoi_boundary_m": 1173.42
      }
    },
    {
      "type": "Feature",
      "geometry": {
        "type": "LineString",
        "coordinates": [
          [
            483748.06,
            4931844.94
          ],
          [
            483709.89,
            4931801.46
          ]
        ]
      },
      "properties": {
        "segment_id": 33,
        "step": 33,
        "length_m": 57.86,
        "cumulative_distance_m": 1785.26,
        "elevation_start_m": 1198.24,
        "elevation_end_m": 1201.94,
        "max_slope_percent": 11.93,
        "reward": 72.26,
        "total_reward_cumulative": 1800.22,
        "distance_to_aoi_boundary_m": 1211.49
      }
    },
    {
      "type": "Feature",
      "geometry": {
        "type": "LineString",
        "coordinates": [
          [
            483709.89,
            4931801.46
          ],
          [
            483671.64,
            4931757.92
          ]
        ]
      },
      "properties": {
        "segment_id": 34,
        "step": 34,
        "length_m": 57.95,
        "cumulative_distance_m": 1843.21,
        "elevation_start_m": 1201.94,
        "elevation_end_m": 1203.73,
        "max_slope_percent": 10.71,
        "reward": 77.16,
        "total_reward_cumulative": 1877.38,
        "distance_to_aoi_boundary_m": 1249.64
      }
    },
    {
      "type": "Feature",
      "geometry": {
        "type": "LineString",
        "coordinates": [
          [
            483671.64,
            4931757.92
          ],
          [
            483633.36,
            4931714.43
          ]
        ]
      },
      "properties": {
        "segment_id": 35,
        "step": 35,
        "length_m": 57.94,
        "cumulative_distance_m": 1901.15,
        "elevation_start_m": 1203.73,
        "elevation_end_m": 1200.46,
        "max_slope_percent": 9.39,
        "reward": 82.43,
        "total_reward_cumulative": 1959.8,
        "distance_to_aoi_boundary_m": 1287.82
      }
    },
    {
      "type": "Feature",
      "geometry": {
        "type": "LineString",
        "coordinates": [
          [
            483633.36,
            4931714.43
          ],
          [
            483595.01,
            4931671.0
          ]
        ]
      },
      "properties": {
        "segment_id": 36,
        "step": 36,
        "length_m": 57.93,
        "cumulative_distance_m": 1959.09,
        "elevation_start_m": 1200.46,
        "elevation_end_m": 1200.96,
        "max_slope_percent": 8.47,
        "reward": 86.11,
        "total_reward_cumulative": 2045.92,
        "distance_to_aoi_boundary_m": 1326.06
      }
    },
    {
      "type": "Feature",
      "geometry": {
        "type": "LineString",
        "coordinates": [
          [
            483595.01,
            4931671.0
          ],
          [
            483556.6,
            4931627.64
          ]
        ]
      },
      "properties": {
        "segment_id": 37,
        "step": 37,
        "length_m": 57.93,
        "cumulative_distance_m": 2017.02,
        "elevation_start_m": 1200.96,
        "elevation_end_m": 1194.66,
        "max_slope_percent": 13.28,
        "reward": 66.89,
        "total_reward_cumulative": 2112.8,
        "distance_to_aoi_boundary_m": 1364.38
      }
    },
    {
      "type": "Feature",
      "geometry": {
        "type": "LineString",
        "coordinates": [
          [
            483556.6,
            4931627.64
          ],
          [
            483518.1,
            4931584.22
          ]
        ]
      },
      "properties": {
        "segment_id": 38,
        "step": 38,
        "length_m": 58.03,
        "cumulative_distance_m": 2075.05,
        "elevation_start_m": 1194.66,
        "elevation_end_m": 1192.09,
        "max_slope_percent": 8.21,
        "reward": 87.18,
        "total_reward_cumulative": 2199.98,
        "distance_to_aoi_boundary_m": 1402.77
      }
    },
    {
      "type": "Feature",
      "geometry": {
        "type": "LineString",
        "coordinates": [
          [
            483518.1,
            4931584.22
          ],
          [
            483479.56,
            4931540.93
          ]
        ]
      },
      "properties": {
        "segment_id": 39,
        "step": 39,
        "length_m": 57.96,
        "cumulative_distance_m": 2133.0,
        "elevation_start_m": 1192.09,
        "elevation_end_m": 1190.73,
        "max_slope_percent": 7.46,
        "reward": 90.18,
        "total_reward_cumulative": 2290.16,
        "distance_to_aoi_boundary_m": 1441.21
      }
    },
    {
      "type": "Feature",
      "geometry": {
        "type": "LineString",
        "coordinates": [
          [
            483479.56,
            4931540.93
          ],
          [
            483440.93,
            4931497.72
          ]
        ]
      },
      "properties": {
        "segment_id": 40,
        "step": 40,
        "length_m": 57.96,
        "cumulative_distance_m": 2190.97,
        "elevation_start_m": 1190.73,
        "elevation_end_m": 1187.94,
        "max_slope_percent": 8.17,
        "reward": 87.32,
        "total_reward_cumulative": 2377.48,
        "distance_to_aoi_boundary_m": 1479.75
      }
    },
    {
      "type": "Feature",
      "geometry": {
        "type": "LineString",
        "coordinates": [
          [
            483440.93,
            4931497.72
          ],
          [
            483402.19,
            4931454.57
          ]
        ]
      },
      "properties": {
        "segment_id": 41,
        "step": 41,
        "length_m": 57.99,
        "cumulative_distance_m": 2248.96,
        "elevation_start_m": 1187.94,
        "elevation_end_m": 1185.25,
        "max_slope_percent": 8.17,
        "reward": 87.32,
        "total_reward_cumulative": 2464.8,
        "distance_to_aoi_boundary_m": 1518.38
      }
    },
    {
      "type": "Feature",
      "geometry": {
        "type": "LineString",
        "coordinates": [
          [
            483402.19,
            4931454.57
          ],
          [
            483363.36,
            4931411.47
          ]
        ]
      },
      "properties": {
        "segment_id": 42,
        "step": 42,
        "length_m": 58.01,
        "cumulative_distance_m": 2306.96,
        "elevation_start_m": 1185.25,
        "elevation_end_m": 1183.24,
        "max_slope_percent": 4.78,
        "reward": 100.0,
        "total_reward_cumulative": 2564.8,
        "distance_to_aoi_boundary_m": 1557.11
      }
    },
    {
      "type": "Feature",
      "geometry": {
        "type": "LineString",
        "coordinates": [
          [
            483363.36,
            4931411.47
          ],
          [
            483324.44,
            4931368.51
          ]
        ]
      },
      "properties": {
        "segment_id": 43,
        "step": 43,
        "length_m": 57.97,
        "cumulative_distance_m": 2364.94,
        "elevation_start_m": 1183.24,
        "elevation_end_m": 1182.34,
        "max_slope_percent": 3.89,
        "reward": 100.0,
        "total_reward_cumulative": 2664.8,
        "distance_to_aoi_boundary_m": 1595.94
      }
    },
    {
      "type": "Feature",
      "geometry": {
        "type": "LineString",
        "coordinates": [
          [
            483324.44,
            4931368.51
          ],
          [
            483285.38,
            4931325.66
          ]
        ]
      },
      "properties": {
        "segment_id": 44,
        "step": 44,
        "length_m": 57.98,
        "cumulative_distance_m": 2422.91,
        "elevation_start_m": 1182.34,
        "elevation_end_m": 1170.58,
        "max_slope_percent": 42.01,
        "reward": -550.41,
        "total_reward_cumulative": 2114.39,
        "distance_to_aoi_boundary_m": 1634.89
      }
    },
    {
      "type": "Feature",
      "geometry": {
        "type": "LineString",
        "coordinates": [
          [
            483285.38,
            4931325.66
          ],
          [
            483265.8,
            4931303.85
          ]
        ]
      },
      "properties": {
        "segment_id": 45,
        "step": 45,
        "length_m": 29.31,
        "cumulative_distance_m": 2452.22,
        "elevation_start_m": 1170.58,
        "elevation_end_m": 1171.29,
        "max_slope_percent": 16.29,
        "reward": 57.43,
        "total_reward_cumulative": 2171.82,
        "distance_to_aoi_boundary_m": 1654.42
      }
    },
    {
      "type": "Feature",
      "geometry": {
        "type": "LineString",
        "coordinates": [
          [
            483265.8,
            4931303.85
          ],
          [
            483227.9,
            4931261.69
          ]
        ]
      },
      "properties": {
        "segment_id": 46,
        "step": 46,
        "length_m": 56.7,
        "cumulative_distance_m": 2508.92,
        "elevation_start_m": 1171.29,
        "elevation_end_m": 1172.08,
        "max_slope_percent": 8.32,
        "reward": 86.73,
        "total_reward_cumulative": 2258.54,
        "distance_to_aoi_boundary_m": 1692.23
      }
    },
    {
      "type": "Feature",
      "geometry": {
        "type": "LineString",
        "coordinates": [
          [
            483227.9,
            4931261.69
          ],
          [
            483188.92,
            4931218.62
          ]
        ]
      },
      "properties": {
        "segment_id": 47,
        "step": 47,
        "length_m": 58.08,
        "cumulative_distance_m": 2567.01,
        "elevation_start_m": 1172.08,
        "elevation_end_m": 1171.04,
        "max_slope_percent": 5.68,
        "reward": 97.3,
        "total_reward_cumulative": 2355.84,
        "distance_to_aoi_boundary_m": 1731.1
      }
    },
    {
      "type": "Feature",
      "geometry": {
        "type": "LineString",
        "coordinates": [
          [
            483188.92,
            4931218.62
          ],
          [
            483149.8,
            4931175.71
          ]
        ]
      },
      "properties": {
        "segment_id": 48,
        "step": 48,
        "length_m": 58.06,
        "cumulative_distance_m": 2625.07,
        "elevation_start_m": 1171.04,
        "elevation_end_m": 1173.45,
        "max_slope_percent": 23.78,
        "reward": 12.15,
        "total_reward_cumulative": 2367.99,
        "distance_to_aoi_boundary_m": 1770.12
      }
    },
    {
      "type": "Feature",
      "geometry": {
        "type": "LineString",
        "coordinates": [
          [
            483149.8,
            4931175.71
          ],
          [
            483117.44,
            4931140.1
          ]
        ]
      },
      "properties": {
        "segment_id": 49,
        "step": 49,
        "length_m": 48.12,
        "cumulative_distance_m": 2673.19,
        "elevation_start_m": 1173.45,
        "elevation_end_m": 1173.32,
        "max_slope_percent": 0.54,
        "reward": 100.0,
        "total_reward_cumulative": 2467.99,
        "distance_to_aoi_boundary_m": 1802.4
      }
    },
    {
      "type": "Feature",
      "geometry": {
        "type": "LineString",
        "coordinates": [
          [
            483117.44,
            4931140.1
          ],
          [
            483078.19,
            4931097.37
          ]
        ]
      },
      "properties": {
        "segment_id": 50,
        "step": 50,
        "length_m": 58.02,
        "cumulative_distance_m": 2731.21,
        "elevation_start_m": 1173.32,
        "elevation_end_m": 1175.68,
        "max_slope_percent": 13.54,
        "reward": 65.84,
        "total_reward_cumulative": 2533.83,
        "distance_to_aoi_boundary_m": 1841.55
      }
    },
    {
      "type": "Feature",
      "geometry": {
        "type": "LineString",
        "coordinates": [
          [
            483078.19,
            4931097.37
          ],
          [
            483038.74,
            4931054.52
          ]
        ]
      },
      "properties": {
        "segment_id": 51,
        "step": 51,
        "length_m": 58.25,
        "cumulative_distance_m": 2789.46,
        "elevation_start_m": 1175.68,
        "elevation_end_m": 1178.42,
        "max_slope_percent": 13.81,
        "reward": 64.77,
        "total_reward_cumulative": 2598.6,
        "distance_to_aoi_boundary_m": 1880.9
      }
    },
    {
      "type": "Feature",
      "geometry": {
        "type": "LineString",
        "coordinates": [
          [
            483038.74,
            4931054.52
          ],
          [
            482999.22,
            4931011.69
          ]
        ]
      },
      "properties": {
        "segment_id": 52,
        "step": 52,
        "length_m": 58.27,
        "cumulative_distance_m": 2847.73,
        "elevation_start_m": 1178.42,
        "elevation_end_m": 1178.13,
        "max_slope_percent": 7.09,
        "reward": 91.65,
        "total_reward_cumulative": 2690.25,
        "distance_to_aoi_boundary_m": 1920.33
      }
    },
    {
      "type": "Feature",
      "geometry": {
        "type": "LineString",
        "coordinates": [
          [
            482999.22,
            4931011.69
          ],
          [
            482959.62,
            4930969.06
          ]
        ]
      },
      "properties": {
        "segment_id": 53,
        "step": 53,
        "length_m": 58.19,
        "cumulative_distance_m": 2905.92,
        "elevation_start_m": 1178.13,
        "elevation_end_m": 1180.12,
        "max_slope_percent": 5.06,
        "reward": 99.76,
        "total_reward_cumulative": 2790.01,
        "distance_to_aoi_boundary_m": 1959.83
      }
    },
    {
      "type": "Feature",
      "geometry": {
        "type": "LineString",
        "coordinates": [
          [
            482959.62,
            4930969.06
          ],
          [
            482919.87,
            4930926.57
          ]
        ]
      },
      "properties": {
        "segment_id": 54,
        "step": 54,
        "length_m": 58.18,
        "cumulative_distance_m": 2964.1,
        "elevation_start_m": 1180.12,
        "elevation_end_m": 1175.39,
        "max_slope_percent": 20.91,
        "reward": 40.86,
        "total_reward_cumulative": 2830.86,
        "distance_to_aoi_boundary_m": 1999.48
      }
    },
    {
      "type": "Feature",
      "geometry": {
        "type": "LineString",
        "coordinates": [
          [
            482919.87,
            4930926.57
          ],
          [
            482884.7,
            4930888.9
          ]
        ]
      },
      "properties": {
        "segment_id": 55,
        "step": 55,
        "length_m": 51.54,
        "cumulative_distance_m": 3015.64,
        "elevation_start_m": 1175.39,
        "elevation_end_m": 1171.23,
        "max_slope_percent": 20.7,
        "reward": 43.02,
        "total_reward_cumulative": 2873.88,
        "distance_to_aoi_boundary_m": 2034.56
      }
    },
    {
      "type": "Feature",
      "geometry": {
        "type": "LineString",
        "coordinates": [
          [
            482884.7,
            4930888.9
          ],
          [
            482849.37,
            4930851.02
          ]
        ]
      },
      "properties": {
        "segment_id": 56,
        "step": 56,
        "length_m": 51.8,
        "cumulative_distance_m": 3067.44,
        "elevation_start_m": 1171.23,
        "elevation_end_m": 1169.82,
        "max_slope_percent": 11.48,
        "reward": 74.1,
        "total_reward_cumulative": 2947.98,
        "distance_to_aoi_boundary_m": 2069.8
      }
    },
    {
      "type": "Feature",
      "geometry": {
        "type": "LineString",
        "coordinates": [
          [
            482849.37,
            4930851.02
          ],
          [
            482809.48,
            4930808.45
          ]
        ]
      },
      "properties": {
        "segment_id": 57,
        "step": 57,
        "length_m": 58.34,
        "cumulative_distance_m": 3125.78,
        "elevation_start_m": 1169.82,
        "elevation_end_m": 1169.75,
        "max_slope_percent": 0.89,
        "reward": 100.0,
        "total_reward_cumulative": 3047.98,
        "distance_to_aoi_boundary_m": 2109.6
      }
    },
    {
      "type": "Feature",
      "geometry": {
        "type": "LineString",
        "coordinates": [
          [
            482809.48,
            4930808.45
          ],
          [
            482769.45,
            4930766.19
          ]
        ]
      },
      "properties": {
        "segment_id": 58,
        "step": 58,
        "length_m": 58.2,
        "cumulative_distance_m": 3183.99,
        "elevation_start_m": 1169.75,
        "elevation_end_m": 1170.33,
        "max_slope_percent": 4.03,
        "reward": 100.0,
        "total_reward_cumulative": 3147.98,
        "distance_to_aoi_boundary_m": 2149.52
      }
    },
    {
      "type": "Feature",
      "geometry": {
        "type": "LineString",
        "coordinates": [
          [
            482769.45,
            4930766.19
          ],
          [
            482729.21,
            4930724.03
          ]
        ]
      },
      "properties": {
        "segment_id": 59,
        "step": 59,
        "length_m": 58.28,
        "cumulative_distance_m": 3242.27,
        "elevation_start_m": 1170.33,
        "elevation_end_m": 1169.72,
        "max_slope_percent": 8.97,
        "reward": 84.11,
        "total_reward_cumulative": 3232.08,
        "distance_to_aoi_boundary_m": 2189.67
      }
    },
    {
      "type": "Feature",
      "geometry": {
        "type": "LineString",
        "coordinates": [
          [
            482729.21,
            4930724.03
          ],
          [
            482688.81,
            4930681.89
          ]
        ]
      },
      "properties": {
        "segment_id": 60,
        "step": 60,
        "length_m": 58.38,
        "cumulative_distance_m": 3300.65,
        "elevation_start_m": 1169.72,
        "elevation_end_m": 1168.64,
        "max_slope_percent": 8.97,
        "reward": 84.11,
        "total_reward_cumulative": 3316.19,
        "distance_to_aoi_boundary_m": 2229.97
      }
    },
    {
      "type": "Feature",
      "geometry": {
        "type": "LineString",
        "coordinates": [
          [
            482688.81,
            4930681.89
          ],
          [
            482648.29,
            4930639.82
          ]
        ]
      },
      "properties": {
        "segment_id": 61,
        "step": 61,
        "length_m": 58.41,
        "cumulative_distance_m": 3359.05,
        "elevation_start_m": 1168.64,
        "elevation_end_m": 1171.53,
        "max_slope_percent": 14.73,
        "reward": 61.09,
        "total_reward_cumulative": 3377.28,
        "distance_to_aoi_boundary_m": 2270.39
      }
    },
    {
      "type": "Feature",
      "geometry": {
        "type": "LineString",
        "coordinates": [
          [
            482648.29,
            4930639.82
          ],
          [
            482607.68,
            4930597.69
          ]
        ]
      },
      "properties": {
        "segment_id": 62,
        "step": 62,
        "length_m": 58.52,
        "cumulative_distance_m": 3417.57,
        "elevation_start_m": 1171.53,
        "elevation_end_m": 1183.88,
        "max_slope_percent": 29.89,
        "reward": -97.7,
        "total_reward_cumulative": 3279.58,
        "distance_to_aoi_boundary_m": 2310.91
      }
    },
    {
      "type": "Feature",
      "geometry": {
        "type": "LineString",
        "coordinates": [
          [
            482607.68,
            4930597.69
          ],
          [
            482579.13,
            4930567.88
          ]
        ]
      },
      "properties": {
        "segment_id": 63,
        "step": 63,
        "length_m": 41.28,
        "cumulative_distance_m": 3458.85,
        "elevation_start_m": 1183.88,
        "elevation_end_m": 1188.36,
        "max_slope_percent": 13.0,
        "reward": 68.01,
        "total_reward_cumulative": 3347.59,
        "distance_to_aoi_boundary_m": 2339.39
      }
    },
    {
      "type": "Feature",
      "geometry": {
        "type": "LineString",
        "coordinates": [
          [
            482579.13,
            4930567.88
          ],
          [
            482538.56,
            4930525.69
          ]
        ]
      },
      "properties": {
        "segment_id": 64,
        "step": 64,
        "length_m": 58.53,
        "cumulative_distance_m": 3517.38,
        "elevation_start_m": 1188.36,
        "elevation_end_m": 1193.66,
        "max_slope_percent": 11.05,
        "reward": 75.79,
        "total_reward_cumulative": 3423.37,
        "distance_to_aoi_boundary_m": 2332.11
      }
    },
    {
      "type": "Feature",
      "geometry": {
        "type": "LineString",
        "coordinates": [
          [
            482538.56,
            4930525.69
          ],
          [
            482497.9,
            4930483.64
          ]
        ]
      },
      "properties": {
        "segment_id": 65,
        "step": 65,
        "length_m": 58.49,
        "cumulative_distance_m": 3575.87,
        "elevation_start_m": 1193.66,
        "elevation_end_m": 1202.13,
        "max_slope_percent": 15.31,
        "reward": 59.38,
        "total_reward_cumulative": 3482.75,
        "distance_to_aoi_boundary_m": 2291.58
      }
    },
    {
      "type": "Feature",
      "geometry": {
        "type": "LineString",
        "coordinates": [
          [
            482497.9,
            4930483.64
          ],
          [
            482457.42,
            4930441.87
          ]
        ]
      },
      "properties": {
        "segment_id": 66,
        "step": 66,
        "length_m": 58.17,
        "cumulative_distance_m": 3634.04,
        "elevation_start_m": 1202.13,
        "elevation_end_m": 1203.63,
        "max_slope_percent": 15.31,
        "reward": 59.38,
        "total_reward_cumulative": 3542.13,
        "distance_to_aoi_boundary_m": 2251.23
      }
    },
    {
      "type": "Feature",
      "geometry": {
        "type": "LineString",
        "coordinates": [
          [
            482457.42,
            4930441.87
          ],
          [
            482416.92,
            4930400.16
          ]
        ]
      },
      "properties": {
        "segment_id": 67,
        "step": 67,
        "length_m": 58.14,
        "cumulative_distance_m": 3692.18,
        "elevation_start_m": 1203.63,
        "elevation_end_m": 1199.93,
        "max_slope_percent": 13.05,
        "reward": 67.82,
        "total_reward_cumulative": 3609.95,
        "distance_to_aoi_boundary_m": 2210.85
      }
    },
    {
      "type": "Feature",
      "geometry": {
        "type": "LineString",
        "coordinates": [
          [
            482416.92,
            4930400.16
          ],
          [
            482376.13,
            4930358.3
          ]
        ]
      },
      "properties": {
        "segment_id": 68,
        "step": 68,
        "length_m": 58.44,
        "cumulative_distance_m": 3750.62,
        "elevation_start_m": 1199.93,
        "elevation_end_m": 1198.98,
        "max_slope_percent": 8.47,
        "reward": 86.13,
        "total_reward_cumulative": 3696.08,
        "distance_to_aoi_boundary_m": 2170.19
      }
    },
    {
      "type": "Feature",
      "geometry": {
        "type": "LineString",
        "coordinates": [
          [
            482376.13,
            4930358.3
          ],
          [
            482335.29,
            4930316.62
          ]
        ]
      },
      "properties": {
        "segment_id": 69,
        "step": 69,
        "length_m": 58.35,
        "cumulative_distance_m": 3808.97,
        "elevation_start_m": 1198.98,
        "elevation_end_m": 1196.29,
        "max_slope_percent": 11.16,
        "reward": 75.34,
        "total_reward_cumulative": 3771.42,
        "distance_to_aoi_boundary_m": 2129.48
      }
    },
    {
      "type": "Feature",
      "geometry": {
        "type": "LineString",
        "coordinates": [
          [
            482335.29,
            4930316.62
          ],
          [
            482294.37,
            4930275.01
          ]
        ]
      },
      "properties": {
        "segment_id": 70,
        "step": 70,
        "length_m": 58.36,
        "cumulative_distance_m": 3867.34,
        "elevation_start_m": 1196.29,
        "elevation_end_m": 1199.97,
        "max_slope_percent": 12.13,
        "reward": 71.47,
        "total_reward_cumulative": 3842.89,
        "distance_to_aoi_boundary_m": 2088.68
      }
    },
    {
      "type": "Feature",
      "geometry": {
        "type": "LineString",
        "coordinates": [
          [
            482294.37,
            4930275.01
          ],
          [
            482253.4,
            4930233.46
          ]
        ]
      },
      "properties": {
        "segment_id": 71,
        "step": 71,
        "length_m": 58.35,
        "cumulative_distance_m": 3925.69,
        "elevation_start_m": 1199.97,
        "elevation_end_m": 1206.24,
        "max_slope_percent": 14.54,
        "reward": 61.85,
        "total_reward_cumulative": 3904.73,
        "distance_to_aoi_boundary_m": 2047.84
      }
    },
    {
      "type": "Feature",
      "geometry": {
        "type": "LineString",
        "coordinates": [
          [
            482253.4,
            4930233.46
          ],
          [
            482212.39,
            4930191.93
          ]
        ]
      },
      "properties": {
        "segment_id": 72,
        "step": 72,
        "length_m": 58.36,
        "cumulative_distance_m": 3984.05,
        "elevation_start_m": 1206.24,
        "elevation_end_m": 1205.05,
        "max_slope_percent": 7.0,
        "reward": 91.98,
        "total_reward_cumulative": 3996.72,
        "distance_to_aoi_boundary_m": 2006.95
      }
    },
    {
      "type": "Feature",
      "geometry": {
        "type": "LineString",
        "coordinates": [
          [
            482212.39,
            4930191.93
          ],
          [
            482171.36,
            4930150.62
          ]
        ]
      },
      "properties": {
        "segment_id": 73,
        "step": 73,
        "length_m": 58.22,
        "cumulative_distance_m": 4042.28,
        "elevation_start_m": 1205.05,
        "elevation_end_m": 1206.9,
        "max_slope_percent": 5.66,
        "reward": 97.35,
        "total_reward_cumulative": 4094.07,
        "distance_to_aoi_boundary_m": 1966.06
      }
    },
    {
      "type": "Feature",
      "geometry": {
        "type": "LineString",
        "coordinates": [
          [
            482171.36,
            4930150.62
          ],
          [
            482130.25,
            4930109.46
          ]
        ]
      },
      "properties": {
        "segment_id": 74,
        "step": 74,
        "length_m": 58.18,
        "cumulative_distance_m": 4100.45,
        "elevation_start_m": 1206.9,
        "elevation_end_m": 1209.17,
        "max_slope_percent": 6.72,
        "reward": 93.14,
        "total_reward_cumulative": 4187.21,
        "distance_to_aoi_boundary_m": 1925.07
      }
    },
    {
      "type": "Feature",
      "geometry": {
        "type": "LineString",
        "coordinates": [
          [
            482130.25,
            4930109.46
          ],
          [
            482089.05,
            4930068.4
          ]
        ]
      },
      "properties": {
        "segment_id": 75,
        "step": 75,
        "length_m": 58.17,
        "cumulative_distance_m": 4158.62,
        "elevation_start_m": 1209.17,
        "elevation_end_m": 1209.86,
        "max_slope_percent": 6.72,
        "reward": 93.14,
        "total_reward_cumulative": 4280.34,
        "distance_to_aoi_boundary_m": 1883.99
      }
    },
    {
      "type": "Feature",
      "geometry": {
        "type": "LineString",
        "coordinates": [
          [
            482089.05,
            4930068.4
          ],
          [
            482047.77,
            4930027.44
          ]
        ]
      },
      "properties": {
        "segment_id": 76,
        "step": 76,
        "length_m": 58.15,
        "cumulative_distance_m": 4216.77,
        "elevation_start_m": 1209.86,
        "elevation_end_m": 1206.66,
        "max_slope_percent": 5.87,
        "reward": 96.51,
        "total_reward_cumulative": 4376.85,
        "distance_to_aoi_boundary_m": 1842.84
      }
    },
    {
      "type": "Feature",
      "geometry": {
        "type": "LineString",
        "coordinates": [
          [
            482047.77,
            4930027.44
          ],
          [
            482006.43,
            4929986.61
          ]
        ]
      },
      "properties": {
        "segment_id": 77,
        "step": 77,
        "length_m": 58.11,
        "cumulative_distance_m": 4274.88,
        "elevation_start_m": 1206.66,
        "elevation_end_m": 1204.0,
        "max_slope_percent": 5.56,
        "reward": 97.76,
        "total_reward_cumulative": 4474.61,
        "distance_to_aoi_boundary_m": 1801.62
      }
    },
    {
      "type": "Feature",
      "geometry": {
        "type": "LineString",
        "coordinates": [
          [
            482006.43,
            4929986.61
          ],
          [
            481965.02,
            4929945.89
          ]
        ]
      },
      "properties": {
        "segment_id": 78,
        "step": 78,
        "length_m": 58.08,
        "cumulative_distance_m": 4332.95,
        "elevation_start_m": 1204.0,
        "elevation_end_m": 1200.45,
        "max_slope_percent": 6.09,
        "reward": 95.62,
        "total_reward_cumulative": 4570.23,
        "distance_to_aoi_boundary_m": 1760.34
      }
    },
    {
      "type": "Feature",
      "geometry": {
        "type": "LineString",
        "coordinates": [
          [
            481965.02,
            4929945.89
          ],
          [
            481923.54,
            4929905.26
          ]
        ]
      },
      "properties": {
        "segment_id": 79,
        "step": 79,
        "length_m": 58.06,
        "cumulative_distance_m": 4391.02,
        "elevation_start_m": 1200.45,
        "elevation_end_m": 1197.46,
        "max_slope_percent": 5.51,
        "reward": 97.97,
        "total_reward_cumulative": 4668.2,
        "distance_to_aoi_boundary_m": 1718.98
      }
    },
    {
      "type": "Feature",
      "geometry": {
        "type": "LineString",
        "coordinates": [
          [
            481923.54,
            4929905.26
          ],
          [
            481882.01,
            4929864.73
          ]
        ]
      },
      "properties": {
        "segment_id": 80,
        "step": 80,
        "length_m": 58.03,
        "cumulative_distance_m": 4449.05,
        "elevation_start_m": 1197.46,
        "elevation_end_m": 1195.86,
        "max_slope_percent": 4.26,
        "reward": 100.0,
        "total_reward_cumulative": 4768.2,
        "distance_to_aoi_boundary_m": 1677.57
      }
    },
    {
      "type": "Feature",
      "geometry": {
        "type": "LineString",
        "coordinates": [
          [
            481882.01,
            4929864.73
          ],
          [
            481840.41,
            4929824.34
          ]
        ]
      },
      "properties": {
        "segment_id": 81,
        "step": 81,
        "length_m": 57.99,
        "cumulative_distance_m": 4507.03,
        "elevation_start_m": 1195.86,
        "elevation_end_m": 1194.98,
        "max_slope_percent": 2.97,
        "reward": 100.0,
        "total_reward_cumulative": 4868.2,
        "distance_to_aoi_boundary_m": 1636.09
      }
    },
    {
      "type": "Feature",
      "geometry": {
        "type": "LineString",
        "coordinates": [
          [
            481840.41,
            4929824.34
          ],
          [
            481798.73,
            4929784.08
          ]
        ]
      },
      "properties": {
        "segment_id": 82,
        "step": 82,
        "length_m": 57.94,
        "cumulative_distance_m": 4564.97,
        "elevation_start_m": 1194.98,
        "elevation_end_m": 1194.9,
        "max_slope_percent": 3.56,
        "reward": 100.0,
        "total_reward_cumulative": 4968.2,
        "distance_to_aoi_boundary_m": 1594.54
      }
    },
    {
      "type": "Feature",
      "geometry": {
        "type": "LineString",
        "coordinates": [
          [
            481798.73,
            4929784.08
          ],
          [
            481756.98,
            4929743.93
          ]
        ]
      },
      "properties": {
        "segment_id": 83,
        "step": 83,
        "length_m": 57.93,
        "cumulative_distance_m": 4622.9,
        "elevation_start_m": 1194.9,
        "elevation_end_m": 1194.08,
        "max_slope_percent": 3.47,
        "reward": 100.0,
        "total_reward_cumulative": 5068.2,
        "distance_to_aoi_boundary_m": 1552.91
      }
    },
    {
      "type": "Feature",
      "geometry": {
        "type": "LineString",
        "coordinates": [
          [
            481756.98,
            4929743.93
          ],
          [
            481715.14,
            4929703.89
          ]
        ]
      },
      "properties": {
        "segment_id": 84,
        "step": 84,
        "length_m": 57.9,
        "cumulative_distance_m": 4680.81,
        "elevation_start_m": 1194.08,
        "elevation_end_m": 1195.41,
        "max_slope_percent": 5.36,
        "reward": 98.55,
        "total_reward_cumulative": 5166.75,
        "distance_to_aoi_boundary_m": 1511.2
      }
    },
    {
      "type": "Feature",
      "geometry": {
        "type": "LineString",
        "coordinates": [
          [
            481715.14,
            4929703.89
          ],
          [
            481673.24,
            4929663.93
          ]
        ]
      },
      "properties": {
        "segment_id": 85,
        "step": 85,
        "length_m": 57.91,
        "cumulative_distance_m": 4738.72,
        "elevation_start_m": 1195.41,
        "elevation_end_m": 1196.57,
        "max_slope_percent": 6.56,
        "reward": 93.76,
        "total_reward_cumulative": 5260.51,
        "distance_to_aoi_boundary_m": 1469.41
      }
    },
    {
      "type": "Feature",
      "geometry": {
        "type": "LineString",
        "coordinates": [
          [
            481673.24,
            4929663.93
          ],
          [
            481631.27,
            4929624.03
          ]
        ]
      },
      "properties": {
        "segment_id": 86,
        "step": 86,
        "length_m": 57.91,
        "cumulative_distance_m": 4796.62,
        "elevation_start_m": 1196.57,
        "elevation_end_m": 1193.55,
        "max_slope_percent": 6.56,
        "reward": 93.76,
        "total_reward_cumulative": 5354.27,
        "distance_to_aoi_boundary_m": 1427.57
      }
    },
    {
      "type": "Feature",
      "geometry": {
        "type": "LineString",
        "coordinates": [
          [
            481631.27,
            4929624.03
          ],
          [
            481589.25,
            4929584.22
          ]
        ]
      },
      "properties": {
        "segment_id": 87,
        "step": 87,
        "length_m": 57.88,
        "cumulative_distance_m": 4854.5,
        "elevation_start_m": 1193.55,
        "elevation_end_m": 1191.76,
        "max_slope_percent": 4.73,
        "reward": 100.0,
        "total_reward_cumulative": 5454.27,
        "distance_to_aoi_boundary_m": 1385.67
      }
    },
    {
      "type": "Feature",
      "geometry": {
        "type": "LineString",
        "coordinates": [
          [
            481589.25,
            4929584.22
          ],
          [
            481547.17,
            4929544.55
          ]
        ]
      },
      "properties": {
        "segment_id": 88,
        "step": 88,
        "length_m": 57.83,
        "cumulative_distance_m": 4912.33,
        "elevation_start_m": 1191.76,
        "elevation_end_m": 1191.39,
        "max_slope_percent": 1.76,
        "reward": 100.0,
        "total_reward_cumulative": 5554.27,
        "distance_to_aoi_boundary_m": 1343.72
      }
    },
    {
      "type": "Feature",
      "geometry": {
        "type": "LineString",
        "coordinates": [
          [
            481547.17,
            4929544.55
          ],
          [
            481505.02,
            4929505.06
          ]
        ]
      },
      "properties": {
        "segment_id": 89,
        "step": 89,
        "length_m": 57.76,
        "cumulative_distance_m": 4970.1,
        "elevation_start_m": 1191.39,
        "elevation_end_m": 1192.31,
        "max_slope_percent": 3.99,
        "reward": 100.0,
        "total_reward_cumulative": 5654.27,
        "distance_to_aoi_boundary_m": 1301.68
      }
    },
    {
      "type": "Feature",
      "geometry": {
        "type": "LineString",
        "coordinates": [
          [
            481505.02,
            4929505.06
          ],
          [
            481462.75,
            4929465.67
          ]
        ]
      },
      "properties": {
        "segment_id": 90,
        "step": 90,
        "length_m": 57.77,
        "cumulative_distance_m": 5027.87,
        "elevation_start_m": 1192.31,
        "elevation_end_m": 1193.03,
        "max_slope_percent": 3.99,
        "reward": 100.0,
        "total_reward_cumulative": 5754.27,
        "distance_to_aoi_boundary_m": 1259.53
      }
    },
    {
      "type": "Feature",
      "geometry": {
        "type": "LineString",
        "coordinates": [
          [
            481462.75,
            4929465.67
          ],
          [
            481420.39,
            4929426.42
          ]
        ]
      },
      "properties": {
        "segment_id": 91,
        "step": 91,
        "length_m": 57.75,
        "cumulative_distance_m": 5085.62,
        "elevation_start_m": 1193.03,
        "elevation_end_m": 1192.03,
        "max_slope_percent": 3.65,
        "reward": 100.0,
        "total_reward_cumulative": 5854.27,
        "distance_to_aoi_boundary_m": 1217.29
      }
    },
    {
      "type": "Feature",
      "geometry": {
        "type": "LineString",
        "coordinates": [
          [
            481420.39,
            4929426.42
          ],
          [
            481377.93,
            4929387.3
          ]
        ]
      },
      "properties": {
        "segment_id": 92,
        "step": 92,
        "length_m": 57.73,
        "cumulative_distance_m": 5143.35,
        "elevation_start_m": 1192.03,
        "elevation_end_m": 1193.17,
        "max_slope_percent": 5.34,
        "reward": 98.64,
        "total_reward_cumulative": 5952.91,
        "distance_to_aoi_boundary_m": 1174.96
      }
    },
    {
      "type": "Feature",
      "geometry": {
        "type": "LineString",
        "coordinates": [
          [
            481377.93,
            4929387.3
          ],
          [
            481335.37,
            4929348.3
          ]
        ]
      },
      "properties": {
        "segment_id": 93,
        "step": 93,
        "length_m": 57.73,
        "cumulative_distance_m": 5201.08,
        "elevation_start_m": 1193.17,
        "elevation_end_m": 1196.71,
        "max_slope_percent": 6.47,
        "reward": 94.12,
        "total_reward_cumulative": 6047.03,
        "distance_to_aoi_boundary_m": 1132.51
      }
    },
    {
      "type": "Feature",
      "geometry": {
        "type": "LineString",
        "coordinates": [
          [
            481335.37,
            4929348.3
          ],
          [
            481292.71,
            4929309.41
          ]
        ]
      },
      "properties": {
        "segment_id": 94,
        "step": 94,
        "length_m": 57.73,
        "cumulative_distance_m": 5258.81,
        "elevation_start_m": 1196.71,
        "elevation_end_m": 1198.92,
        "max_slope_percent": 6.09,
        "reward": 95.65,
        "total_reward_cumulative": 6142.68,
        "distance_to_aoi_boundary_m": 1089.97
      }
    },
    {
      "type": "Feature",
      "geometry": {
        "type": "LineString",
        "coordinates": [
          [
            481292.71,
            4929309.41
          ],
          [
            481249.95,
            4929270.66
          ]
        ]
      },
      "properties": {
        "segment_id": 95,
        "step": 95,
        "length_m": 57.7,
        "cumulative_distance_m": 5316.51,
        "elevation_start_m": 1198.92,
        "elevation_end_m": 1201.64,
        "max_slope_percent": 5.44,
        "reward": 98.25,
        "total_reward_cumulative": 6240.93,
        "distance_to_aoi_boundary_m": 1047.33
      }
    },
    {
      "type": "Feature",
      "geometry": {
        "type": "LineString",
        "coordinates": [
          [
            481249.95,
            4929270.66
          ],
          [
            481207.08,
            4929232.08
          ]
        ]
      },
      "properties": {
        "segment_id": 96,
        "step": 96,
        "length_m": 57.67,
        "cumulative_distance_m": 5374.18,
        "elevation_start_m": 1201.64,
        "elevation_end_m": 1201.8,
        "max_slope_percent": 2.14,
        "reward": 100.0,
        "total_reward_cumulative": 6340.93,
        "distance_to_aoi_boundary_m": 1004.58
      }
    },
    {
      "type": "Feature",
      "geometry": {
        "type": "LineString",
        "coordinates": [
          [
            481207.08,
            4929232.08
          ],
          [
            481164.1,
            4929193.75
          ]
        ]
      },
      "properties": {
        "segment_id": 97,
        "step": 97,
        "length_m": 57.6,
        "cumulative_distance_m": 5431.78,
        "elevation_start_m": 1201.8,
        "elevation_end_m": 1204.5,
        "max_slope_percent": 6.69,
        "reward": 93.22,
        "total_reward_cumulative": 6434.15,
        "distance_to_aoi_boundary_m": 961.71
      }
    },
    {
      "type": "Feature",
      "geometry": {
        "type": "LineString",
        "coordinates": [
          [
            481164.1,
            4929193.75
          ],
          [
            481120.94,
            4929155.53
          ]
        ]
      },
      "properties": {
        "segment_id": 98,
        "step": 98,
        "length_m": 57.65,
        "cumulative_distance_m": 5489.43,
        "elevation_start_m": 1204.5,
        "elevation_end_m": 1203.2,
        "max_slope_percent": 3.82,
        "reward": 100.0,
        "total_reward_cumulative": 6534.15,
        "distance_to_aoi_boundary_m": 918.68
      }
    },
    {
      "type": "Feature",
      "geometry": {
        "type": "LineString",
        "coordinates": [
          [
            481120.94,
            4929155.53
          ],
          [
            481077.67,
            4929117.54
          ]
        ]
      },
      "properties": {
        "segment_id": 99,
        "step": 99,
        "length_m": 57.58,
        "cumulative_distance_m": 5547.01,
        "elevation_start_m": 1203.2,
        "elevation_end_m": 1204.61,
        "max_slope_percent": 5.45,
        "reward": 98.21,
        "total_reward_cumulative": 6632.36,
        "distance_to_aoi_boundary_m": 875.51
      }
    },
    {
      "type": "Feature",
      "geometry": {
        "type": "LineString",
        "coordinates": [
          [
            481077.67,
            4929117.54
          ],
          [
            481034.22,
            4929079.74
          ]
        ]
      },
      "properties": {
        "segment_id": 100,
        "step": 100,
        "length_m": 57.59,
        "cumulative_distance_m": 5604.6,
        "elevation_start_m": 1204.61,
        "elevation_end_m": 1207.82,
        "max_slope_percent": 6.04,
        "reward": 95.84,
        "total_reward_cumulative": 6728.2,
        "distance_to_aoi_boundary_m": 832.18
      }
    },
    {
      "type": "Feature",
      "geometry": {
        "type": "LineString",
        "coordinates": [
          [
            481034.22,
            4929079.74
          ],
          [
            480990.61,
            4929042.15
          ]
        ]
      },
      "properties": {
        "segment_id": 101,
        "step": 101,
        "length_m": 57.58,
        "cumulative_distance_m": 5662.18,
        "elevation_start_m": 1207.82,
        "elevation_end_m": 1209.71,
        "max_slope_percent": 6.19,
        "reward": 95.25,
        "total_reward_cumulative": 6823.45,
        "distance_to_aoi_boundary_m": 788.69
      }
    },
    {
      "type": "Feature",
      "geometry": {
        "type": "LineString",
        "coordinates": [
          [
            480990.61,
            4929042.15
          ],
          [
            480946.83,
            4929004.77
          ]
        ]
      },
      "properties": {
        "segment_id": 102,
        "step": 102,
        "length_m": 57.56,
        "cumulative_distance_m": 5719.74,
        "elevation_start_m": 1209.71,
        "elevation_end_m": 1212.98,
        "max_slope_percent": 7.92,
        "reward": 88.31,
        "total_reward_cumulative": 6911.77,
        "distance_to_aoi_boundary_m": 745.02
      }
    },
    {
      "type": "Feature",
      "geometry": {
        "type": "LineString",
        "coordinates": [
          [
            480946.83,
            4929004.77
          ],
          [
            480902.87,
            4928967.61
          ]
        ]
      },
      "properties": {
        "segment_id": 103,
        "step": 103,
        "length_m": 57.57,
        "cumulative_distance_m": 5777.31,
        "elevation_start_m": 1212.98,
        "elevation_end_m": 1216.61,
        "max_slope_percent": 9.96,
        "reward": 80.17,
        "total_reward_cumulative": 6991.93,
        "distance_to_aoi_boundary_m": 701.17
      }
    },
    {
      "type": "Feature",
      "geometry": {
        "type": "LineString",
        "coordinates": [
          [
            480902.87,
            4928967.61
          ],
          [
            480858.71,
            4928930.64
          ]
        ]
      },
      "properties": {
        "segment_id": 104,
        "step": 104,
        "length_m": 57.58,
        "cumulative_distance_m": 5834.89,
        "elevation_start_m": 1216.61,
        "elevation_end_m": 1219.0,
        "max_slope_percent": 12.75,
        "reward": 69.01,
        "total_reward_cumulative": 7060.94,
        "distance_to_aoi_boundary_m": 657.13
      }
    },
    {
      "type": "Feature",
      "geometry": {
        "type": "LineString",
        "coordinates": [
          [
            480858.71,
            4928930.64
          ],
          [
            480814.37,
            4928893.86
          ]
        ]
      },
      "properties": {
        "segment_id": 105,
        "step": 105,
        "length_m": 57.61,
        "cumulative_distance_m": 5892.5,
        "elevation_start_m": 1219.0,
        "elevation_end_m": 1218.32,
        "max_slope_percent": 11.68,
        "reward": 73.3,
        "total_reward_cumulative": 7134.24,
        "distance_to_aoi_boundary_m": 612.9
      }
    },
    {
      "type": "Feature",
      "geometry": {
        "type": "LineString",
        "coordinates": [
          [
            480814.37,
            4928893.86
          ],
          [
            480769.85,
            4928857.36
          ]
        ]
      },
      "properties": {
        "segment_id": 106,
        "step": 106,
        "length_m": 57.57,
        "cumulative_distance_m": 5950.08,
        "elevation_start_m": 1218.32,
        "elevation_end_m": 1214.41,
        "max_slope_percent": 7.28,
        "reward": 90.89,
        "total_reward_cumulative": 7225.13,
        "distance_to_aoi_boundary_m": 568.49
      }
    },
    {
      "type": "Feature",
      "geometry": {
        "type": "LineString",
        "coordinates": [
          [
            480769.85,
            4928857.36
          ],
          [
            480725.13,
            4928821.24
          ]
        ]
      },
      "properties": {
        "segment_id": 107,
        "step": 107,
        "length_m": 57.48,
        "cumulative_distance_m": 6007.55,
        "elevation_start_m": 1214.41,
        "elevation_end_m": 1213.13,
        "max_slope_percent": 5.46,
        "reward": 98.16,
        "total_reward_cumulative": 7323.29,
        "distance_to_aoi_boundary_m": 523.88
      }
    },
    {
      "type": "Feature",
      "geometry": {
        "type": "LineString",
        "coordinates": [
          [
            480725.13,
            4928821.24
          ],
          [
            480680.16,
            4928785.52
          ]
        ]
      },
      "properties": {
        "segment_id": 108,
        "step": 108,
        "length_m": 57.43,
        "cumulative_distance_m": 6064.98,
        "elevation_start_m": 1213.13,
        "elevation_end_m": 1216.38,
        "max_slope_percent": 6.81,
        "reward": 92.75,
        "total_reward_cumulative": 7416.03,
        "distance_to_aoi_boundary_m": 479.02
      }
    },
    {
      "type": "Feature",
      "geometry": {
        "type": "LineString",
        "coordinates": [
          [
            480680.16,
            4928785.52
          ],
          [
            480634.9,
            4928750.17
          ]
        ]
      },
      "properties": {
        "segment_id": 109,
        "step": 109,
        "length_m": 57.43,
        "cumulative_distance_m": 6122.42,
        "elevation_start_m": 1216.38,
        "elevation_end_m": 1213.62,
        "max_slope_percent": 7.49,
        "reward": 90.05,
        "total_reward_cumulative": 7506.08,
        "distance_to_aoi_boundary_m": 433.87
      }
    },
    {
      "type": "Feature",
      "geometry": {
        "type": "LineString",
        "coordinates": [
          [
            480634.9,
            4928750.17
          ],
          [
            480589.34,
            4928715.21
          ]
        ]
      },
      "properties": {
        "segment_id": 110,
        "step": 110,
        "length_m": 57.43,
        "cumulative_distance_m": 6179.84,
        "elevation_start_m": 1213.62,
        "elevation_end_m": 1211.25,
        "max_slope_percent": 6.99,
        "reward": 92.05,
        "total_reward_cumulative": 7598.13,
        "distance_to_aoi_boundary_m": 388.41
      }
    },
    {
      "type": "Feature",
      "geometry": {
        "type": "LineString",
        "coordinates": [
          [
            480589.34,
            4928715.21
          ],
          [
            480543.48,
            4928680.69
          ]
        ]
      },
      "properties": {
        "segment_id": 111,
        "step": 111,
        "length_m": 57.4,
        "cumulative_distance_m": 6237.24,
        "elevation_start_m": 1211.25,
        "elevation_end_m": 1210.95,
        "max_slope_percent": 3.53,
        "reward": 100.0,
        "total_reward_cumulative": 7698.13,
        "distance_to_aoi_boundary_m": 342.66
      }
    },
    {
      "type": "Feature",
      "geometry": {
        "type": "LineString",
        "coordinates": [
          [
            480543.48,
            4928680.69
          ],
          [
            480497.32,
            4928646.7
          ]
        ]
      },
      "properties": {
        "segment_id": 112,
        "step": 112,
        "length_m": 57.32,
        "cumulative_distance_m": 6294.56,
        "elevation_start_m": 1210.95,
        "elevation_end_m": 1212.13,
        "max_slope_percent": 6.86,
        "reward": 92.56,
        "total_reward_cumulative": 7790.69,
        "distance_to_aoi_boundary_m": 296.61
      }
    },
    {
      "type": "Feature",
      "geometry": {
        "type": "LineString",
        "coordinates": [
          [
            480497.32,
            4928646.7
          ],
          [
            480450.79,
            4928613.15
          ]
        ]
      },
      "properties": {
        "segment_id": 113,
        "step": 113,
        "length_m": 57.36,
        "cumulative_distance_m": 6351.93,
        "elevation_start_m": 1212.13,
        "elevation_end_m": 1212.36,
        "max_slope_percent": 6.16,
        "reward": 95.37,
        "total_reward_cumulative": 7886.05,
        "distance_to_aoi_boundary_m": 250.18
      }
    },
    {
      "type": "Feature",
      "geometry": {
        "type": "LineString",
        "coordinates": [
          [
            480450.79,
            4928613.15
          ],
          [
            480403.93,
            4928580.14
          ]
        ]
      },
      "properties": {
        "segment_id": 114,
        "step": 114,
        "length_m": 57.33,
        "cumulative_distance_m": 6409.26,
        "elevation_start_m": 1212.36,
        "elevation_end_m": 1215.64,
        "max_slope_percent": 10.84,
        "reward": 76.64,
        "total_reward_cumulative": 7962.69,
        "distance_to_aoi_boundary_m": 203.41
      }
    },
    {
      "type": "Feature",
      "geometry": {
        "type": "LineString",
        "coordinates": [
          [
            480403.93,
            4928580.14
          ],
          [
            480356.67,
            4928547.57
          ]
        ]
      },
      "properties": {
        "segment_id": 115,
        "step": 115,
        "length_m": 57.39,
        "cumulative_distance_m": 6466.65,
        "elevation_start_m": 1215.64,
        "elevation_end_m": 1214.89,
        "max_slope_percent": 9.74,
        "reward": 81.04,
        "total_reward_cumulative": 8043.73,
        "distance_to_aoi_boundary_m": 156.26
      }
    },
    {
      "type": "Feature",
      "geometry": {
        "type": "LineString",
        "coordinates": [
          [
            480356.67,
            4928547.57
          ],
          [
            480309.07,
            4928515.56
          ]
        ]
      },
      "properties": {
        "segment_id": 116,
        "step": 116,
        "length_m": 57.36,
        "cumulative_distance_m": 6524.01,
        "elevation_start_m": 1214.89,
        "elevation_end_m": 1213.56,
        "max_slope_percent": 7.44,
        "reward": 90.22,
        "total_reward_cumulative": 8133.95,
        "distance_to_aoi_boundary_m": 108.76
      }
    },
    {
      "type": "Feature",
      "geometry": {
        "type": "LineString",
        "coordinates": [
          [
            480309.07,
            4928515.56
          ],
          [
            480261.12,
            4928484.19
          ]
        ]
      },
      "properties": {
        "segment_id": 117,
        "step": 117,
        "length_m": 57.3,
        "cumulative_distance_m": 6581.31,
        "elevation_start_m": 1213.56,
        "elevation_end_m": 1215.93,
        "max_slope_percent": 6.62,
        "reward": 73.96,
        "total_reward_cumulative": 8207.91,
        "distance_to_aoi_boundary_m": 60.9
      }
    },
    {
      "type": "Feature",
      "geometry": {
        "type": "LineString",
        "coordinates": [
          [
            480261.12,
            4928484.19
          ],
          [
            480212.78,
            4928453.48
          ]
        ]
      },
      "properties": {
        "segment_id": 118,
        "step": 118,
        "length_m": 57.27,
        "cumulative_distance_m": 6638.58,
        "elevation_start_m": 1215.93,
        "elevation_end_m": 1218.9,
        "max_slope_percent": 8.91,
        "reward": 40.7,
        "total_reward_cumulative": 8248.61,
        "distance_to_aoi_boundary_m": 12.66
      }
    },
    {
      "type": "Feature",
      "geometry": {
        "type": "LineString",
        "coordinates": [
          [
            480212.78,
            4928453.48
          ],
          [
            480164.01,
            4928423.42
          ]
        ]
      },
      "properties": {
        "segment_id": 119,
        "step": 119,
        "length_m": 57.29,
        "cumulative_distance_m": 6695.87,
        "elevation_start_m": 1218.9,
        "elevation_end_m": 0.0,
        "max_slope_percent": 6911.88,
        "reward": -1000.0,
        "total_reward_cumulative": 7248.61,
        "distance_to_aoi_boundary_m": 0.0
      }
    }
  ]
}