{"type": "FeatureCollection", "name": "powerlines", "crs": {"type": "name", "properties": {"name": "urn:ogc:def:crs:OGC:1.3:CRS84"}}, "features": [{"type": "Feature", "properties": {"osm_id": "749644579", "name": null, "highway": null, "waterway": null, "aerialway": null, "barrier": null, "man_made": null, "railway": null, "z_order": 0, "other_tags": "\"cables\"=>\"3\",\"circuits\"=>\"1\",\"operator\"=>\"Monongahela Power Company\",\"power\"=>\"line\",\"voltage\"=>\"138000\",\"wires\"=>\"single\""}, "geometry": {"type": "LineString", "coordinates": [[-80.91000576993106, 38.312191372086076, 0.0], [-80.9100934, 38.31211719999999, 0.0], [-80.9109603, 38.3113835, 0.0], [-80.9125989, 38.3099965, 0.0], [-80.9140944, 38.3087307, 0.0], [-80.9150321, 38.307937, 0.0], [-80.9146906, 38.306542, 0.0], [-80.914349, 38.305089, 0.0]]}}, {"type": "Feature", "properties": {"osm_id": "749663669", "name": null, "highway": null, "waterway": null, "aerialway": null, "barrier": null, "man_made": null, "railway": null, "z_order": 0, "other_tags": "\"power\"=>\"minor_line\""}, "geometry": {"type": "LineString", "coordinates": [[-80.9186836, 38.3943184, 0.0], [-80.9178703, 38.3936384, 0.0]]}}, {"type": "Feature", "properties": {"osm_id": "1119735615", "name": null, "highway": null, "waterway": null, "aerialway": null, "barrier": null, "man_made": null, "railway": null, "z_order": 0, "other_tags": "\"cables\"=>\"3\",\"circuits\"=>\"1\",\"operator\"=>\"Monongahela Power Company\",\"power\"=>\"line\",\"voltage\"=>\"138000\",\"wires\"=>\"single\""}, "geometry": {"type": "LineString", "coordinates": [[-80.914618, 38.30500709999998, 0.0], [-80.914987, 38.3064825, 0.0], [-80.915356, 38.307874, 0.0], [-80.9162902, 38.30790180000001, 0.0], [-80.9175027, 38.3079378, 0.0], [-80.9206132, 38.3080303, 0.0], [-80.9223251, 38.3075149, 0.0], [-80.9238506, 38.3070557, 0.0], [-80.9265277, 38.3062497, 0.0], [-80.9299482, 38.3062039, 0.0], [-80.9316966, 38.3067337, 0.0], [-80.9324512, 38.30696239999999, 0.0], [-80.9359241, 38.3065741, 0.0], [-80.9370551, 38.3064477, 0.0], [-80.9407835, 38.3060308, 0.0], [-80.9436723, 38.3057078, 0.0], [-80.9457941, 38.3067736, 0.0], [-80.9490558, 38.308412, 0.0], [-80.9523952, 38.3100893, 0.0], [-80.9562856, 38.3120434, 0.0], [-80.9590377, 38.3134257, 0.0], [-80.9604848, 38.312961, 0.0], [-80.9619099, 38.3125035, 0.0], [-80.9692893, 38.310134, 0.0], [-80.9700103, 38.3090229, 0.0], [-80.9734801, 38.3036491, 0.0], [-80.9740938, 38.30273, 0.0], [-80.9819485, 38.3030196, 0.0], [-80.9902286, 38.3033745, 0.0], [-80.9961701, 38.3035439, 0.0]]}}, {"type": "Feature", "properties": {"osm_id": "1119735617", "name": null, "highway": null, "waterway": null, "aerialway": null, "barrier": null, "man_made": null, "railway": null, "z_order": 0, "other_tags": "\"cables\"=>\"3\",\"circuits\"=>\"1\",\"operator\"=>\"Monongahela Power Company\",\"power\"=>\"line\",\"voltage\"=>\"138000\",\"wires\"=>\"single\""}, "geometry": {"type": "LineString", "coordinates": [[-80.9961701, 38.3035439, 0.0], [-80.9971355, 38.30357939999998, 0.0], [-81.0024479, 38.3029018, 0.0], [-81.0052893, 38.3025393, 0.0], [-81.0096279, 38.3002405, 0.0], [-81.0120197, 38.29641419999999, 0.0], [-81.0165292, 38.2950999, 0.0], [-81.017756, 38.2947423, 0.0], [-81.0197755, 38.2941537, 0.0], [-81.024462, 38.2927878, 0.0], [-81.0295653, 38.290799, 0.0], [-81.0346307, 38.2904443, 0.0], [-81.036205, 38.2903341, 0.0], [-81.0373552, 38.2897372, 0.0], [-81.0448132, 38.2858668, 0.0], [-81.0461127, 38.2854508, 0.0], [-81.048126, 38.2848063, 0.0], [-81.0528898, 38.2832814, 0.0], [-81.0545674, 38.2827443, 0.0], [-81.0555295, 38.2824363, 0.0], [-81.0577385, 38.2817291, 0.0], [-81.0641597, 38.2796735, 0.0], [-81.0652861, 38.2793129, 0.0], [-81.0668989, 38.2787966, 0.0], [-81.0720165, 38.2771582, 0.0], [-81.0727698, 38.276917, 0.0], [-81.0745831, 38.2765837, 0.0], [-81.076273, 38.276273, 0.0], [-81.0790151, 38.2757856, 0.0], [-81.0818715, 38.2752551, 0.0], [-81.0890429, 38.27394429999999, 0.0], [-81.0912248, 38.2735447, 0.0], [-81.09175152671764, 38.273222886510126, 0.0]]}}, {"type": "Feature", "properties": {"osm_id": "1387810466", "name": null, "highway": null, "waterway": null, "aerialway": null, "barrier": null, "man_made": null, "railway": null, "z_order": 0, "other_tags": "\"power\"=>\"minor_line\""}, "geometry": {"type": "LineString", "coordinates": [[-80.9863315, 38.368869, 0.0], [-80.9870186, 38.3674558, 0.0], [-80.9871792, 38.3664099, 0.0], [-80.9871435, 38.365497, 0.0], [-80.9865932, 38.3648893, 0.0], [-80.9856088, 38.3643531, 0.0], [-80.98432390000002, 38.3637829, 0.0], [-80.9834138, 38.3633667, 0.0], [-80.9829097, 38.362695, 0.0], [-80.9827549, 38.3626007, 0.0], [-80.9815266, 38.361852, 0.0], [-80.9799964, 38.3614602, 0.0]]}}, {"type": "Feature", "properties": {"osm_id": "1387810467", "name": null, "highway": null, "waterway": null, "aerialway": null, "barrier": null, "man_made": null, "railway": null, "z_order": 0, "other_tags": "\"power\"=>\"minor_line\""}, "geometry": {"type": "LineString", "coordinates": [[-80.9827549, 38.3626007, 0.0], [-80.9836127, 38.36227, 0.0], [-80.9845693, 38.3624187, 0.0], [-80.98655460000002, 38.3633212, 0.0], [-80.987603, 38.3634786, 0.0]]}}]}