{"type": "FeatureCollection", "name": "roads", "features": [{"type": "Feature", "properties": {"osm_id": 15685142, "name": "", "highway": "service", "ref": "", "surface": "unpaved", "lanes": "", "maxspeed": "", "oneway": ""}, "geometry": {"type": "LineString", "coordinates": [[-105.2006915, 44.5347386], [-105.2005238, 44.5348583], [-105.2002692, 44.5349724], [-105.1999094, 44.53514830000002], [-105.199727, 44.5351931], [-105.1995317, 44.5352045], [-105.1988621, 44.5351543], [-105.1987352, 44.5351591], [-105.1985926, 44.5351831], [-105.1984844, 44.5352324], [-105.1983961, 44.5353037], [-105.1982286, 44.5355337], [-105.1979442, 44.5359334], [-105.19706570000001, 44.5381509], [-105.1968938, 44.5384013], [-105.1965257, 44.5387955], [-105.19608440000002, 44.5391986], [-105.1956292, 44.5395863], [-105.1954771, 44.539665], [-105.1952582, 44.5397208], [-105.1949346, 44.539753], [-105.1945261, 44.5397709], [-105.1942211, 44.5397974], [-105.1939956, 44.53984470000001], [-105.1937171, 44.539939199999985], [-105.1930154, 44.5402795], [-105.1927926, 44.5404402], [-105.1925724, 44.5406775], [-105.1922263, 44.54107909999998], [-105.1921307, 44.54124250000001], [-105.1921053, 44.5413481], [-105.1921228, 44.5414412], [-105.1921107, 44.5415943], [-105.1919825, 44.5417793], [-105.1916976, 44.5420745], [-105.19145020000002, 44.5423933], [-105.191364, 44.542476], [-105.1912337, 44.54254370000001], [-105.191047, 44.542598], [-105.1904583, 44.542709], [-105.1902749, 44.5427342], [-105.19000430000001, 44.5427468], [-105.1898013749999, 44.54273869121142]]}}, {"type": "Feature", "properties": {"osm_id": 15685853, "name": "", "highway": "residential", "ref": "", "surface": "", "lanes": "", "maxspeed": "", "oneway": ""}, "geometry": {"type": "LineString", "coordinates": [[-105.2182639, 44.5389706], [-105.214674, 44.53844], [-105.213971, 44.53844], [-105.213396, 44.538623], [-105.212245, 44.539287], [-105.211542, 44.539356], [-105.210359, 44.538983], [-105.209048, 44.538464], [-105.208951, 44.537618], [-105.209175, 44.536292], [-105.208663, 44.535423], [-105.207927, 44.534943], [-105.207128, 44.534691], [-105.205018, 44.534555], [-105.201172, 44.53483], [-105.2009077, 44.5348146], [-105.2006915, 44.5347386], [-105.199871, 44.534075], [-105.1898013749999, 44.52834467909435]]}}, {"type": "Feature", "properties": {"osm_id": 15687021, "name": "", "highway": "residential", "ref": "", "surface": "unpaved", "lanes": "", "maxspeed": "", "oneway": ""}, "geometry": {"type": "LineString", "coordinates": [[-105.2290655, 44.5115315], [-105.2295945, 44.5115217], [-105.2320342, 44.5115092], [-105.233246, 44.511442], [-105.2341321, 44.5113719], [-105.2396682, 44.5113512], [-105.2443953, 44.5113321], [-105.2491009619999, 44.51130996983803]]}}, {"type": "Feature", "properties": {"osm_id": 15687958, "name": "", "highway": "residential", "ref": "", "surface": "", "lanes": "", "maxspeed": "", "oneway": ""}, "geometry": {"type": "LineString", "coordinates": [[-105.228003, 44.503762], [-105.232727, 44.503711], [-105.233232, 44.503941], [-105.233803, 44.504148], [-105.234409, 44.504355], [-105.234846, 44.504437], [-105.235104, 44.504455], [-105.235508, 44.504373], [-105.235956, 44.504175], [-105.236371, 44.503869], [-105.236472, 44.50359], [-105.236472, 44.502735], [-105.239254, 44.502722]]}}, {"type": "Feature", "properties": {"osm_id": 15689173, "name": "", "highway": "residential", "ref": "", "surface": "", "lanes": "", "maxspeed": "", "oneway": ""}, "geometry": {"type": "LineString", "coordinates": [[-105.19752110312595, 44.49356939000006], [-105.197979, 44.493821], [-105.199161, 44.494118], [-105.201173, 44.494324], [-105.202164, 44.494666], [-105.206222, 44.496747], [-105.206765, 44.497135], [-105.207532, 44.498279], [-105.208139, 44.499532], [-105.208267, 44.499982], [-105.208459, 44.500402], [-105.208555, 44.500482], [-105.208555, 44.501374], [-105.208541, 44.501465], [-105.208459, 44.502014], [-105.208587, 44.50222], [-105.209386, 44.502494], [-105.209514, 44.502654], [-105.209546, 44.503478], [-105.209994, 44.503866], [-105.210793, 44.504003], [-105.213764, 44.503614], [-105.21581, 44.503613], [-105.216736, 44.503659], [-105.218078, 44.503567], [-105.219133, 44.503315], [-105.221177, 44.502652], [-105.222327, 44.502468], [-105.224532, 44.50233], [-105.2280057, 44.50291039999998]]}}, {"type": "Feature", "properties": {"osm_id": 15690117, "name": "", "highway": "service", "ref": "", "surface": "", "lanes": "", "maxspeed": "", "oneway": ""}, "geometry": {"type": "LineString", "coordinates": [[-105.222054, 44.49687], [-105.222973, 44.496823], [-105.223976, 44.496869], [-105.224723, 44.497097], [-105.225449, 44.497401], [-105.226196, 44.497599], [-105.2280164, 44.4976839]]}}, {"type": "Feature", "properties": {"osm_id": 15690232, "name": "", "highway": "residential", "ref": "", "surface": "", "lanes": "", "maxspeed": "", "oneway": ""}, "geometry": {"type": "LineString", "coordinates": [[-105.208459, 44.500402], [-105.20766, 44.500436], [-105.207436, 44.500551], [-105.207245, 44.500803], [-105.206957, 44.500986], [-105.205552, 44.501169], [-105.205232, 44.501397], [-105.204977, 44.501832], [-105.204178, 44.502198], [-105.204018, 44.502449], [-105.203891, 44.503204], [-105.203571, 44.503341], [-105.202964, 44.503319], [-105.199577, 44.50277], [-105.19766, 44.502793], [-105.196318, 44.503022], [-105.19536, 44.502999], [-105.194561, 44.502748], [-105.193666, 44.502382], [-105.192484, 44.502176], [-105.190885, 44.502062], [-105.1898013749999, 44.5020533804686]]}}, {"type": "Feature", "properties": {"osm_id": 15690858, "name": "", "highway": "service", "ref": "", "surface": "", "lanes": "", "maxspeed": "", "oneway": ""}, "geometry": {"type": "LineString", "coordinates": [[-105.2491009619999, 44.543717632196945], [-105.2479604, 44.5432289]]}}, {"type": "Feature", "properties": {"osm_id": 15692148, "name": "Cow Creek Road", "highway": "tertiary", "ref": "", "surface": "unpaved", "lanes": "", "maxspeed": "", "oneway": "no"}, "geometry": {"type": "LineString", "coordinates": [[-105.233375, 44.5260853], [-105.233977, 44.526955], [-105.235032, 44.527915], [-105.236184, 44.528669], [-105.237974, 44.529446], [-105.244786, 44.531935], [-105.246929, 44.532826], [-105.247505, 44.533328], [-105.247633, 44.53374], [-105.2475349, 44.53873440000002], [-105.2475436, 44.5393262], [-105.247608, 44.54028], [-105.247737, 44.54092], [-105.247802, 44.542155], [-105.2479604, 44.5432289], [-105.24848, 44.5461111], [-105.2485878, 44.5463484], [-105.2487369, 44.5465721], [-105.2489103, 44.5467714], [-105.2491009619999, 44.54692810063012]]}}, {"type": "Feature", "properties": {"osm_id": 15692555, "name": "Spring Creek Road", "highway": "unclassified", "ref": "", "surface": "compacted", "lanes": "", "maxspeed": "", "oneway": ""}, "geometry": {"type": "LineString", "coordinates": [[-105.233375, 44.5260853], [-105.2331609, 44.5261065], [-105.2319163, 44.5260645], [-105.2305591, 44.5260377], [-105.2290034, 44.526053], [-105.2284402, 44.5260759], [-105.2280003, 44.5261524], [-105.2275819, 44.526271], [-105.22710440000002, 44.526489], [-105.2267397, 44.526772], [-105.2244437, 44.5286497], [-105.2238482, 44.5291698], [-105.2236015, 44.5294872], [-105.2234888, 44.5297396], [-105.2234781, 44.5300915], [-105.2234781, 44.5304051], [-105.2235639, 44.5307186], [-105.2236927, 44.5311584], [-105.2238375, 44.5317129], [-105.2239341, 44.53222919999999], [-105.22393940000002, 44.5326345], [-105.22392330000001, 44.5329175], [-105.2236122, 44.5343974], [-105.2234566, 44.5349786], [-105.2232796, 44.5353266], [-105.223082, 44.535557], [-105.2228665, 44.5357893], [-105.2224159, 44.5360225], [-105.2219224, 44.5362175], [-105.2210856, 44.5365196], [-105.2203667, 44.5367643], [-105.2199107, 44.53697080000001], [-105.2195674, 44.5371696], [-105.2192885, 44.5374258], [-105.2190203, 44.5377547], [-105.2182639, 44.5389706], [-105.2171212, 44.540771499999984], [-105.2167136, 44.5414138], [-105.21644, 44.5418153], [-105.2161449, 44.542102], [-105.2158123, 44.5424423], [-105.2143532, 44.5437958], [-105.213366, 44.544706], [-105.2130336, 44.5450689], [-105.2128029, 44.5453519], [-105.2126098, 44.5457036], [-105.2122986, 44.5464415], [-105.2117997, 44.5475922], [-105.2115154, 44.5482918], [-105.211274, 44.5486856], [-105.2096379, 44.5507805], [-105.20803103868194, 44.55286897700007]]}}, {"type": "Feature", "properties": {"osm_id": 15693420, "name": "De Vel Street", "highway": "residential", "ref": "", "surface": "", "lanes": "", "maxspeed": "", "oneway": ""}, "geometry": {"type": "LineString", "coordinates": [[-105.2491009619999, 44.549378041211604], [-105.2476194, 44.5493904], [-105.2469048, 44.549281], [-105.247173, 44.5488704]]}}, {"type": "Feature", "properties": {"osm_id": 15693596, "name": "Soda Wells Road", "highway": "unclassified", "ref": "", "surface": "compacted", "lanes": "", "maxspeed": "", "oneway": ""}, "geometry": {"type": "LineString", "coordinates": [[-105.2171212, 44.540771499999984], [-105.2181351, 44.5410047], [-105.2186877, 44.5411577], [-105.2192026, 44.5413488], [-105.2197659, 44.5416662], [-105.220179, 44.5419682], [-105.22093, 44.5426794], [-105.222373, 44.5441093], [-105.224783, 44.546532], [-105.225023, 44.5467511], [-105.2252483, 44.546904], [-105.2255648, 44.547034], [-105.2260906, 44.5472022], [-105.2266431, 44.5473399], [-105.22690590000002, 44.5474546], [-105.2270722, 44.5475654], [-105.2271688, 44.5477298], [-105.2272707, 44.5479707], [-105.2274531, 44.54839119999998], [-105.2275711, 44.5486818], [-105.2276194, 44.54889579999998], [-105.2275872, 44.549129], [-105.22751750000002, 44.5493737], [-105.227152, 44.55003], [-105.2270991, 44.5502797], [-105.2271259, 44.550662], [-105.22719560000002, 44.55104429999999], [-105.2272761, 44.5512622], [-105.2275497, 44.5517554], [-105.2282417, 44.55284479999999], [-105.22825547830126, 44.55286897700007]]}}, {"type": "Feature", "properties": {"osm_id": 48743043, "name": "Adon Road", "highway": "tertiary", "ref": "", "surface": "paved", "lanes": "", "maxspeed": "", "oneway": ""}, "geometry": {"type": "LineString", "coordinates": [[-105.22804141694178, 44.49356939000006], [-105.2280164, 44.4976839], [-105.2280271, 44.4996506], [-105.2280057, 44.50291039999998], [-105.228003, 44.503762], [-105.22799490000001, 44.5097279], [-105.2280197, 44.5102203], [-105.2280763, 44.5103981], [-105.2281735, 44.5106178], [-105.22831680000002, 44.5108335], [-105.2286434, 44.5111818], [-105.2290655, 44.5115315], [-105.2305162, 44.512597], [-105.2314174, 44.513232], [-105.2320558, 44.5137943], [-105.2325279, 44.5143222], [-105.2328712, 44.5147353], [-105.233075, 44.5150528], [-105.2332038, 44.5154736], [-105.2332306, 44.5180402], [-105.233375, 44.5260853]]}}, {"type": "Feature", "properties": {"osm_id": 500531206, "name": "Lou Court", "highway": "residential", "ref": "", "surface": "", "lanes": "", "maxspeed": "", "oneway": ""}, "geometry": {"type": "LineString", "coordinates": [[-105.2456667, 44.5522032], [-105.2464432, 44.5519236], [-105.2469756, 44.551656499999986], [-105.2474464, 44.5513769], [-105.2476065, 44.5512181], [-105.2476194, 44.5493904]]}}, {"type": "Feature", "properties": {"osm_id": 1217926065, "name": "", "highway": "service", "ref": "", "surface": "unpaved", "lanes": "", "maxspeed": "", "oneway": ""}, "geometry": {"type": "LineString", "coordinates": [[-105.2280197, 44.5102203], [-105.2279647, 44.5103964], [-105.22797720000001, 44.5111104], [-105.227994, 44.5113415], [-105.2280582, 44.5114431], [-105.2281417, 44.5115013], [-105.2282662, 44.5115263], [-105.2289028, 44.511503], [-105.2290655, 44.5115315]]}}, {"type": "Feature", "properties": {"osm_id": 1317489464, "name": "", "highway": "service", "ref": "", "surface": "unpaved", "lanes": "", "maxspeed": "", "oneway": ""}, "geometry": {"type": "LineString", "coordinates": [[-105.2446614, 44.54073789999999], [-105.2443417, 44.5402843], [-105.2453365, 44.5401576], [-105.246165, 44.5400146], [-105.2464144, 44.5399349], [-105.2465821, 44.5398358], [-105.246881, 44.5395628], [-105.2471126, 44.5394161], [-105.2473681, 44.5393439], [-105.2475436, 44.5393262]]}}]}