{"type": "FeatureCollection", "name": "aoi", "crs": {"type": "name", "properties": {"name": "urn:ogc:def:crs:OGC:1.3:CRS84"}}, "features": [{"type": "Feature", "properties": {"Name": "AOI", "description": null, "timestamp": null, "begin": null, "end": null, "altitudeMode": null, "tessellate": -1, "extrude": 0, "visibility": -1, "drawOrder": null, "icon": null}, "geometry": {"type": "Polygon", "coordinates": [[[-105.249100970109, 44.55286902040255, 0.0], [-105.249100963933, 44.493569455111434, 0.0], [-105.1898011176438, 44.493569107767684, 0.0], [-105.1898013932574, 44.55286875010026, 0.0], [-105.249100970109, 44.55286902040255, 0.0]]]}}]}